,brand,province,city,area,name,address,lat,lng,Type,id
473,ARIOSEYEARS|艾诺丝雅诗|艾诺丝·雅诗,上海市,上海市,宝山区,艾诺丝雅诗,宝山区长临路913-999号北斗星商业广场1层,31.325043,121.435624,购物服务;服装鞋帽皮具店;服装鞋帽皮具店,B0FFI3KCIL
474,ARIOSEYEARS|艾诺丝雅诗|艾诺丝·雅诗,上海市,上海市,金山区,ARIOSEyears(万达广场店),金山区龙皓路1088号万达广场1层,30.754221,121.33465100000001,购物服务;专卖店;专营店,B0FFI7OL2V
475,ARIOSEYEARS|艾诺丝雅诗|艾诺丝·雅诗,上海市,上海市,长宁区,ARIOSE&years(龙之梦购物中心),长宁区长宁路1018号龙之梦购物中心L3层3041,31.219615,121.41635,购物服务;服装鞋帽皮具店;品牌服装店,B0FFHC02O0
477,ARIOSEYEARS|艾诺丝雅诗|艾诺丝·雅诗,上海市,上海市,闵行区,ARIOSE years,闵行区沪闵路7388号百联南方旗舰总店1层,31.132171999999997,121.400136,购物服务;专卖店;专营店,B0FFGC1S87
123,ARIOSEYEARS|艾诺丝雅诗|艾诺丝·雅诗,云南省,丽江市,永胜县,艾诺丝·雅诗,永胜县井源街与民主广场交叉口东北100米,26.683898,100.750252,购物服务;服装鞋帽皮具店;服装鞋帽皮具店,B0FFFWBZUQ
517,ARIOSEYEARS|艾诺丝雅诗|艾诺丝·雅诗,云南省,保山市,昌宁县,艾诺丝.雅诗(昌宁店),昌宁县兴宁街108号,24.826841,99.613457,购物服务;服装鞋帽皮具店;品牌服装店,B0FFG0KEJB
515,ARIOSEYEARS|艾诺丝雅诗|艾诺丝·雅诗,云南省,保山市,隆阳区,艾诺丝·雅诗,隆阳区上巷街与陆家街交叉口东北100米,25.113035,99.16150999999999,购物服务;服装鞋帽皮具店;服装鞋帽皮具店,B036B0NR9O
516,ARIOSEYEARS|艾诺丝雅诗|艾诺丝·雅诗,云南省,保山市,龙陵县,艾诺丝.雅诗(龙陵店),龙陵县凤凰城三排,24.587726,98.69072,购物服务;服装鞋帽皮具店;服装鞋帽皮具店,B0FFG0K5E6
670,ARIOSEYEARS|艾诺丝雅诗|艾诺丝·雅诗,云南省,大理白族自治州,祥云县,ARIOSE years,祥云县祥城镇文苑路2栋,25.479313,100.555459,购物服务;服装鞋帽皮具店;服装鞋帽皮具店,B0FFIKMOF6
601,ARIOSEYEARS|艾诺丝雅诗|艾诺丝·雅诗,云南省,德宏傣族景颇族自治州,瑞丽市,ARIOSEyears,瑞丽市勐卯镇卯喊路9号景成大酒店对面,24.008879,97.855777,购物服务;服装鞋帽皮具店;品牌服装店,B0FFGK5900
602,ARIOSEYEARS|艾诺丝雅诗|艾诺丝·雅诗,云南省,德宏傣族景颇族自治州,芒市,艾诺丝雅诗,芒市风情街2-309号,24.425639,98.582933,购物服务;服装鞋帽皮具店;品牌服装店,B0FFH5FK7S
658,ARIOSEYEARS|艾诺丝雅诗|艾诺丝·雅诗,云南省,怒江傈僳族自治州,泸水市,艾诺丝.雅诗(六库店),泸水市穿城路190号,25.851160999999998,98.85493000000001,购物服务;服装鞋帽皮具店;服装鞋帽皮具店,B037613K46
648,ARIOSEYEARS|艾诺丝雅诗|艾诺丝·雅诗,云南省,文山壮族苗族自治州,丘北县,ARIOSEyears,丘北县文翠路纳纹旁,24.040360999999997,104.190229,购物服务;服装鞋帽皮具店;品牌服装店,B0FFIGA8QS
650,ARIOSEYEARS|艾诺丝雅诗|艾诺丝·雅诗,云南省,文山壮族苗族自治州,丘北县,艾诺丝,丘北县锦屏镇金色荷塘,24.040439000000003,104.190198,购物服务;购物相关场所;购物相关场所,B0FFFSJC0U
651,ARIOSEYEARS|艾诺丝雅诗|艾诺丝·雅诗,云南省,文山壮族苗族自治州,富宁县,艾诺丝,富宁县珑端街24号,23.627326,105.627641,购物服务;服装鞋帽皮具店;服装鞋帽皮具店,B0FFH5LE81
649,ARIOSEYEARS|艾诺丝雅诗|艾诺丝·雅诗,云南省,文山壮族苗族自治州,文山市,艾诺丝,文山市常春街26号,23.367103,104.252365,购物服务;服装鞋帽皮具店;服装鞋帽皮具店,B0FFHCNSQ2
247,ARIOSEYEARS|艾诺丝雅诗|艾诺丝·雅诗,云南省,昆明市,五华区,艾诺丝(宝善街),五华区护国街道宝善街191号,25.036008,102.713249,购物服务;服装鞋帽皮具店;服装鞋帽皮具店,B0FFGI1RPV
248,ARIOSEYEARS|艾诺丝雅诗|艾诺丝·雅诗,云南省,昆明市,呈贡区,艾诺丝(古银路),呈贡区光明巷与古银路交叉口东北50米,24.890351000000003,102.803438,购物服务;服装鞋帽皮具店;服装鞋帽皮具店,B0FFIGCS2N
246,ARIOSEYEARS|艾诺丝雅诗|艾诺丝·雅诗,云南省,昆明市,安宁市,艾诺丝雅诗(金兴街),安宁市金沙小区89号,24.913328,102.46731,购物服务;服装鞋帽皮具店;服装鞋帽皮具店,B0FFG4B8VY
249,ARIOSEYEARS|艾诺丝雅诗|艾诺丝·雅诗,云南省,昆明市,宜良县,艾诺丝(清远街),宜良县清远街与环城西路交叉口东50米,24.917084,103.143198,购物服务;服装鞋帽皮具店;服装鞋帽皮具店,B0FFF42FMV
245,ARIOSEYEARS|艾诺丝雅诗|艾诺丝·雅诗,云南省,昆明市,晋宁区,艾诺丝雅诗,晋宁区嘉誉商业广场一楼,24.664776,102.59630600000001,购物服务;服装鞋帽皮具店;服装鞋帽皮具店,B0FFJ2CTDE
243,ARIOSEYEARS|艾诺丝雅诗|艾诺丝·雅诗,云南省,昆明市,盘龙区,艾诺丝·雅诗,盘龙区金夏路25号附近,25.074229000000003,102.728904,购物服务;服装鞋帽皮具店;服装鞋帽皮具店,B0FFI3S04W
244,ARIOSEYEARS|艾诺丝雅诗|艾诺丝·雅诗,云南省,昆明市,西山区,艾诺丝-雅诗,西山区南亚风情第壹城A座1FA508,25.008024,102.683769,购物服务;购物相关场所;购物相关场所,B0FFIZFGQ6
614,ARIOSEYEARS|艾诺丝雅诗|艾诺丝·雅诗,云南省,昭通市,巧家县,艾诺丝·雅诗,巧家县小东街20号附近,26.908965999999996,102.930444,购物服务;服装鞋帽皮具店;服装鞋帽皮具店,B0FFFX4CL8
613,ARIOSEYEARS|艾诺丝雅诗|艾诺丝·雅诗,云南省,昭通市,昭阳区,ARIOSEyears,昭阳区团结路4号,27.324227,103.70908,购物服务;服装鞋帽皮具店;品牌服装店,B0FFHR4SKD
615,ARIOSEYEARS|艾诺丝雅诗|艾诺丝·雅诗,云南省,昭通市,水富县,艾诺丝雅诗(水富店),水富县人民西路64号,28.63195,104.412994,购物服务;服装鞋帽皮具店;服装鞋帽皮具店,B0FFIP04FT
310,ARIOSEYEARS|艾诺丝雅诗|艾诺丝·雅诗,云南省,曲靖市,会泽县,艾诺丝雅诗(西直街),会泽县西直街131号附近,26.413057000000002,103.294403,购物服务;服装鞋帽皮具店;服装鞋帽皮具店,B0FFFPWWV1
309,ARIOSEYEARS|艾诺丝雅诗|艾诺丝·雅诗,云南省,曲靖市,富源县,艾诺丝,富源县中安镇金城路153号新华宾馆1楼,25.669745000000002,104.25701,购物服务;购物相关场所;购物相关场所,B0FFH8WC95
313,ARIOSEYEARS|艾诺丝雅诗|艾诺丝·雅诗,云南省,曲靖市,师宗县,ARIOSE years,师宗县文化路与通关巷交叉口东50米,24.825028,103.99418,购物服务;服装鞋帽皮具店;服装鞋帽皮具店,B0FFFSCWES
311,ARIOSEYEARS|艾诺丝雅诗|艾诺丝·雅诗,云南省,曲靖市,沾益区,ARIOSE years,沾益区龙华东路76号附近,25.600826,103.82349,购物服务;服装鞋帽皮具店;服装鞋帽皮具店,B0FFIY6LB8
308,ARIOSEYEARS|艾诺丝雅诗|艾诺丝·雅诗,云南省,曲靖市,罗平县,艾诺丝,罗平县罗雄镇文笔路,24.888116,104.308757,购物服务;服装鞋帽皮具店;服装鞋帽皮具店,B0FFH9DKNI
312,ARIOSEYEARS|艾诺丝雅诗|艾诺丝·雅诗,云南省,曲靖市,罗平县,ARIOSE years,罗平县罗雄镇鲁布革水力发电厂生活区一号院,24.888207,104.30891899999999,购物服务;服装鞋帽皮具店;服装鞋帽皮具店,B0FFILDEKU
538,ARIOSEYEARS|艾诺丝雅诗|艾诺丝·雅诗,云南省,楚雄彝族自治州,武定县,艾诺丝·雅诗(武定店),武定县明惠路与狮山大道交叉口南100米,25.528588,102.409374,购物服务;服装鞋帽皮具店;服装鞋帽皮具店,B0FFF2TJYZ
535,ARIOSEYEARS|艾诺丝雅诗|艾诺丝·雅诗,云南省,玉溪市,华宁县,艾诺丝,华宁县东市街与宁锦街交叉口东50米,24.189395,102.93262299999999,购物服务;服装鞋帽皮具店;服装鞋帽皮具店,B0FFG5YQXL
534,ARIOSEYEARS|艾诺丝雅诗|艾诺丝·雅诗,云南省,玉溪市,红塔区,艾诺丝.雅诗(玉溪店),红塔区凤凰路73-5号,24.349110999999997,102.543922,购物服务;服装鞋帽皮具店;服装鞋帽皮具店,B036D0NXN7
328,ARIOSEYEARS|艾诺丝雅诗|艾诺丝·雅诗,云南省,红河哈尼族彝族自治州,泸西县,艾诺丝·雅诗(沪西店),泸西县中枢镇北正街86号,24.528408,103.76361999999999,购物服务;服装鞋帽皮具店;品牌服装店,B0FFFSILPN
117,ARIOSEYEARS|艾诺丝雅诗|艾诺丝·雅诗,云南省,西双版纳傣族自治州,景洪市,艾诺丝·雅诗(景洪店),景洪市莎湾国际B1-76-77号,22.00579,100.795829,购物服务;服装鞋帽皮具店;服装鞋帽皮具店,B02B30LZXR
129,ARIOSEYEARS|艾诺丝雅诗|艾诺丝·雅诗,云南省,迪庆藏族自治州,香格里拉市,艾诺丝雅诗(步行街),香格里拉市坛城文化中心广场与步行街交叉口南100米,27.821334000000004,99.702659,购物服务;服装鞋帽皮具店;服装鞋帽皮具店,B0FFGZUOU8
286,ARIOSEYEARS|艾诺丝雅诗|艾诺丝·雅诗,内蒙古自治区,乌兰察布市,集宁区,ARIOSE years,集宁区恩和大街12号附近,41.035031,113.11349799999999,购物服务;购物相关场所;购物相关场所,B0FFICXKGA
5,ARIOSEYEARS|艾诺丝雅诗|艾诺丝·雅诗,内蒙古自治区,乌海市,海勃湾区,ARIOSE&years,海勃湾区人民路27号万客隆购物中心F4,39.667638000000004,106.8197,购物服务;服装鞋帽皮具店;品牌服装店,B0FFG9ZDHA
652,ARIOSEYEARS|艾诺丝雅诗|艾诺丝·雅诗,内蒙古自治区,包头市,东河区,艾诺丝·雅诗,东河区南门外街道南门外大街10号包百大楼3楼,40.579263,110.02923799999999,购物服务;专卖店;专营店,B0FFH1JDR4
653,ARIOSEYEARS|艾诺丝雅诗|艾诺丝·雅诗,内蒙古自治区,包头市,青山区,ARIOSE&YEARS(王府井百货),青山区幸福路甲3号王府井百货F3层,40.668788,109.879927,购物服务;服装鞋帽皮具店;品牌鞋店,B0FFH24YTI
212,ARIOSEYEARS|艾诺丝雅诗|艾诺丝·雅诗,内蒙古自治区,呼伦贝尔市,海拉尔区,艾诺丝雅诗,海拉尔区伊仕丹购物广场三楼,49.213127,119.74716200000002,购物服务;服装鞋帽皮具店;服装鞋帽皮具店,B0FFJ0M94C
142,ARIOSEYEARS|艾诺丝雅诗|艾诺丝·雅诗,内蒙古自治区,呼和浩特市,赛罕区,ARIOSE&YEARS,赛罕区新华东街66号长乐宫购物中心2层,40.830116,111.70843500000001,购物服务;服装鞋帽皮具店;服装鞋帽皮具店,B0FFFPJKI8
383,ARIOSEYEARS|艾诺丝雅诗|艾诺丝·雅诗,内蒙古自治区,赤峰市,松山区,ARIOSEyears,松山区全宁街与支二路交叉口北50米,42.25665,118.88198999999999,购物服务;服装鞋帽皮具店;品牌服装店,B0FFILDA8R
301,ARIOSEYEARS|艾诺丝雅诗|艾诺丝·雅诗,内蒙古自治区,通辽市,奈曼旗,艾诺丝(嘉汇商业广场东),奈曼旗奈曼大街2520号,42.847893,120.661798,购物服务;服装鞋帽皮具店;品牌服装店,B0FFHD70M6
300,ARIOSEYEARS|艾诺丝雅诗|艾诺丝·雅诗,内蒙古自治区,通辽市,扎鲁特旗,艾诺丝,扎鲁特旗鲁北镇公安局北侧街道路北,44.552747,120.909654,购物服务;购物相关场所;购物相关场所,B0FFHG1W0R
37,ARIOSEYEARS|艾诺丝雅诗|艾诺丝·雅诗,内蒙古自治区,鄂尔多斯市,乌审旗,艾诺丝(雅诗乌审旗店),乌审旗萨拉乌苏街西50米,38.600935,108.843149,购物服务;购物相关场所;购物相关场所,B0FFG0ITYJ
487,ARIOSEYEARS|艾诺丝雅诗|艾诺丝·雅诗,内蒙古自治区,锡林郭勒盟,西乌珠穆沁旗,艾诺丝(雅诗西乌旗店),西乌珠穆沁旗巴彦高勒路与巴拉嘎尔街交叉口东南100米,44.583869,117.615297,购物服务;服装鞋帽皮具店;服装鞋帽皮具店,B0FFFYPQEP
486,ARIOSEYEARS|艾诺丝雅诗|艾诺丝·雅诗,内蒙古自治区,锡林郭勒盟,锡林浩特市,艾诺丝雅诗,锡林浩特市民盛购物中心二楼女装,43.938931,116.085449,购物服务;服装鞋帽皮具店;服装鞋帽皮具店,B0FFJ407FT
218,ARIOSEYEARS|艾诺丝雅诗|艾诺丝·雅诗,北京市,北京市,朝阳区,arioseyears,朝阳区太阳宫中路12号,39.971216,116.44720600000001,购物服务;服装鞋帽皮具店;品牌服装店,B0FFJ36HZR
220,ARIOSEYEARS|艾诺丝雅诗|艾诺丝·雅诗,北京市,北京市,海淀区,ARIOSE&years(世纪金源购物中心东区),海淀区远大路1号世纪金源购物中心东区F2层北2066,39.958651,116.28944299999999,购物服务;服装鞋帽皮具店;品牌服装店,B0FFHE2DB9
221,ARIOSEYEARS|艾诺丝雅诗|艾诺丝·雅诗,北京市,北京市,海淀区,ARIOSE years(新中关购物中心),海淀区中关村大街19号新中关购物中心F2层L225、L226,39.97814,116.31541499999999,购物服务;服装鞋帽皮具店;品牌服装店,B0FFIA0CMN
219,ARIOSEYEARS|艾诺丝雅诗|艾诺丝·雅诗,北京市,北京市,西城区,ARIOSE years(凯德MALL·西直门),西城区西直门外大街1号凯德MALL·西直门F3层L3-32A,39.94197,116.352579,购物服务;服装鞋帽皮具店;品牌服装店,B0FFIB9KUM
347,ARIOSEYEARS|艾诺丝雅诗|艾诺丝·雅诗,吉林省,吉林市,昌邑区,艾诺丝雅诗(天津街店),昌邑区天津街与天胜胡同交叉口东北100米,43.842909000000006,126.573594,购物服务;服装鞋帽皮具店;服装鞋帽皮具店,B01B00P115
656,ARIOSEYEARS|艾诺丝雅诗|艾诺丝·雅诗,吉林省,四平市,公主岭市,ARIOSEyears,公主岭市华生百货三楼,43.505349,124.811543,购物服务;服装鞋帽皮具店;品牌服装店,B0FFHKN0AN
657,ARIOSEYEARS|艾诺丝雅诗|艾诺丝·雅诗,吉林省,四平市,双辽市,艾诺丝皮草(美人鱼服饰),双辽市北丰街与北安路交叉口东100米,43.517152,123.50341999999999,购物服务;服装鞋帽皮具店;品牌服装店,B0FFH80SX8
370,ARIOSEYEARS|艾诺丝雅诗|艾诺丝·雅诗,吉林省,白山市,抚松县,ARIOSE years,抚松县松山街与松江路交叉口西北200米,42.171282,127.48695900000001,购物服务;服装鞋帽皮具店;服装鞋帽皮具店,B0FFI6WJE8
578,ARIOSEYEARS|艾诺丝雅诗|艾诺丝·雅诗,吉林省,辽源市,龙山区,艾诺丝雅诗,龙山区银座三楼,42.903442999999996,125.148652,购物服务;服装鞋帽皮具店;品牌服装店,B0FFHH2Q95
654,ARIOSEYEARS|艾诺丝雅诗|艾诺丝·雅诗,吉林省,通化市,辉南县,艾诺丝雅诗,辉南县凯旋路与朝阳大街交叉口东50米,42.68275,126.04547099999999,购物服务;服装鞋帽皮具店;服装鞋帽皮具店,B0FFH9RK8V
260,ARIOSEYEARS|艾诺丝雅诗|艾诺丝·雅诗,吉林省,长春市,农安县,艾诺丝雅诗,农安县农安镇步行街,44.431468,125.17606699999999,购物服务;服装鞋帽皮具店;服装鞋帽皮具店,B0FFIA91VF
259,ARIOSEYEARS|艾诺丝雅诗|艾诺丝·雅诗,吉林省,长春市,朝阳区,艾诺丝雅诗,朝阳区开运街5178号2楼,43.841152,125.243683,购物服务;服装鞋帽皮具店;服装鞋帽皮具店,B0FFIYUN7L
107,ARIOSEYEARS|艾诺丝雅诗|艾诺丝·雅诗,四川省,乐山市,夹江县,艾诺丝雅诗,夹江县焉城镇建设中路243号,29.740328,103.57536400000001,购物服务;服装鞋帽皮具店;服装鞋帽皮具店,B0FFIH6WPU
584,ARIOSEYEARS|艾诺丝雅诗|艾诺丝·雅诗,四川省,凉山彝族自治州,会理县,ARIOSEyears,会理县建设路375号,26.660996,102.251139,购物服务;服装鞋帽皮具店;品牌服装店,B0FFGIBQON
585,ARIOSEYEARS|艾诺丝雅诗|艾诺丝·雅诗,四川省,凉山彝族自治州,冕宁县,艾诺丝雅诗专卖店,冕宁县城厢镇小东河步行街,28.550301,102.174531,购物服务;专卖店;专营店,B0FFH3CF1T
162,ARIOSEYEARS|艾诺丝雅诗|艾诺丝·雅诗,四川省,南充市,南部县,ARIOSEyears,南部县体育路与南部县步行街交叉口东北50米,31.35122,106.06383000000001,购物服务;服装鞋帽皮具店;品牌服装店,B0FFIGK7SG
668,ARIOSEYEARS|艾诺丝雅诗|艾诺丝·雅诗,四川省,巴中市,巴州区,艾诺丝雅诗,巴州区南泉寺街38号新惠裕商场,31.851872999999998,106.764427,购物服务;服装鞋帽皮具店;服装鞋帽皮具店,B0FFIZUORZ
389,ARIOSEYEARS|艾诺丝雅诗|艾诺丝·雅诗,四川省,广元市,苍溪县,ARIOSEyears,苍溪县晓古街与解放路西段交叉口南50米,31.732478000000004,105.93703000000001,购物服务;服装鞋帽皮具店;品牌服装店,B0FFHQZ0R4
410,ARIOSEYEARS|艾诺丝雅诗|艾诺丝·雅诗,四川省,广安市,广安区,ARIOSEyears,广安区金安大道一段91号,30.458270000000002,106.632269,购物服务;服装鞋帽皮具店;品牌服装店,B0FFGT3CQR
492,ARIOSEYEARS|艾诺丝雅诗|艾诺丝·雅诗,四川省,德阳市,旌阳区,ARIOSE years,旌阳区庐山南路二段49号盛唐摩尔购物广场F1,31.119184999999998,104.411614,购物服务;专卖店;专营店,B0FFH2DRFO
290,ARIOSEYEARS|艾诺丝雅诗|艾诺丝·雅诗,四川省,成都市,武侯区,艾诺丝·雅诗,武侯区簇桥龙井北街20号,30.605457,103.99485,购物服务;服装鞋帽皮具店;品牌服装店,B0FFG8K95G
294,ARIOSEYEARS|艾诺丝雅诗|艾诺丝·雅诗,四川省,成都市,郫都区,ARIOSE years(蜀都万达广场),郫都区望丛东路139号蜀都万达广场F1层,30.807199,103.907206,购物服务;服装鞋帽皮具店;品牌服装店,B0FFIC6SGV
291,ARIOSEYEARS|艾诺丝雅诗|艾诺丝·雅诗,四川省,成都市,金牛区,艾诺丝雅诗(西体路),金牛区西体路5号附13号,30.679689,104.057631,购物服务;服装鞋帽皮具店;服装鞋帽皮具店,B0FFG0ZD3C
295,ARIOSEYEARS|艾诺丝雅诗|艾诺丝·雅诗,四川省,成都市,金牛区,ARIOSE years,金牛区抚琴西路155号附近,30.679488,104.03468000000001,购物服务;服装鞋帽皮具店;服装鞋帽皮具店,B0FFJ5VTCQ
292,ARIOSEYEARS|艾诺丝雅诗|艾诺丝·雅诗,四川省,成都市,锦江区,艾诺丝雅诗(尚都服饰广场),锦江区春熙路西段128号尚都服饰广场F11层,30.656436,104.075321,购物服务;服装鞋帽皮具店;品牌服装店,B0FFG1O2OZ
536,ARIOSEYEARS|艾诺丝雅诗|艾诺丝·雅诗,四川省,攀枝花市,东区,艾诺丝雅诗,东区攀枝花大道东段425号附近,26.573415,101.727561,购物服务;服装鞋帽皮具店;品牌服装店,B0FFGF7TNG
537,ARIOSEYEARS|艾诺丝雅诗|艾诺丝·雅诗,四川省,攀枝花市,米易县,艾诺丝·雅诗,米易县新民巷与河滨路交叉口西南50米,26.889073,102.110553,购物服务;服装鞋帽皮具店;服装鞋帽皮具店,B0FFGO5UOK
49,ARIOSEYEARS|艾诺丝雅诗|艾诺丝·雅诗,四川省,泸州市,合江县,艾诺丝·雅诗(合江店),合江县商业路与稻谷仓巷交叉口东北50米,28.80479,105.838325,购物服务;服装鞋帽皮具店;服装鞋帽皮具店,B0FFFTV035
50,ARIOSEYEARS|艾诺丝雅诗|艾诺丝·雅诗,四川省,泸州市,合江县,艾诺丝(稻谷仓巷),合江县商业路406,28.804639,105.838394,购物服务;服装鞋帽皮具店;服装鞋帽皮具店,B0FFGIB480
95,ARIOSEYEARS|艾诺丝雅诗|艾诺丝·雅诗,四川省,眉山市,洪雅县,艾诺丝·雅诗,洪雅县人民路26号,29.903722,103.372519,购物服务;服装鞋帽皮具店;服装鞋帽皮具店,B0FFG0E8KG
372,ARIOSEYEARS|艾诺丝雅诗|艾诺丝·雅诗,四川省,绵阳市,涪城区,艾诺丝雅诗(安昌路),涪城区安昌路18号爱喜嘉年华1115号,31.459446000000003,104.74780200000001,购物服务;服装鞋帽皮具店;服装鞋帽皮具店,B0FFGBRX54
283,ARIOSEYEARS|艾诺丝雅诗|艾诺丝·雅诗,四川省,自贡市,自流井区,艾诺丝(雅诗自贡店),自流井区华园街与春华路交叉口东100米,29.339108000000003,104.776422,购物服务;服装鞋帽皮具店;服装鞋帽皮具店,B0FFFOMNKK
284,ARIOSEYEARS|艾诺丝雅诗|艾诺丝·雅诗,四川省,自贡市,自流井区,艾诺丝,自流井区新民街9号附近,29.353938,104.770443,购物服务;购物相关场所;购物相关场所,B0FFHW7KB3
285,ARIOSEYEARS|艾诺丝雅诗|艾诺丝·雅诗,四川省,自贡市,自流井区,ARIOSE YEARS(自贡店),自流井区华园街与春华路交叉口东100米,29.339085999999998,104.776333,购物服务;购物相关场所;购物相关场所,B0FFHM695I
282,ARIOSEYEARS|艾诺丝雅诗|艾诺丝·雅诗,四川省,自贡市,荣县,艾诺丝·雅诗,荣县旭阳镇中阳大道9-11号,29.456096000000002,104.423043,购物服务;购物相关场所;购物相关场所,B0FFFVQQQP
335,ARIOSEYEARS|艾诺丝雅诗|艾诺丝·雅诗,四川省,达州市,大竹县,艾诺丝雅诗(新华路东段),大竹县竹阳镇煌歌广场H8-9三号门市,30.737040999999998,107.21021200000001,购物服务;服装鞋帽皮具店;服装鞋帽皮具店,B0FFFZ5I52
334,ARIOSEYEARS|艾诺丝雅诗|艾诺丝·雅诗,四川省,达州市,开江县,艾诺丝雅诗,开江县新宁镇金宝贝幼儿园路口,31.085377,107.86037900000001,购物服务;服装鞋帽皮具店;服装鞋帽皮具店,B0FFHCJDA6
336,ARIOSEYEARS|艾诺丝雅诗|艾诺丝·雅诗,四川省,达州市,渠县,艾诺丝(胜利街店),渠县渠江镇胜利街绿阴商城,30.836145000000002,106.97179399999999,购物服务;服装鞋帽皮具店;服装鞋帽皮具店,B0FFGJLU50
337,ARIOSEYEARS|艾诺丝雅诗|艾诺丝·雅诗,四川省,达州市,通川区,艾诺丝雅诗专柜,通川区新世纪百货商都二楼,31.213009000000003,107.50518000000001,购物服务;购物相关场所;购物相关场所,B0FFHXOL9W
326,ARIOSEYEARS|艾诺丝雅诗|艾诺丝·雅诗,四川省,遂宁市,射洪县,艾诺丝雅诗(人民街),射洪县人民街101-103号,30.870807,105.387901,购物服务;服装鞋帽皮具店;服装鞋帽皮具店,B0FFGRI6RO
580,ARIOSEYEARS|艾诺丝雅诗|艾诺丝·雅诗,四川省,雅安市,雨城区,艾诺丝·雅诗,雨城区育才路社区羌江南路152号,29.982096000000002,103.01201400000001,购物服务;服装鞋帽皮具店;服装鞋帽皮具店,B0FFFY4W0O
48,ARIOSEYEARS|艾诺丝雅诗|艾诺丝·雅诗,天津市,天津市,北辰区,ARIOSE years,北辰区双发商业街70号附近,39.221086,117.135337,购物服务;购物相关场所;购物相关场所,B0FFI9KVDC
47,ARIOSEYEARS|艾诺丝雅诗|艾诺丝·雅诗,天津市,天津市,武清区,ARIOSE years,武清区广厦道与泉州路交叉口东北50米,39.372875,117.05258500000001,购物服务;服装鞋帽皮具店;服装鞋帽皮具店,B0FFIDDIWV
105,ARIOSEYEARS|艾诺丝雅诗|艾诺丝·雅诗,宁夏回族自治区,吴忠市,同心县,艾诺丝,同心县荣世步行街南15,36.982490999999996,105.91258799999999,购物服务;服装鞋帽皮具店;服装鞋帽皮具店,B0FFH3IA96
520,ARIOSEYEARS|艾诺丝雅诗|艾诺丝·雅诗,宁夏回族自治区,固原市,原州区,艾诺丝·雅诗金美晶名店,原州区西关街183号附近,36.005958,106.282798,购物服务;服装鞋帽皮具店;服装鞋帽皮具店,B03BA0MMRL
207,ARIOSEYEARS|艾诺丝雅诗|艾诺丝·雅诗,宁夏回族自治区,银川市,兴庆区,艾诺丝·雅诗(银川店),兴庆区仁义巷与工农巷交叉口东50米,38.463642,106.278975,购物服务;服装鞋帽皮具店;服装鞋帽皮具店,B0FFF91WBF
208,ARIOSEYEARS|艾诺丝雅诗|艾诺丝·雅诗,宁夏回族自治区,银川市,灵武市,艾诺丝雅诗女装专卖,灵武市水上锦都步行街1-3,38.093090000000004,106.33236000000001,购物服务;购物相关场所;购物相关场所,B0FFHEVMNO
209,ARIOSEYEARS|艾诺丝雅诗|艾诺丝·雅诗,宁夏回族自治区,银川市,西夏区,ARIOSE&years,西夏区金波街与怀远路交叉口西夏万达一楼1026号,38.492309000000006,106.149845,购物服务;服装鞋帽皮具店;品牌服装店,B0FFH0V1YL
210,ARIOSEYEARS|艾诺丝雅诗|艾诺丝·雅诗,宁夏回族自治区,银川市,金凤区,ARIOSE years(万达广场),金凤区正源北街22号万达广场F2层,38.486803,106.247666,购物服务;服装鞋帽皮具店;品牌服装店,B0FFI5M7K7
211,ARIOSEYEARS|艾诺丝雅诗|艾诺丝·雅诗,宁夏回族自治区,银川市,金凤区,ARIOSE&years,金凤区康平路悦海新天地广场一楼,38.495385,106.246505,购物服务;服装鞋帽皮具店;品牌服装店,B0FFHQQ17S
323,ARIOSEYEARS|艾诺丝雅诗|艾诺丝·雅诗,安徽省,六安市,舒城县,ARIOSE years,舒城县梅山南路步行街与梅河中路交叉口东50米,31.461985,116.94383700000002,购物服务;购物相关场所;购物相关场所,B0FFIAXGHD
322,ARIOSEYEARS|艾诺丝雅诗|艾诺丝·雅诗,安徽省,六安市,裕安区,艾诺丝雅诗,裕安区解放路白云商厦3层,31.753915000000003,116.496665,购物服务;服装鞋帽皮具店;服装鞋帽皮具店,B0FFGAIH67
134,ARIOSEYEARS|艾诺丝雅诗|艾诺丝·雅诗,安徽省,合肥市,瑶海区,ARIOSE&years,瑶海区长江东路与东二环交口G区衣之家百货1F,31.870956,117.33658600000001,购物服务;服装鞋帽皮具店;品牌服装店,B0FFI6M84T
135,ARIOSEYEARS|艾诺丝雅诗|艾诺丝·雅诗,安徽省,合肥市,瑶海区,ARIOSE years,瑶海区长江东路1137号商之都东城商厦2楼,31.863889,117.302829,购物服务;服装鞋帽皮具店;品牌服装店,B0FFGW3CA0
24,ARIOSEYEARS|艾诺丝雅诗|艾诺丝·雅诗,安徽省,宣城市,宁国市,艾诺丝雅诗(商之都),宁国市宁阳中路218号商之都F2层,30.616284000000004,118.976867,购物服务;服装鞋帽皮具店;品牌服装店,B0FFHVUV7T
23,ARIOSEYEARS|艾诺丝雅诗|艾诺丝·雅诗,安徽省,宣城市,宣州区,艾诺丝雅诗(八佰伴),宣州区叠嶂西路12号八佰伴F3层,30.94503,118.754189,购物服务;服装鞋帽皮具店;品牌服装店,B0FFHW8KYG
551,ARIOSEYEARS|艾诺丝雅诗|艾诺丝·雅诗,安徽省,宿州市,埇桥区,艾诺丝雅诗(淮海南路),埇桥区淮海南路862号附近,33.628105,116.98146000000001,购物服务;服装鞋帽皮具店;服装鞋帽皮具店,B0FFG8LB5Y
552,ARIOSEYEARS|艾诺丝雅诗|艾诺丝·雅诗,安徽省,宿州市,埇桥区,艾诺丝雅诗专柜,埇桥区汴河中路399号宿州商之都(安徽省宿州市立医院东)2层,33.631351,116.98691000000001,购物服务;服装鞋帽皮具店;服装鞋帽皮具店,B0FFGJU9E0
398,ARIOSEYEARS|艾诺丝雅诗|艾诺丝·雅诗,安徽省,池州市,贵池区,艾诺丝雅诗(商之都),贵池区长江中路与百牙中路交叉口商之都F2层,30.663418,117.483572,购物服务;服装鞋帽皮具店;品牌服装店,B0FFFDIB5N
399,ARIOSEYEARS|艾诺丝雅诗|艾诺丝·雅诗,安徽省,池州市,青阳县,艾诺丝.雅诗(蓉城店),青阳县蓉城镇蓉城路中国银行北50米,30.637435999999997,117.85897,购物服务;服装鞋帽皮具店;服装鞋帽皮具店,B0FFFRTKA3
345,ARIOSEYEARS|艾诺丝雅诗|艾诺丝·雅诗,安徽省,淮北市,濉溪县,艾诺丝(雅诗濉溪店),濉溪县淮海路366号,33.919854,116.769442,购物服务;购物相关场所;购物相关场所,B0FFFRD2AP
346,ARIOSEYEARS|艾诺丝雅诗|艾诺丝·雅诗,安徽省,淮北市,相山区,艾诺丝·雅诗(淮北店),相山区更新巷与淮海中路交叉口东北50米,33.973799,116.803496,购物服务;服装鞋帽皮具店;服装鞋帽皮具店,B0FFG1V6JS
273,ARIOSEYEARS|艾诺丝雅诗|艾诺丝·雅诗,安徽省,滁州市,琅琊区,艾诺丝雅诗,琅琊区南谯北路738号白云商厦(南谯北路)3层,32.306603,118.310576,购物服务;服装鞋帽皮具店;服装鞋帽皮具店,B0FFGBN9IV
644,ARIOSEYEARS|艾诺丝雅诗|艾诺丝·雅诗,安徽省,芜湖市,镜湖区,ARIOSE&years,镜湖区汀棠公共服务中心汀棠公共服务中心银湖路8号华亿星隆国际城3期2号楼3楼,31.348894,118.375404,购物服务;服装鞋帽皮具店;品牌服装店,B0FFG79AHC
121,ARIOSEYEARS|艾诺丝雅诗|艾诺丝·雅诗,安徽省,蚌埠市,蚌山区,艾诺丝(商之都),蚌山区胜利中路65号商之都F2层,32.94012,117.364528,购物服务;购物相关场所;购物相关场所,B0FFHBZEKT
104,ARIOSEYEARS|艾诺丝雅诗|艾诺丝·雅诗,安徽省,阜阳市,太和县,ARIOSE years,太和县环城南路2号楼附近,33.1629,115.623926,购物服务;服装鞋帽皮具店;服装鞋帽皮具店,B0FFINAFH3
103,ARIOSEYEARS|艾诺丝雅诗|艾诺丝·雅诗,安徽省,阜阳市,界首市,艾诺丝,界首市人民路409号,33.260042,115.36221699999999,购物服务;服装鞋帽皮具店;服装鞋帽皮具店,B0FFGLGZOF
102,ARIOSEYEARS|艾诺丝雅诗|艾诺丝·雅诗,安徽省,阜阳市,颍州区,艾诺丝,颍州区文峰街道颖上北路商厦南50米,32.897663,115.831787,购物服务;服装鞋帽皮具店;服装鞋帽皮具店,B0FFGKR1NC
419,ARIOSEYEARS|艾诺丝雅诗|艾诺丝·雅诗,安徽省,马鞍山市,当涂县,艾诺丝,当涂县姑孰镇东大街198号,31.551339000000002,118.490897,购物服务;服装鞋帽皮具店;服装鞋帽皮具店,B0FFHNMM0W
271,ARIOSEYEARS|艾诺丝雅诗|艾诺丝·雅诗,安徽省,黄山市,休宁县,艾诺丝(女人街店),休宁县萝宁街147号附近,29.786640999999996,118.18156100000002,购物服务;服装鞋帽皮具店;品牌服装店,B0FFFGPEOP
270,ARIOSEYEARS|艾诺丝雅诗|艾诺丝·雅诗,安徽省,黄山市,屯溪区,艾诺丝(康乐路),屯溪区宇隆商贸城一街31号,29.709162,118.311443,购物服务;服装鞋帽皮具店;服装鞋帽皮具店,B0FFFE4O7L
272,ARIOSEYEARS|艾诺丝雅诗|艾诺丝·雅诗,安徽省,黄山市,黄山区,ARIOSEyears艾诺丝,黄山区龙井东路与龙井西路交叉口南150米,30.297309999999996,118.13762,购物服务;服装鞋帽皮具店;服装鞋帽皮具店,B0FFFGOIF0
188,ARIOSEYEARS|艾诺丝雅诗|艾诺丝·雅诗,山东省,临沂市,兰山区,艾诺丝·雅诗(沂蒙路百货大楼),兰山区沂蒙路181号沂蒙路百货大楼F2层,35.051947,118.344094,购物服务;服装鞋帽皮具店;品牌服装店,B0FFH1GAL0
29,ARIOSEYEARS|艾诺丝雅诗|艾诺丝·雅诗,山东省,枣庄市,市中区,艾诺丝(文化中路),市中区文化中路66号,34.852181,117.56486299999999,购物服务;服装鞋帽皮具店;服装鞋帽皮具店,B0FFHCN9TS
418,ARIOSEYEARS|艾诺丝雅诗|艾诺丝·雅诗,山东省,济南市,历下区,ARIOSE years(济南恒隆广场西翼),历下区泉城路188号济南恒隆广场西翼L4层458,36.6634,117.022605,购物服务;服装鞋帽皮具店;品牌服装店,B0FFI0CXIT
417,ARIOSEYEARS|艾诺丝雅诗|艾诺丝·雅诗,山东省,济南市,市中区,艾诺丝雅诗,市中区二环南路2688号贵和购物中心2层,36.593204,117.002567,购物服务;服装鞋帽皮具店;品牌服装店,B0FFHC0NNQ
17,ARIOSEYEARS|艾诺丝雅诗|艾诺丝·雅诗,山东省,淄博市,临淄区,艾诺丝雅诗,临淄区桓公路61号甲12号,36.814417999999996,118.29585800000001,购物服务;服装鞋帽皮具店;服装鞋帽皮具店,B0FFHD9MS5
16,ARIOSEYEARS|艾诺丝雅诗|艾诺丝·雅诗,山东省,淄博市,沂源县,ARIOSEyears,沂源县健康路16-1号,36.185970000000005,118.16941000000001,购物服务;服装鞋帽皮具店;品牌服装店,B0FFIK706F
18,ARIOSEYEARS|艾诺丝雅诗|艾诺丝·雅诗,山东省,淄博市,淄川区,ARIOSE&YEARS(新星商厦),淄川区张博路大桥北新星商厦F3层,36.647538,117.959126,购物服务;服装鞋帽皮具店;品牌鞋店,B0FFH1BHR6
523,ARIOSEYEARS|艾诺丝雅诗|艾诺丝·雅诗,山东省,潍坊市,坊子区,艾诺丝雅诗,坊子区凤凰街与朝凤路交叉口东南50米,36.651495000000004,119.169473,购物服务;服装鞋帽皮具店;服装鞋帽皮具店,B0FFGLEUHW
522,ARIOSEYEARS|艾诺丝雅诗|艾诺丝·雅诗,山东省,潍坊市,昌邑市,ARIOSEyears,昌邑市奎聚街道利民街349号,36.853694,119.401219,购物服务;服装鞋帽皮具店;品牌服装店,B0FFIM9YJ5
524,ARIOSEYEARS|艾诺丝雅诗|艾诺丝·雅诗,山东省,潍坊市,昌邑市,艾诺丝,昌邑市奎聚街道利民街349号,36.853694,119.401219,购物服务;购物相关场所;购物相关场所,B0FFGKRLNP
525,ARIOSEYEARS|艾诺丝雅诗|艾诺丝·雅诗,山东省,烟台市,龙口市,艾诺丝·雅诗(浮岛名店),龙口市黄城大十字路,37.647394,120.532656,购物服务;服装鞋帽皮具店;服装鞋帽皮具店,B0FFFTVCVU
146,ARIOSEYEARS|艾诺丝雅诗|艾诺丝·雅诗,山东省,聊城市,茌平县,艾诺丝,茌平县振兴街道中心街和谐广场,36.586433,116.25578,购物服务;服装鞋帽皮具店;服装鞋帽皮具店,B0FFFXPOC8
379,ARIOSEYEARS|艾诺丝雅诗|艾诺丝·雅诗,山东省,青岛市,平度市,艾诺丝雅诗,平度市李园街道红旗路176号,36.786101,119.95257600000001,购物服务;服装鞋帽皮具店;服装鞋帽皮具店,B0FFHBXYD7
380,ARIOSEYEARS|艾诺丝雅诗|艾诺丝·雅诗,山东省,青岛市,胶州市,ARIOSE&years,胶州市澳门路298号利群购物广场三楼,36.255354,120.03496200000001,购物服务;服装鞋帽皮具店;品牌服装店,B0FFHSRF2C
378,ARIOSEYEARS|艾诺丝雅诗|艾诺丝·雅诗,山东省,青岛市,黄岛区,ARIOSEyears,黄岛区琅琊台路135号,35.872979,119.99666100000002,购物服务;服装鞋帽皮具店;品牌服装店,B0FFIIPT55
229,ARIOSEYEARS|艾诺丝雅诗|艾诺丝·雅诗,山西省,临汾市,洪洞县,ARIOSE years,洪洞县关帝楼文化区广场大厦2号商场附近,36.258134999999996,111.67365500000001,购物服务;服装鞋帽皮具店;服装鞋帽皮具店,B0FFIDEBEN
99,ARIOSEYEARS|艾诺丝雅诗|艾诺丝·雅诗,山西省,吕梁市,孝义市,艾诺丝雅诗,孝义市府前步行街06号,37.141933,111.775784,购物服务;服装鞋帽皮具店;服装鞋帽皮具店,B0FFI6CIZ6
100,ARIOSEYEARS|艾诺丝雅诗|艾诺丝·雅诗,山西省,吕梁市,孝义市,ARIOSE years,孝义市府前街227号附近,37.145497,111.78466100000001,购物服务;服装鞋帽皮具店;服装鞋帽皮具店,B0FFI9M6SQ
101,ARIOSEYEARS|艾诺丝雅诗|艾诺丝·雅诗,山西省,吕梁市,汾阳市,ARIOSE years,汾阳市文峰西街吉祥小区旁(中信银行对面),37.262826000000004,111.781522,购物服务;服装鞋帽皮具店;服装鞋帽皮具店,B0FFHZSAG1
631,ARIOSEYEARS|艾诺丝雅诗|艾诺丝·雅诗,山西省,太原市,万柏林区,艾诺丝雅诗,万柏林区下元商贸城四楼,37.854337,112.511999,购物服务;服装鞋帽皮具店;服装鞋帽皮具店,B0FFIH7OFN
633,ARIOSEYEARS|艾诺丝雅诗|艾诺丝·雅诗,山西省,太原市,小店区,ARIOSE years,小店区体育西路84号附近,37.812764,112.564691,购物服务;服装鞋帽皮具店;服装鞋帽皮具店,B0FFIA3ZPP
405,ARIOSEYEARS|艾诺丝雅诗|艾诺丝·雅诗,山西省,忻州市,忻府区,ARIOSE years,忻府区长征西街劳动保障大楼对面,38.416270000000004,112.727145,购物服务;服装鞋帽皮具店;服装鞋帽皮具店,B0FFIFH4YN
342,ARIOSEYEARS|艾诺丝雅诗|艾诺丝·雅诗,山西省,晋中市,介休市,艾诺丝雅诗,介休市鼎尚时代三层,37.018875,111.91746499999999,购物服务;服装鞋帽皮具店;服装鞋帽皮具店,B0FFIZ1PB9
344,ARIOSEYEARS|艾诺丝雅诗|艾诺丝·雅诗,山西省,晋中市,太谷县,ARIOSE years,太谷县管委会箕城街安泰大酒店1楼,37.421046000000004,112.55293999999999,购物服务;服装鞋帽皮具店;服装鞋帽皮具店,B0FFIA7TIS
603,ARIOSEYEARS|艾诺丝雅诗|艾诺丝·雅诗,山西省,朔州市,应县,艾诺丝·雅诗,应县新建西街4号附近,39.562573,113.19208200000001,购物服务;服装鞋帽皮具店;服装鞋帽皮具店,B0FFJ32BBG
604,ARIOSEYEARS|艾诺丝雅诗|艾诺丝·雅诗,山西省,朔州市,朔城区,ARIOSE years(紫榆店),朔城区北关路2楼附近,39.322383,112.42716399999999,购物服务;服装鞋帽皮具店;服装鞋帽皮具店,B0FFJ27MCA
316,ARIOSEYEARS|艾诺丝雅诗|艾诺丝·雅诗,山西省,运城市,盐湖区,艾诺丝雅诗,盐湖区新象城三楼,35.033352,111.02713,购物服务;服装鞋帽皮具店;服装鞋帽皮具店,B0FFILFHV5
197,ARIOSEYEARS|艾诺丝雅诗|艾诺丝·雅诗,山西省,长治市,襄垣县,ARIOSE years,襄垣县府西街与建设北路交叉口西南50米,36.535306,113.047505,购物服务;服装鞋帽皮具店;服装鞋帽皮具店,B0FFF47NNF
597,ARIOSEYEARS|艾诺丝雅诗|艾诺丝·雅诗,广东省,东莞市,东莞市,艾诺丝雅诗(天虹商场),东莞市黄江镇环城路101号天虹商场F3层,22.915042,114.013704,购物服务;服装鞋帽皮具店;品牌服装店,B0FFGC2HSC
598,ARIOSEYEARS|艾诺丝雅诗|艾诺丝·雅诗,广东省,东莞市,东莞市,艾诺丝雅诗(天虹商场),东莞市长安镇德政中路天虹商场F3层,22.813182,113.805125,购物服务;服装鞋帽皮具店;品牌服装店,B0FFH0WLUV
665,ARIOSEYEARS|艾诺丝雅诗|艾诺丝·雅诗,广东省,中山市,中山市,ARIOSEyears,中山市新安大街40-6,22.48341,113.39347,购物服务;服装鞋帽皮具店;品牌服装店,B0FFIG86UA
666,ARIOSEYEARS|艾诺丝雅诗|艾诺丝·雅诗,广东省,中山市,中山市,艾诺丝雅诗,中山市石岐区街道石岐区大信南路新都汇优越城百货2楼,22.532526,113.38243,购物服务;服装鞋帽皮具店;服装鞋帽皮具店,B0FFHBZUAK
667,ARIOSEYEARS|艾诺丝雅诗|艾诺丝·雅诗,广东省,中山市,中山市,艾诺丝雅诗,中山市中山三路益华大厦东座511号益华百货(华夏街)1层,22.511291,113.383,购物服务;服装鞋帽皮具店;服装鞋帽皮具店,B0FFFDOGQS
586,ARIOSEYEARS|艾诺丝雅诗|艾诺丝·雅诗,广东省,云浮市,云城区,ARIOSEyears,云城区环市中路新世纪广场首层a07-08号,22.930387,112.022675,购物服务;服装鞋帽皮具店;品牌服装店,B0FFIGKBJV
587,ARIOSEYEARS|艾诺丝雅诗|艾诺丝·雅诗,广东省,云浮市,云城区,艾诺丝,云城区环市中路新世纪广场首层a07-08号,22.930773000000002,112.02328100000001,购物服务;专卖店;专营店,B0FFGKYEU0
660,ARIOSEYEARS|艾诺丝雅诗|艾诺丝·雅诗,广东省,佛山市,顺德区,ARIOSE&YEARS(新世界中心商场),顺德区清晖路148号新世界中心商场F1层,22.837029,113.255044,购物服务;服装鞋帽皮具店;品牌鞋店,B0FFGJWBIU
393,ARIOSEYEARS|艾诺丝雅诗|艾诺丝·雅诗,广东省,广州市,天河区,艾诺丝雅诗(摩登百货),天河区天河路611号摩登百货F2层,23.135642,113.338958,购物服务;服装鞋帽皮具店;品牌服装店,B0FFG7JYSN
391,ARIOSEYEARS|艾诺丝雅诗|艾诺丝·雅诗,广东省,广州市,海珠区,艾诺丝·雅诗,海珠区新港西路206号擎天大厦,23.095334,113.310378,购物服务;服装鞋帽皮具店;品牌服装店,B0FFF3UXRE
397,ARIOSEYEARS|艾诺丝雅诗|艾诺丝·雅诗,广东省,广州市,海珠区,艾诺丝服装店,海珠区新港西路206号擎天大厦首层,23.095375,113.31061899999999,购物服务;购物相关场所;购物相关场所,B0FFHJ1C53
396,ARIOSEYEARS|艾诺丝雅诗|艾诺丝·雅诗,广东省,广州市,番禺区,ARIOSE years,番禺区光明北路与怡乐园六街交叉口东南50米,22.945495,113.36171000000002,购物服务;服装鞋帽皮具店;服装鞋帽皮具店,B0FFFP24NM
395,ARIOSEYEARS|艾诺丝雅诗|艾诺丝·雅诗,广东省,广州市,白云区,艾诺丝雅诗(圣地购物广场),白云区广州大道北1420号圣地购物广场F2层,23.181458,113.32238100000001,购物服务;服装鞋帽皮具店;品牌服装店,B0FFG8BDN0
392,ARIOSEYEARS|艾诺丝雅诗|艾诺丝·雅诗,广东省,广州市,荔湾区,艾诺丝雅诗,荔湾区康王中路666号新光百货2层,23.124485999999997,113.24788600000001,购物服务;服装鞋帽皮具店;服装鞋帽皮具店,B0FFG7FKZJ
394,ARIOSEYEARS|艾诺丝雅诗|艾诺丝·雅诗,广东省,广州市,黄埔区,艾诺丝雅诗(摩登百货),黄埔区黄埔东路1-9号东城广场摩登百货F2层,23.101229999999997,113.449316,购物服务;服装鞋帽皮具店;品牌服装店,B0FFG8G6KG
251,ARIOSEYEARS|艾诺丝雅诗|艾诺丝·雅诗,广东省,深圳市,福田区,艾诺丝雅诗(天虹商场福民店),福田区福民路125号天虹商场(福民店)3F层,22.522247,114.052959,购物服务;服装鞋帽皮具店;品牌服装店,B0FFH0KWAR
252,ARIOSEYEARS|艾诺丝雅诗|艾诺丝·雅诗,广东省,深圳市,福田区,ARIOSE&years(茂业百货店),福田区东门中路2047号东门茂业百货4楼420铺,22.546218,114.08639699999999,购物服务;服装鞋帽皮具店;服装鞋帽皮具店,B0FFHQWP7K
250,ARIOSEYEARS|艾诺丝雅诗|艾诺丝·雅诗,广东省,深圳市,龙华区,艾诺丝雅诗(天虹商场),龙华区工业大道与大和路交会处中航格澜郡A栋天虹商场3F层,22.694935,114.048806,购物服务;服装鞋帽皮具店;品牌服装店,B0FFH3DHWM
21,ARIOSEYEARS|艾诺丝雅诗|艾诺丝·雅诗,广东省,清远市,清城区,艾诺丝雅诗专柜,清城区先锋中路城市广场益华百货二楼,23.707232,113.030601,购物服务;购物相关场所;购物相关场所,B0FFI1Y4R1
91,ARIOSEYEARS|艾诺丝雅诗|艾诺丝·雅诗,广东省,湛江市,廉江市,ARIOSE&years,廉江市廉江大道中68号百信国际广场F1,21.601395999999998,110.28261100000002,购物服务;服装鞋帽皮具店;品牌服装店,B0FFHHCFDJ
439,ARIOSEYEARS|艾诺丝雅诗|艾诺丝·雅诗,广东省,珠海市,香洲区,艾诺丝雅诗,香洲区尚都时尚百货二楼,22.278307,113.577463,购物服务;服装鞋帽皮具店;服装鞋帽皮具店,B0FFI6ANHD
440,ARIOSEYEARS|艾诺丝雅诗|艾诺丝·雅诗,广东省,珠海市,香洲区,艾诺丝雅诗(茂业百货店),香洲区紫荆路301号茂业百货3层,22.278668,113.56543899999998,购物服务;服装鞋帽皮具店;品牌服装店,B0FFHNUYTA
555,ARIOSEYEARS|艾诺丝雅诗|艾诺丝·雅诗,广东省,肇庆市,端州区,艾诺丝雅诗(星湖国际广场),端州区端州四路10号F1层,23.056691,112.473675,购物服务;服装鞋帽皮具店;品牌服装店,B0FFH8ZVCW
556,ARIOSEYEARS|艾诺丝雅诗|艾诺丝·雅诗,广东省,肇庆市,端州区,艾诺丝·雅诗(康乐北店),端州区体育中心东门商业街首层商铺,23.06004,112.45645,购物服务;服装鞋帽皮具店;品牌服装店,B02F60QAT6
31,ARIOSEYEARS|艾诺丝雅诗|艾诺丝·雅诗,广东省,阳江市,江城区,艾诺丝(石湾南路店),江城区波陵园与石湾南路交叉口东北50米,21.857931,111.97046599999999,购物服务;服装鞋帽皮具店;品牌服装店,B0FFG235ZG
280,ARIOSEYEARS|艾诺丝雅诗|艾诺丝·雅诗,广东省,韶关市,乐昌市,艾诺丝雅诗,乐昌市248省道与330县道交叉口南100米,25.298697,113.103245,购物服务;服装鞋帽皮具店;服装鞋帽皮具店,B0FFGIBPSM
281,ARIOSEYEARS|艾诺丝雅诗|艾诺丝·雅诗,广东省,韶关市,乐昌市,艾诺丝(人民中路),乐昌市乐城街道人民中路26号,25.131225,113.35141399999999,购物服务;服装鞋帽皮具店;服装鞋帽皮具店,B0FFGAX8OS
634,ARIOSEYEARS|艾诺丝雅诗|艾诺丝·雅诗,广西壮族自治区,北海市,海城区,艾诺丝雅诗,海城区北部湾中路31号南宁百货和安商港2层,21.473579,109.114349,购物服务;专卖店;专营店,B0FFFZXQU8
453,ARIOSEYEARS|艾诺丝雅诗|艾诺丝·雅诗,广西壮族自治区,南宁市,兴宁区,ARIOSEyears(PARKSON百盛店),兴宁区青云街18号PARKSON百盛3层,22.814881,108.322493,购物服务;服装鞋帽皮具店;品牌服装店,B0FFIXVHPC
454,ARIOSEYEARS|艾诺丝雅诗|艾诺丝·雅诗,广西壮族自治区,南宁市,青秀区,艾诺丝·雅诗(仙葫店),青秀区仙葫大道与仙葫大道南一里交叉口东南50米,22.808746,108.44418,购物服务;服装鞋帽皮具店;服装鞋帽皮具店,B0FFHOHK42
629,ARIOSEYEARS|艾诺丝雅诗|艾诺丝·雅诗,广西壮族自治区,崇左市,江州区,艾诺丝,江州区江南路98号附近,22.403174,107.348565,购物服务;服装鞋帽皮具店;服装鞋帽皮具店,B0FFHC01MX
8,ARIOSEYEARS|艾诺丝雅诗|艾诺丝·雅诗,广西壮族自治区,来宾市,兴宾区,艾诺丝雅诗女装专卖店,兴宾区前卫路9号百悦商业广场二楼,23.727745000000002,109.23465700000001,购物服务;购物相关场所;购物相关场所,B0FFIWULZT
7,ARIOSEYEARS|艾诺丝雅诗|艾诺丝·雅诗,广西壮族自治区,来宾市,忻城县,ARIOSEyears,忻城县城关镇芝州一路,24.065943,108.66992900000001,购物服务;服装鞋帽皮具店;品牌服装店,B0FFIGK8HU
636,ARIOSEYEARS|艾诺丝雅诗|艾诺丝·雅诗,广西壮族自治区,柳州市,柳南区,艾诺丝-雅诗,柳南区新时代商业港综合一号楼6楼612室,24.301462,109.40473200000001,购物服务;购物相关场所;购物相关场所,B0FFINI25R
352,ARIOSEYEARS|艾诺丝雅诗|艾诺丝·雅诗,广西壮族自治区,桂林市,兴安县,艾诺丝雅诗(兴安旗舰店),兴安县兴安镇秦皇路165号,25.604667000000003,110.675003,购物服务;服装鞋帽皮具店;服装鞋帽皮具店,B0FFG1K17Y
350,ARIOSEYEARS|艾诺丝雅诗|艾诺丝·雅诗,广西壮族自治区,桂林市,平乐县,艾诺丝·雅诗(平乐店),平乐县黄埔路128号附近,24.633247,110.647484,购物服务;服装鞋帽皮具店;服装鞋帽皮具店,B03050W6OC
349,ARIOSEYEARS|艾诺丝雅诗|艾诺丝·雅诗,广西壮族自治区,桂林市,灌阳县,艾诺丝·雅诗,灌阳县胜利路3号附近,25.490865,111.160243,购物服务;服装鞋帽皮具店;服装鞋帽皮具店,B0FFG04M34
353,ARIOSEYEARS|艾诺丝雅诗|艾诺丝·雅诗,广西壮族自治区,桂林市,象山区,ARIOSE years,象山区中山中路14号桂林百货大楼3层,25.271696,110.292482,购物服务;专卖店;专营店,B0FFH5Y8SA
351,ARIOSEYEARS|艾诺丝雅诗|艾诺丝·雅诗,广西壮族自治区,桂林市,龙胜各族自治县,ARIOSEyears,龙胜各族自治县龙胜镇华业广场二楼,25.798779999999997,110.01168,购物服务;服装鞋帽皮具店;品牌服装店,B0FFGYHEQJ
365,ARIOSEYEARS|艾诺丝雅诗|艾诺丝·雅诗,广西壮族自治区,河池市,东兰县,艾诺丝雅诗专卖店,东兰县东兰镇陵园街68号,24.509794,107.37373899999999,购物服务;购物相关场所;购物相关场所,B0FFHSDDJM
363,ARIOSEYEARS|艾诺丝雅诗|艾诺丝·雅诗,广西壮族自治区,河池市,南丹县,艾诺丝(雅诗南丹店),南丹县金芙蓉商业步行街西南50米,24.982472,107.54641000000001,购物服务;服装鞋帽皮具店;服装鞋帽皮具店,B0FFFY9BXU
364,ARIOSEYEARS|艾诺丝雅诗|艾诺丝·雅诗,广西壮族自治区,河池市,宜州区,ARIOSE years,宜州区县前街41号,24.494088,108.660113,购物服务;服装鞋帽皮具店;品牌服装店,B0FFF4JA8Y
362,ARIOSEYEARS|艾诺丝雅诗|艾诺丝·雅诗,广西壮族自治区,河池市,罗城仫佬族自治县,艾诺丝雅诗,罗城仫佬族自治县永宁街162号附近,24.78134,108.904807,购物服务;服装鞋帽皮具店;服装鞋帽皮具店,B0FFHM5WDY
361,ARIOSEYEARS|艾诺丝雅诗|艾诺丝·雅诗,广西壮族自治区,河池市,都安瑶族自治县,艾诺丝雅诗,都安瑶族自治县安阳镇大桥路55号,23.931053,108.106247,购物服务;服装鞋帽皮具店;品牌服装店,B0FFHC1ABP
359,ARIOSEYEARS|艾诺丝雅诗|艾诺丝·雅诗,广西壮族自治区,河池市,金城江区,艾诺丝雅诗,金城江区新建路278-9号,24.694432,108.06229499999999,购物服务;服装鞋帽皮具店;服装鞋帽皮具店,B0FFITA9NL
360,ARIOSEYEARS|艾诺丝雅诗|艾诺丝·雅诗,广西壮族自治区,河池市,金城江区,艾诺丝雅诗,金城江区金城中路278-7号附近,24.6959,108.05892,购物服务;服装鞋帽皮具店;服装鞋帽皮具店,B0FFIUUOPO
374,ARIOSEYEARS|艾诺丝雅诗|艾诺丝·雅诗,广西壮族自治区,玉林市,博白县,艾诺丝雅诗,博白县南州北路与大街交叉口北50米,22.273626,109.978675,购物服务;服装鞋帽皮具店;品牌服装店,B0FFIU6PH1
376,ARIOSEYEARS|艾诺丝雅诗|艾诺丝·雅诗,广西壮族自治区,玉林市,容县,艾诺丝,容县城南街与广场街交叉口西北200米,22.855641000000002,110.550374,购物服务;购物相关场所;购物相关场所,B0FFH0Y4NN
375,ARIOSEYEARS|艾诺丝雅诗|艾诺丝·雅诗,广西壮族自治区,玉林市,玉州区,艾诺丝雅诗(东岳路),玉州区人民东路645号,22.634677,110.160804,购物服务;服装鞋帽皮具店;服装鞋帽皮具店,B0FFG2S9WY
377,ARIOSEYEARS|艾诺丝雅诗|艾诺丝·雅诗,广西壮族自治区,玉林市,玉州区,ARIOSE years,玉州区新民路与江南路交叉口东北200米,22.614919,110.167566,购物服务;购物相关场所;购物相关场所,B0FFIPISE8
192,ARIOSEYEARS|艾诺丝雅诗|艾诺丝·雅诗,广西壮族自治区,百色市,乐业县,ARIOSEyears,乐业县同乐镇乐天花园后门口(乐业饭店附近),24.77985,106.56043000000001,购物服务;服装鞋帽皮具店;品牌服装店,B0FFILDECM
194,ARIOSEYEARS|艾诺丝雅诗|艾诺丝·雅诗,广西壮族自治区,百色市,那坡县,艾诺丝,那坡县镇玉街129号,23.408081,105.843282,购物服务;购物相关场所;购物相关场所,B0FFHJ8U6L
193,ARIOSEYEARS|艾诺丝雅诗|艾诺丝·雅诗,广西壮族自治区,百色市,靖西市,艾诺丝雅诗(靖西店),靖西市新靖镇主山街34号,23.137302,106.41651,购物服务;购物相关场所;购物相关场所,B0FFI2J0PS
302,ARIOSEYEARS|艾诺丝雅诗|艾诺丝·雅诗,广西壮族自治区,防城港市,防城区,艾诺丝雅诗,防城区防城镇天和百货一楼,21.763559,108.357216,购物服务;服装鞋帽皮具店;服装鞋帽皮具店,B0FFIBSCF1
527,ARIOSEYEARS|艾诺丝雅诗|艾诺丝·雅诗,新疆维吾尔自治区,乌鲁木齐市,天山区,艾诺丝雅诗,天山区中山路汇嘉时代3楼,43.794028999999995,87.618205,购物服务;购物相关场所;购物相关场所,B0FFGBXTUG
528,ARIOSEYEARS|艾诺丝雅诗|艾诺丝·雅诗,新疆维吾尔自治区,乌鲁木齐市,新市区,艾诺丝雅诗,新市区北京路汇嘉时代二楼,43.876606,87.55684699999999,购物服务;服装鞋帽皮具店;服装鞋帽皮具店,B0FFISI1TN
529,ARIOSEYEARS|艾诺丝雅诗|艾诺丝·雅诗,新疆维吾尔自治区,乌鲁木齐市,沙依巴克区,艾诺丝雅诗专柜,沙依巴克区友好南路668号百盛购物中心三楼,43.804660999999996,87.601021,购物服务;购物相关场所;购物相关场所,B0FFIZFQQ4
530,ARIOSEYEARS|艾诺丝雅诗|艾诺丝·雅诗,新疆维吾尔自治区,乌鲁木齐市,沙依巴克区,艾诺丝雅诗女装专柜,沙依巴克区奇台路德汇万达二楼,43.789390999999995,87.587532,购物服务;购物相关场所;购物相关场所,B0FFIR488Y
513,ARIOSEYEARS|艾诺丝雅诗|艾诺丝·雅诗,新疆维吾尔自治区,伊犁哈萨克自治州,伊宁市,艾诺丝雅诗服装店,伊宁市边境经济合作区管委会北京路宁远郡门面109号,43.921476,81.263667,购物服务;购物相关场所;购物相关场所,B0FFI6C09F
97,ARIOSEYEARS|艾诺丝雅诗|艾诺丝·雅诗,新疆维吾尔自治区,克拉玛依市,独山子区,艾诺丝雅诗,独山子区武昌路步行街南门门楼西1号,44.326273,84.87132700000001,购物服务;服装鞋帽皮具店;服装鞋帽皮具店,B0FFI1DW0F
381,ARIOSEYEARS|艾诺丝雅诗|艾诺丝·雅诗,新疆维吾尔自治区,博尔塔拉蒙古自治州,精河县,艾诺丝雅诗服装店,精河县精河镇幸福西路8号,44.606257,82.89174200000001,购物服务;购物相关场所;购物相关场所,B0FFHIY08V
611,ARIOSEYEARS|艾诺丝雅诗|艾诺丝·雅诗,新疆维吾尔自治区,巴音郭楞蒙古自治州,焉耆回族自治县,ARIOSE years,焉耆回族自治县新华路344号附近,42.062499,86.57060200000001,购物服务;服装鞋帽皮具店;服装鞋帽皮具店,B0FFHVSWQ6
560,ARIOSEYEARS|艾诺丝雅诗|艾诺丝·雅诗,新疆维吾尔自治区,昌吉回族自治州,奇台县,ARIOSE years,奇台县天和购物中心三楼,44.012727000000005,89.58626600000001,购物服务;服装鞋帽皮具店;品牌服装店,B0FFH9EUXY
318,ARIOSEYEARS|艾诺丝雅诗|艾诺丝·雅诗,新疆维吾尔自治区,阿勒泰地区,阿勒泰市,艾诺丝雅诗,阿勒泰市解放路办事处华丽商场三楼,47.846511,88.137633,购物服务;服装鞋帽皮具店;服装鞋帽皮具店,B0FFI71DXT
625,ARIOSEYEARS|艾诺丝雅诗|艾诺丝·雅诗,新疆维吾尔自治区,阿拉尔市,阿拉尔市,艾诺丝雅诗(阿拉尔店),阿拉尔市幸福路国际商贸城2号楼绿州医院附近,40.53877,81.290476,购物服务;服装鞋帽皮具店;服装鞋帽皮具店,B0FFFV5L4U
241,ARIOSEYEARS|艾诺丝雅诗|艾诺丝·雅诗,江苏省,南京市,六合区,艾诺丝,六合区大厂街道新华路446号,32.230513,118.76111599999999,购物服务;服装鞋帽皮具店;品牌服装店,B0FFGZYPIG
240,ARIOSEYEARS|艾诺丝雅诗|艾诺丝·雅诗,江苏省,南京市,溧水区,ARIOSEyears(溧水店),溧水区永阳镇中大街50-106号,31.653211,119.02686100000001,购物服务;服装鞋帽皮具店;品牌服装店,B0FFIGHCKG
242,ARIOSEYEARS|艾诺丝雅诗|艾诺丝·雅诗,江苏省,南京市,溧水区,艾诺丝(溧水店),溧水区永阳镇中大街50-106号,31.65333,119.026901,购物服务;服装鞋帽皮具店;服装鞋帽皮具店,B0FFI5GHQQ
239,ARIOSEYEARS|艾诺丝雅诗|艾诺丝·雅诗,江苏省,南京市,秦淮区,艾诺丝雅诗,秦淮区建康路2号茂业天地中心2楼,32.022116,118.78571200000002,购物服务;服装鞋帽皮具店;服装鞋帽皮具店,B0FFHIJIDE
607,ARIOSEYEARS|艾诺丝雅诗|艾诺丝·雅诗,江苏省,南通市,启东市,艾诺丝(民乐中路),启东市汇龙镇公园中路670-18号,31.809852000000003,121.664727,购物服务;服装鞋帽皮具店;服装鞋帽皮具店,B0FFHHZYMW
605,ARIOSEYEARS|艾诺丝雅诗|艾诺丝·雅诗,江苏省,南通市,如皋市,ARIOSEyears,如皋市大治街与安定街交叉口以东,32.391771000000006,120.564705,购物服务;服装鞋帽皮具店;品牌服装店,B0FFILZ5VS
608,ARIOSEYEARS|艾诺丝雅诗|艾诺丝·雅诗,江苏省,南通市,崇川区,ARIOSE years,崇川区工农路57号金鹰5楼,32.005421999999996,120.883473,购物服务;服装鞋帽皮具店;品牌服装店,B0FFGBXML6
609,ARIOSEYEARS|艾诺丝雅诗|艾诺丝·雅诗,江苏省,南通市,崇川区,ARIOSE&YEARS,崇川区桃园路10号中南百货F3,31.969703999999997,120.895169,购物服务;服装鞋帽皮具店;品牌服装店,B0FFHL9PZ8
606,ARIOSEYEARS|艾诺丝雅诗|艾诺丝·雅诗,江苏省,南通市,通州区,艾诺丝雅诗,通州区建设路文峰大世界三楼,32.086338,121.075127,购物服务;服装鞋帽皮具店;服装鞋帽皮具店,B0FFJ5HZIC
120,ARIOSEYEARS|艾诺丝雅诗|艾诺丝·雅诗,江苏省,宿迁市,宿城区,ARIOSE&years,宿城区楚街y374号附近,33.950663,118.28835500000001,购物服务;服装鞋帽皮具店;品牌服装店,B0FFHQOWI6
119,ARIOSEYEARS|艾诺丝雅诗|艾诺丝·雅诗,江苏省,宿迁市,沭阳县,艾诺丝,沭阳县沭城街道城内大街65号(二招对面),34.132315000000006,118.77838600000001,购物服务;购物相关场所;购物相关场所,B0FFGZ22UU
33,ARIOSEYEARS|艾诺丝雅诗|艾诺丝·雅诗,江苏省,常州市,天宁区,ARIOSEyears,天宁区翠竹新村140-丁-101室,31.794894,119.981254,购物服务;服装鞋帽皮具店;品牌服装店,B0FFIIP8PE
34,ARIOSEYEARS|艾诺丝雅诗|艾诺丝·雅诗,江苏省,常州市,新北区,艾诺丝雅诗,新北区小河镇立新南街54号,32.008340000000004,119.858526,购物服务;服装鞋帽皮具店;服装鞋帽皮具店,B0FFGEOLDE
36,ARIOSEYEARS|艾诺丝雅诗|艾诺丝·雅诗,江苏省,常州市,溧阳市,艾诺丝(和平南路),溧阳市和平南路与城中路交叉口西100米,31.426592,119.487472,购物服务;服装鞋帽皮具店;服装鞋帽皮具店,B0FFGZ0B7O
35,ARIOSEYEARS|艾诺丝雅诗|艾诺丝·雅诗,江苏省,常州市,钟楼区,艾诺丝雅诗(百货大楼店),钟楼区南大街1号百货大楼F3,31.776021000000004,119.95358700000001,购物服务;服装鞋帽皮具店;服装鞋帽皮具店,B0FFG98UMR
277,ARIOSEYEARS|艾诺丝雅诗|艾诺丝·雅诗,江苏省,徐州市,新沂市,艾诺丝雅诗(新沂店),新沂市利民路31-28艾诺丝,34.364607,118.356125,购物服务;服装鞋帽皮具店;服装鞋帽皮具店,B0FFF3Y1PK
279,ARIOSEYEARS|艾诺丝雅诗|艾诺丝·雅诗,江苏省,徐州市,沛县,艾诺丝(汉城路),沛县沛城镇中英街17号,34.732395000000004,116.93450700000001,购物服务;服装鞋帽皮具店;服装鞋帽皮具店,B0FFFSV6OB
278,ARIOSEYEARS|艾诺丝雅诗|艾诺丝·雅诗,江苏省,徐州市,泉山区,艾诺丝(中枢南街),泉山区淮海西路30-5号,34.263811,117.18261299999999,购物服务;服装鞋帽皮具店;服装鞋帽皮具店,B0FFGIUTVC
200,ARIOSEYEARS|艾诺丝雅诗|艾诺丝·雅诗,江苏省,扬州市,广陵区,艾诺丝雅诗(扬州时代广场),广陵区文昌中路537号扬州时代广场F2层,32.393435,119.431715,购物服务;服装鞋帽皮具店;品牌服装店,B0FFHVEGK5
199,ARIOSEYEARS|艾诺丝雅诗|艾诺丝·雅诗,江苏省,扬州市,邗江区,ARIOSEyears(扬州店),邗江区四望亭路与柳湖路交叉口西100米,32.397327000000004,119.425325,购物服务;服装鞋帽皮具店;品牌服装店,B0FFIGBI67
201,ARIOSEYEARS|艾诺丝雅诗|艾诺丝·雅诗,江苏省,扬州市,邗江区,艾诺丝(四望亭店),邗江区四望亭路133-135号,32.397304,119.42541000000001,购物服务;服装鞋帽皮具店;品牌服装店,B0FFFDBAXO
58,ARIOSEYEARS|艾诺丝雅诗|艾诺丝·雅诗,江苏省,无锡市,宜兴市,艾诺丝.雅诗(宜兴万达广场),宜兴市东虹路550宜兴万达广场F1层,31.36409,119.851869,购物服务;服装鞋帽皮具店;服装鞋帽皮具店,B0FFGBT7QV
60,ARIOSEYEARS|艾诺丝雅诗|艾诺丝·雅诗,江苏省,无锡市,梁溪区,ARIOSE&years,梁溪区清扬路128号茂业天地二期3层,31.549287,120.310593,购物服务;服装鞋帽皮具店;品牌服装店,B0FFHF3994
13,ARIOSEYEARS|艾诺丝雅诗|艾诺丝·雅诗,江苏省,泰州市,泰兴市,ARIOSEyears,泰兴市黄桥镇东进中路251号,32.239984,120.231905,购物服务;服装鞋帽皮具店;品牌服装店,B0FFIK6IWZ
15,ARIOSEYEARS|艾诺丝雅诗|艾诺丝·雅诗,江苏省,泰州市,泰兴市,艾诺丝,泰兴市济川街道鼓楼西路92号,32.167203,120.015431,购物服务;购物相关场所;购物相关场所,B0FFGJ7IM7
11,ARIOSEYEARS|艾诺丝雅诗|艾诺丝·雅诗,江苏省,泰州市,海陵区,艾诺丝雅诗,海陵区东进东路18号金鹰国际购物中心F3,32.496696,119.921978,购物服务;服装鞋帽皮具店;品牌服装店,B0FFH1W1Z2
12,ARIOSEYEARS|艾诺丝雅诗|艾诺丝·雅诗,江苏省,泰州市,海陵区,艾诺丝雅诗,海陵区一百3楼,32.494999,119.91585500000001,购物服务;服装鞋帽皮具店;服装鞋帽皮具店,B0FFJ3JN36
14,ARIOSEYEARS|艾诺丝雅诗|艾诺丝·雅诗,江苏省,泰州市,高港区,艾诺丝,高港区金港南路50号,32.306057,119.879153,购物服务;服装鞋帽皮具店;服装鞋帽皮具店,B0FFHMMKKJ
324,ARIOSEYEARS|艾诺丝雅诗|艾诺丝·雅诗,江苏省,淮安市,清江浦区,艾诺丝雅诗,清江浦区金鹰国际购物中心三楼,33.597939000000004,119.03108999999999,购物服务;服装鞋帽皮具店;服装鞋帽皮具店,B0FFI6WMM6
424,ARIOSEYEARS|艾诺丝雅诗|艾诺丝·雅诗,江苏省,盐城市,亭湖区,艾诺丝雅诗专柜,亭湖区金鹰国际购物中心三楼西区,33.380835,120.129718,购物服务;购物相关场所;购物相关场所,B0FFHEG89J
425,ARIOSEYEARS|艾诺丝雅诗|艾诺丝·雅诗,江苏省,盐城市,盐都区,ARIOSE&years(金鹰购物中心),盐都区解放南路268号金鹰购物中心F3层,33.340495000000004,120.16306499999999,购物服务;服装鞋帽皮具店;品牌服装店,B0FFI0D1QT
423,ARIOSEYEARS|艾诺丝雅诗|艾诺丝·雅诗,江苏省,盐城市,阜宁县,ARIOSEyears,阜宁县人民中路西200米,33.586476,119.606641,购物服务;服装鞋帽皮具店;品牌服装店,B0FFIGJUH3
264,ARIOSEYEARS|艾诺丝雅诗|艾诺丝·雅诗,江苏省,苏州市,吴中区,艾诺丝雅诗(天虹商场B座),吴中区苏雅路388号天虹商场B座F3层,31.316358,120.665038,购物服务;服装鞋帽皮具店;品牌服装店,B0FFGCAQ77
265,ARIOSEYEARS|艾诺丝雅诗|艾诺丝·雅诗,江苏省,苏州市,吴中区,艾诺丝雅诗(华琨新苏购物中心东吴北路店),吴中区东吴北路98号华琨新苏购物中心(东吴北路店)F3层,31.270026,120.62868,购物服务;服装鞋帽皮具店;品牌服装店,B0FFGBFSJZ
266,ARIOSEYEARS|艾诺丝雅诗|艾诺丝·雅诗,江苏省,苏州市,吴中区,艾诺丝雅诗(天虹商场木渎店A座),吴中区金山南路47号天虹商场木渎店A座F3层,31.261912,120.51918700000002,购物服务;服装鞋帽皮具店;品牌服装店,B0FFGC80ND
263,ARIOSEYEARS|艾诺丝雅诗|艾诺丝·雅诗,江苏省,苏州市,姑苏区,艾诺丝雅诗(第一百货),姑苏区人民路1381号第一百货F2层,31.310184999999997,120.62116499999999,购物服务;服装鞋帽皮具店;品牌服装店,B0FFFP0MYT
269,ARIOSEYEARS|艾诺丝雅诗|艾诺丝·雅诗,江苏省,苏州市,姑苏区,ARIOSE&years(苏州人民商场),姑苏区北局22号苏州人民商场F3层,31.309669,120.624326,购物服务;服装鞋帽皮具店;品牌服装店,B0FFHU69XF
267,ARIOSEYEARS|艾诺丝雅诗|艾诺丝·雅诗,江苏省,苏州市,常熟市,ARIOSE&years(百盛),常熟市方塔街106号百盛F2层,31.644427,120.741254,购物服务;服装鞋帽皮具店;品牌鞋店,B0FFGJUP3J
268,ARIOSEYEARS|艾诺丝雅诗|艾诺丝·雅诗,江苏省,苏州市,昆山市,ARIOSE&years(昆山商厦),昆山市人民南路146-148号昆山商厦F3层,31.375421000000003,120.956907,购物服务;服装鞋帽皮具店;品牌服装店,B0FFHHHN2D
190,ARIOSEYEARS|艾诺丝雅诗|艾诺丝·雅诗,江苏省,连云港市,连云区,艾诺丝·雅诗,连云区海棠中路东盛购物广场1层,34.740505999999996,119.374292,购物服务;服装鞋帽皮具店;服装鞋帽皮具店,B0FFG36HG7
369,ARIOSEYEARS|艾诺丝雅诗|艾诺丝·雅诗,江苏省,镇江市,丹阳市,ARIOSE years,丹阳市中心大街与向阳路交叉口南100米,32.101797,119.76662900000001,购物服务;服装鞋帽皮具店;服装鞋帽皮具店,B0FFIU3J5I
366,ARIOSEYEARS|艾诺丝雅诗|艾诺丝·雅诗,江苏省,镇江市,京口区,艾诺丝雅诗(南门大街),京口区南门大街270号,32.203117,119.45841899999999,购物服务;服装鞋帽皮具店;服装鞋帽皮具店,B0FFGBWT7G
367,ARIOSEYEARS|艾诺丝雅诗|艾诺丝·雅诗,江苏省,镇江市,京口区,艾诺丝,京口区赵声路69号-4号,32.181238,119.67045800000001,购物服务;购物相关场所;购物相关场所,B0FFH6HPO9
368,ARIOSEYEARS|艾诺丝雅诗|艾诺丝·雅诗,江苏省,镇江市,京口区,ARIOSE years,京口区大八叉巷32号附近,32.205956,119.45133899999999,购物服务;服装鞋帽皮具店;服装鞋帽皮具店,B0FFINCG5T
51,ARIOSEYEARS|艾诺丝雅诗|艾诺丝·雅诗,江西省,九江市,浔阳区,艾诺丝雅诗,浔阳区长虹西大道101号九方购物中心3楼,29.686153000000004,115.977028,购物服务;服装鞋帽皮具店;服装鞋帽皮具店,B0FFJ0MCGA
52,ARIOSEYEARS|艾诺丝雅诗|艾诺丝·雅诗,江西省,九江市,浔阳区,艾诺丝,浔阳区浔阳路248号,29.724281,115.98988999999999,购物服务;购物相关场所;购物相关场所,B0FFGZQIIT
132,ARIOSEYEARS|艾诺丝雅诗|艾诺丝·雅诗,江西省,南昌市,东湖区,艾诺丝雅诗(世茂广场),东湖区红谷中大道1706号世茂广场F1层,28.692915000000003,115.867356,购物服务;服装鞋帽皮具店;品牌服装店,B0FFHW5AD4
131,ARIOSEYEARS|艾诺丝雅诗|艾诺丝·雅诗,江西省,南昌市,安义县,ARIOSEyears,安义县东门路与前进路交叉口西南50米,28.840384999999998,115.550198,购物服务;服装鞋帽皮具店;服装鞋帽皮具店,B0FFJ0ZQVG
235,ARIOSEYEARS|艾诺丝雅诗|艾诺丝·雅诗,江西省,宜春市,万载县,ARIOSEyears,万载县阳乐大道777-12号附近,28.107881,114.45068400000001,购物服务;服装鞋帽皮具店;服装鞋帽皮具店,B0FFIYYF4R
236,ARIOSEYEARS|艾诺丝雅诗|艾诺丝·雅诗,江西省,宜春市,奉新县,ARIOSEyears,奉新县步行街179号,28.699333000000003,115.387446,购物服务;服装鞋帽皮具店;品牌服装店,B0FFIK6HHM
426,ARIOSEYEARS|艾诺丝雅诗|艾诺丝·雅诗,江西省,抚州市,临川区,ARIOSEyears,临川区钟岭街道办事处(金巢开发区)万达广场1楼1056铺,27.956941999999998,116.347168,购物服务;服装鞋帽皮具店;品牌服装店,B0FFI5GWUN
427,ARIOSEYEARS|艾诺丝雅诗|艾诺丝·雅诗,江西省,抚州市,南城县,艾诺丝·雅诗,南城县盱江大道418号周大福珠宝附近,27.554517999999998,116.640147,购物服务;服装鞋帽皮具店;服装鞋帽皮具店,B0FFFYZY7L
203,ARIOSEYEARS|艾诺丝雅诗|艾诺丝·雅诗,江西省,景德镇市,乐平市,ARIOSE years,乐平市洎阳中路243号附近,28.965992,117.12968899999998,购物服务;服装鞋帽皮具店;服装鞋帽皮具店,B0FFIWJ0U2
151,ARIOSEYEARS|艾诺丝雅诗|艾诺丝·雅诗,江西省,赣州市,安远县,艾诺丝·雅诗(安远店),安远县九龙路与站前路交叉口东150米,25.132195,115.39293,购物服务;服装鞋帽皮具店;服装鞋帽皮具店,B031D0RIA1
152,ARIOSEYEARS|艾诺丝雅诗|艾诺丝·雅诗,江西省,赣州市,定南县,艾诺丝.雅诗定南店,定南县建设东路与建设西路交叉口西南50米,24.773229999999998,115.02958999999998,购物服务;专卖店;专营店,B0FFFRXL4Y
150,ARIOSEYEARS|艾诺丝雅诗|艾诺丝·雅诗,江西省,赣州市,章贡区,艾诺丝雅诗,章贡区文清路33-5号,25.854968,114.939881,购物服务;服装鞋帽皮具店;服装鞋帽皮具店,B0FFG490H5
553,ARIOSEYEARS|艾诺丝雅诗|艾诺丝·雅诗,江西省,鹰潭市,月湖区,艾诺丝·雅诗(鹰潭店),月湖区银座广场15号,28.23994,117.03441799999999,购物服务;服装鞋帽皮具店;品牌服装店|购物服务;服装鞋帽皮具店;品牌皮具店,B02BD0M1WW
262,ARIOSEYEARS|艾诺丝雅诗|艾诺丝·雅诗,河北省,保定市,涞源县,艾诺丝,涞源县广昌大街137号,39.355667,114.689558,购物服务;服装鞋帽皮具店;服装鞋帽皮具店,B0FFHM4MD7
261,ARIOSEYEARS|艾诺丝雅诗|艾诺丝·雅诗,河北省,保定市,涿州市,艾诺丝雅诗,涿州市复兴路宜佳旺购物广场3层,39.487787,116.009976,购物服务;服装鞋帽皮具店;服装鞋帽皮具店,B0FFG2A4MK
305,ARIOSEYEARS|艾诺丝雅诗|艾诺丝·雅诗,河北省,唐山市,路北区,ARIOSE&YEARS(人民购物广场),路北区建设北路152号人民购物广场F2层,39.670384000000006,118.177097,购物服务;服装鞋帽皮具店;品牌服装店,B0FFH1MRW9
304,ARIOSEYEARS|艾诺丝雅诗|艾诺丝·雅诗,河北省,唐山市,迁安市,艾诺丝雅诗,迁安市迁安镇东购商场三楼,40.015344,118.702223,购物服务;服装鞋帽皮具店;服装鞋帽皮具店,B0FFHVXNE1
549,ARIOSEYEARS|艾诺丝雅诗|艾诺丝·雅诗,河北省,张家口市,桥东区,ARIOSE years,桥东区胜利北路56号银座商城F2,40.799147,114.893813,购物服务;服装鞋帽皮具店;品牌服装店,B0FFH1NAI7
83,ARIOSEYEARS|艾诺丝雅诗|艾诺丝·雅诗,河北省,承德市,丰宁满族自治县,艾诺丝雅诗,丰宁满族自治县大阁镇鑫宏泰三层,41.20598,116.649249,购物服务;服装鞋帽皮具店;服装鞋帽皮具店,B0FFH37EDC
296,ARIOSEYEARS|艾诺丝雅诗|艾诺丝·雅诗,河北省,沧州市,河间市,艾诺丝雅诗(红太阳购物广场),河间市京开南大街与城垣中路交叉口红太阳购物广场F4层,38.442087,116.086909,购物服务;服装鞋帽皮具店;品牌服装店,B0FFH47ZY5
113,ARIOSEYEARS|艾诺丝雅诗|艾诺丝·雅诗,河北省,石家庄市,无极县,ARIOSEyears,无极县光明南街58号附近,38.174861,114.973579,购物服务;服装鞋帽皮具店;品牌服装店,B0FFIK5KHG
114,ARIOSEYEARS|艾诺丝雅诗|艾诺丝·雅诗,河北省,石家庄市,晋州市,艾诺丝(雅诗店),晋州市晋州镇法院对面,38.024899,115.05842700000001,购物服务;服装鞋帽皮具店;服装鞋帽皮具店,B0FFH9V2UX
338,ARIOSEYEARS|艾诺丝雅诗|艾诺丝·雅诗,河北省,秦皇岛市,北戴河区,艾诺丝·雅诗(北戴河店),北戴河区康健路25号,39.823035,119.484862,购物服务;服装鞋帽皮具店;服装鞋帽皮具店,B014F0T45Q
306,ARIOSEYEARS|艾诺丝雅诗|艾诺丝·雅诗,河北省,衡水市,阜城县,ARIOSE years,阜城县富强东路367号附近,37.869206,116.17524499999999,购物服务;服装鞋帽皮具店;服装鞋帽皮具店,B0FFIVL6RT
542,ARIOSEYEARS|艾诺丝雅诗|艾诺丝·雅诗,河北省,邢台市,清河县,艾诺丝,清河县太行北路88号,37.068529,115.66741699999999,购物服务;服装鞋帽皮具店;服装鞋帽皮具店,B0FFHH9KHH
490,ARIOSEYEARS|艾诺丝雅诗|艾诺丝·雅诗,河北省,邯郸市,丛台区,ARIOSE years,丛台区中华北大街29号新世纪商业广场(中华北大街店)西楼F3,36.610819,114.495052,购物服务;专卖店;专营店,B0FFIMYT9C
640,ARIOSEYEARS|艾诺丝雅诗|艾诺丝·雅诗,河南省,三门峡市,湖滨区,ARIOSEyears,湖滨区和平路与六峰中路交汇处东南丹尼斯百货2层,34.779429,111.19938,购物服务;服装鞋帽皮具店;品牌服装店,B0FFH292E2
518,ARIOSEYEARS|艾诺丝雅诗|艾诺丝·雅诗,河南省,南阳市,方城县,ARIOSEyears,方城县裕州南路育红双语幼儿园南,33.253001,113.00975700000001,购物服务;服装鞋帽皮具店;品牌服装店,B0FFIKOD84
571,ARIOSEYEARS|艾诺丝雅诗|艾诺丝·雅诗,河南省,周口市,沈丘县,ARIOSEyears,沈丘县颖河大道中国电信对面,33.40225,115.084924,购物服务;服装鞋帽皮具店;品牌服装店,B0FFIKPVUV
441,ARIOSEYEARS|艾诺丝雅诗|艾诺丝·雅诗,河南省,商丘市,梁园区,艾诺丝雅诗,梁园区凯旋东街与步行街交叉口西北50米,34.438869,115.655189,购物服务;服装鞋帽皮具店;服装鞋帽皮具店,B0FFGI88DN
41,ARIOSEYEARS|艾诺丝雅诗|艾诺丝·雅诗,河南省,平顶山市,新华区,ARIOSE&years,新华区曙光街15号双丰商城F2,33.732774,113.29086399999998,购物服务;服装鞋帽皮具店;品牌服装店,B0FFH1L1AK
42,ARIOSEYEARS|艾诺丝雅诗|艾诺丝·雅诗,河南省,平顶山市,汝州市,ARIOSE&years,汝州市风穴路街道金博大二楼,34.172434,112.847838,购物服务;服装鞋帽皮具店;品牌服装店,B0FFHI0F4U
19,ARIOSEYEARS|艾诺丝雅诗|艾诺丝·雅诗,河南省,开封市,鼓楼区,艾诺丝,鼓楼区汉兴路30号,34.791762,114.322445,购物服务;服装鞋帽皮具店;服装鞋帽皮具店,B0FFGEGZB6
56,ARIOSEYEARS|艾诺丝雅诗|艾诺丝·雅诗,河南省,焦作市,武陟县,艾诺丝雅诗,武陟县兴华路黄河大道叉口武陟宾馆,35.101486,113.41316699999999,购物服务;服装鞋帽皮具店;服装鞋帽皮具店,B0FFIS0UCS
55,ARIOSEYEARS|艾诺丝雅诗|艾诺丝·雅诗,河南省,焦作市,解放区,艾诺丝雅诗,解放区丰收路万达广场一楼,35.204437,113.23913200000001,购物服务;服装鞋帽皮具店;服装鞋帽皮具店,B0FFIAV1SG
57,ARIOSEYEARS|艾诺丝雅诗|艾诺丝·雅诗,河南省,焦作市,解放区,艾诺丝雅诗服装店,解放区和平西街辉龙小区10号楼99号一层,35.238903,113.22953799999999,购物服务;购物相关场所;购物相关场所,B0FFIPEYNF
540,ARIOSEYEARS|艾诺丝雅诗|艾诺丝·雅诗,河南省,郑州市,金水区,艾诺丝雅诗,金水区黄河路经二路璞丽中心1楼D座D1005,34.774883,113.696297,购物服务;服装鞋帽皮具店;服装鞋帽皮具店,B0FFIWU2ZO
205,ARIOSEYEARS|艾诺丝雅诗|艾诺丝·雅诗,浙江省,丽水市,龙泉市,ARIOSEyears,龙泉市华楼街71-73号,28.07017,119.13349,购物服务;服装鞋帽皮具店;品牌服装店,B0FFIK6BHH
509,ARIOSEYEARS|艾诺丝雅诗|艾诺丝·雅诗,浙江省,台州市,黄岩区,艾诺丝雅诗,黄岩区院桥镇奥特莱斯广场1楼A126,28.556791999999998,121.26763700000001,购物服务;服装鞋帽皮具店;服装鞋帽皮具店,B0FFH2XI0W
674,ARIOSEYEARS|艾诺丝雅诗|艾诺丝·雅诗,浙江省,嘉兴市,嘉善县,艾诺丝雅诗,嘉善县嘉善大道太平洋广场二楼,30.820138,120.927819,购物服务;服装鞋帽皮具店;服装鞋帽皮具店,B0FFHSA86U
435,ARIOSEYEARS|艾诺丝雅诗|艾诺丝·雅诗,浙江省,宁波市,北仑区,艾诺丝雅诗专柜,北仑区岷山路505号银泰百货2楼,29.895781,121.83141299999998,购物服务;购物相关场所;购物相关场所,B0FFJ0IZJR
436,ARIOSEYEARS|艾诺丝雅诗|艾诺丝·雅诗,浙江省,宁波市,北仑区,ARIOSE&years(银泰百货),北仑区中河路399号银泰百货F2层,29.896277,121.832149,购物服务;服装鞋帽皮具店;品牌服装店,B0FFGAHC53
434,ARIOSEYEARS|艾诺丝雅诗|艾诺丝·雅诗,浙江省,宁波市,江北区,艾诺丝,江北区江北大道188号万达广场1楼1-20,29.915913,121.531072,购物服务;专卖店;专营店,B0FFGJ0N3R
433,ARIOSEYEARS|艾诺丝雅诗|艾诺丝·雅诗,浙江省,宁波市,鄞州区,艾诺丝雅诗,鄞州区四明中路688号利时城市奥特莱斯二楼13C,29.827773999999998,121.55351999999999,购物服务;服装鞋帽皮具店;服装鞋帽皮具店,B0FFJ0MLO6
505,ARIOSEYEARS|艾诺丝雅诗|艾诺丝·雅诗,浙江省,杭州市,上城区,ARIOSE&years(衣之家城市折扣百货长生路),上城区庆春路225号衣之家城市折扣百货(长生路)F2层,30.257329,120.16103400000001,购物服务;服装鞋帽皮具店;品牌服装店,B0FFIBP065
496,ARIOSEYEARS|艾诺丝雅诗|艾诺丝·雅诗,浙江省,杭州市,下城区,艾诺丝雅诗(银泰百货),下城区西湖文化广场18号环球中心银泰百货(文化广场店)2楼,30.278059999999996,120.163227,购物服务;服装鞋帽皮具店;品牌服装店,B0FFHIIAX6
502,ARIOSEYEARS|艾诺丝雅诗|艾诺丝·雅诗,浙江省,杭州市,下城区,艾诺丝(香积寺路),下城区香积寺路110号,30.307444,120.16971399999998,购物服务;服装鞋帽皮具店;品牌服装店,B0FFFLJKWQ
503,ARIOSEYEARS|艾诺丝雅诗|艾诺丝·雅诗,浙江省,杭州市,下城区,ARIOSE years,下城区再行路与香积寺路交叉口西50米,30.307396,120.169794,购物服务;购物相关场所;购物相关场所,B0FFI6NNZM
501,ARIOSEYEARS|艾诺丝雅诗|艾诺丝·雅诗,浙江省,杭州市,临安区,艾诺丝(天屹路),临安区天屹路184-186,30.226884000000002,119.71253100000001,购物服务;服装鞋帽皮具店;品牌服装店,B023B198L7
500,ARIOSEYEARS|艾诺丝雅诗|艾诺丝·雅诗,浙江省,杭州市,余杭区,艾诺丝(东兴路),余杭区瓶窑镇东兴路185号,30.390303000000003,119.973974,购物服务;服装鞋帽皮具店;服装鞋帽皮具店,B0FFG8FJGU
494,ARIOSEYEARS|艾诺丝雅诗|艾诺丝·雅诗,浙江省,杭州市,建德市,艾诺丝雅诗,建德市新安江盛德国际广场(太平洋购物中心)二楼,29.470761,119.277216,购物服务;服装鞋帽皮具店;品牌服装店,B0FFHSOBMO
498,ARIOSEYEARS|艾诺丝雅诗|艾诺丝·雅诗,浙江省,杭州市,建德市,艾诺丝雅诗(建德店),建德市康乐路8号,29.472553,119.2747,购物服务;服装鞋帽皮具店;服装鞋帽皮具店,B0FFF4784N
497,ARIOSEYEARS|艾诺丝雅诗|艾诺丝·雅诗,浙江省,杭州市,江干区,ARIOSEyears(金海城店),江干区杭海路878号金海城A馆1层,30.308528000000003,120.267599,购物服务;专卖店;专营店,B0FFG8HUMT
506,ARIOSEYEARS|艾诺丝雅诗|艾诺丝·雅诗,浙江省,杭州市,江干区,ARIOSE&years(衣之家百货),江干区天城路86号衣之家百货F2层,30.287726,120.20008500000002,购物服务;服装鞋帽皮具店;品牌服装店,B0FFFY52AF
495,ARIOSEYEARS|艾诺丝雅诗|艾诺丝·雅诗,浙江省,杭州市,淳安县,艾诺丝(雅诗专卖店),淳安县新安大街41之4-6号,29.605001,119.04099099999999,购物服务;服装鞋帽皮具店;服装鞋帽皮具店,B0FFFZCY8C
504,ARIOSEYEARS|艾诺丝雅诗|艾诺丝·雅诗,浙江省,杭州市,萧山区,ARIOSE&years(恒隆广场),萧山区山阴路688号恒隆广场F2层,30.178085,120.261256,购物服务;服装鞋帽皮具店;品牌服装店,B0FFGYN518
499,ARIOSEYEARS|艾诺丝雅诗|艾诺丝·雅诗,浙江省,杭州市,西湖区,艾诺丝(厚仁路),西湖区三墩新天地香港城厚仁路297号,30.331519,120.079272,购物服务;服装鞋帽皮具店;品牌服装店,B0FFHCQ1AA
588,ARIOSEYEARS|艾诺丝雅诗|艾诺丝·雅诗,浙江省,温州市,乐清市,艾诺丝雅诗,乐清市伯乐东路999号南虹广场F3,28.110954,120.98305800000001,购物服务;购物相关场所;购物相关场所,B0FFHIKTEF
592,ARIOSEYEARS|艾诺丝雅诗|艾诺丝·雅诗,浙江省,湖州市,吴兴区,ARIOSEyears,吴兴区富民路150号-1,30.868190000000002,120.26167,购物服务;服装鞋帽皮具店;品牌服装店,B0FFILDESN
593,ARIOSEYEARS|艾诺丝雅诗|艾诺丝·雅诗,浙江省,湖州市,吴兴区,艾诺丝雅诗(东吴银泰城),吴兴区劳动路518号东吴银泰城F2层2-06,30.874076000000002,120.09934799999999,购物服务;服装鞋帽皮具店;品牌服装店,B0FFHWXVOG
595,ARIOSEYEARS|艾诺丝雅诗|艾诺丝·雅诗,浙江省,湖州市,吴兴区,艾诺丝雅诗专柜,吴兴区星火百货A座三楼,30.865603999999998,120.10083799999998,购物服务;购物相关场所;购物相关场所,B0FFIBP69E
594,ARIOSEYEARS|艾诺丝雅诗|艾诺丝·雅诗,浙江省,湖州市,德清县,艾诺丝雅诗(德清店),德清县贵和街222-224号,30.538396999999996,119.961048,购物服务;服装鞋帽皮具店;服装鞋帽皮具店,B0FFFOSGDB
570,ARIOSEYEARS|艾诺丝雅诗|艾诺丝·雅诗,浙江省,绍兴市,上虞区,艾诺丝雅诗专柜,上虞区市民大道688号万和城2楼东南区,30.031848999999998,120.87574,购物服务;购物相关场所;购物相关场所,B0FFJ04O7U
565,ARIOSEYEARS|艾诺丝雅诗|艾诺丝·雅诗,浙江省,绍兴市,嵊州市,艾诺丝雅诗(鹿山广场),嵊州市嵊州鹿山路6-7号鹿山广场2F层,29.590405,120.82648799999998,购物服务;服装鞋帽皮具店;服装鞋帽皮具店,B0FFHITE4D
566,ARIOSEYEARS|艾诺丝雅诗|艾诺丝·雅诗,浙江省,绍兴市,嵊州市,艾诺丝雅诗(国商大厦),嵊州市北直街1号国商大厦2F层,29.585791999999998,120.821569,购物服务;服装鞋帽皮具店;品牌服装店,B0FFHIU4SE
563,ARIOSEYEARS|艾诺丝雅诗|艾诺丝·雅诗,浙江省,绍兴市,柯桥区,艾诺丝雅诗(天虹商场),柯桥区笛扬路1339号天虹商场F2层,30.083778000000002,120.4921,购物服务;服装鞋帽皮具店;品牌服装店,B0FFGBY5EL
564,ARIOSEYEARS|艾诺丝雅诗|艾诺丝·雅诗,浙江省,绍兴市,柯桥区,艾诺丝.雅诗(万达广场),柯桥区钱陶公路799号万达广场F1层,30.093051000000003,120.51138700000001,购物服务;服装鞋帽皮具店;服装鞋帽皮具店,B0FFG9HQ5P
562,ARIOSEYEARS|艾诺丝雅诗|艾诺丝·雅诗,浙江省,绍兴市,诸暨市,艾诺丝雅诗,诸暨市暨阳路7号第一百货F2,29.717409000000004,120.23812,购物服务;服装鞋帽皮具店;服装鞋帽皮具店,B0FFIIQP0A
567,ARIOSEYEARS|艾诺丝雅诗|艾诺丝·雅诗,浙江省,绍兴市,越城区,艾诺丝,越城区府山街道鲁迅西路355号,29.993679999999998,120.573982,购物服务;服装鞋帽皮具店;品牌服装店,B0FFHJV8SU
568,ARIOSEYEARS|艾诺丝雅诗|艾诺丝·雅诗,浙江省,绍兴市,越城区,艾诺丝(解放南路店),越城区解放南路1389号,29.973692,120.57978899999999,购物服务;服装鞋帽皮具店;服装鞋帽皮具店,B023F0PAEY
569,ARIOSEYEARS|艾诺丝雅诗|艾诺丝·雅诗,浙江省,绍兴市,越城区,艾诺丝雅诗专柜,越城区胜利东路360号百盛购物中心二楼,30.002440999999997,120.59493300000001,购物服务;购物相关场所;购物相关场所,B0FFIZFYUB
358,ARIOSEYEARS|艾诺丝雅诗|艾诺丝·雅诗,浙江省,舟山市,定海区,艾诺丝(总府路),定海区总府路54号,30.016474,122.105625,购物服务;服装鞋帽皮具店;服装鞋帽皮具店,B0FFFPZV1Q
357,ARIOSEYEARS|艾诺丝雅诗|艾诺丝·雅诗,浙江省,舟山市,普陀区,艾诺丝,普陀区中大街与文化路交叉口东50米,29.946268,122.30178899999999,购物服务;购物相关场所;购物相关场所,B0FFFZ6HW4
81,ARIOSEYEARS|艾诺丝雅诗|艾诺丝·雅诗,浙江省,衢州市,柯城区,艾诺丝雅诗,柯城区道前街18号景文百货(县西街)3层,28.959288,118.868799,购物服务;服装鞋帽皮具店;服装鞋帽皮具店,B0FFFDIR27
128,ARIOSEYEARS|艾诺丝雅诗|艾诺丝·雅诗,浙江省,金华市,东阳市,ARIOSE years,东阳市吴宁街道吴宁东路1号新光太平洋购物广场F2,29.259571,120.231078,购物服务;专卖店;专营店,B0FFHVZIXR
125,ARIOSEYEARS|艾诺丝雅诗|艾诺丝·雅诗,浙江省,金华市,兰溪市,艾诺丝雅诗(今朝商厦),兰溪市劳动路78号今朝商厦F2层,29.212503,119.47896599999999,购物服务;服装鞋帽皮具店;品牌服装店,B0FFH5JH3C
126,ARIOSEYEARS|艾诺丝雅诗|艾诺丝·雅诗,浙江省,金华市,婺城区,艾诺丝雅诗专柜,婺城区宾虹路777号银泰百货二楼,29.083717,119.649295,购物服务;购物相关场所;购物相关场所,B0FFIDR7NK
127,ARIOSEYEARS|艾诺丝雅诗|艾诺丝·雅诗,浙江省,金华市,婺城区,ARIOSE&years(第一百货),婺城区宾虹路855号第一百货F3层,29.083526000000003,119.647472,购物服务;服装鞋帽皮具店;品牌鞋店,B0FFH1NMWA
45,ARIOSEYEARS|艾诺丝雅诗|艾诺丝·雅诗,海南省,海口市,龙华区,艾诺丝雅诗,龙华区大同路26号万国大都会2层,20.031760000000002,110.33913999999999,购物服务;服装鞋帽皮具店;服装鞋帽皮具店,B0FFG25MRE
46,ARIOSEYEARS|艾诺丝雅诗|艾诺丝·雅诗,海南省,海口市,龙华区,ARIOSE&YEARS,龙华区龙华路11号友谊商业广场3层,20.03796,110.337951,购物服务;服装鞋帽皮具店;品牌服装店,B0FFFOFW79
224,ARIOSEYEARS|艾诺丝雅诗|艾诺丝·雅诗,湖北省,十堰市,丹江口市,艾诺丝·雅诗(丹江口二店),丹江口市丹二路51号,32.538178,111.513203,购物服务;购物相关场所;购物相关场所,B0FFF4DJWU
228,ARIOSEYEARS|艾诺丝雅诗|艾诺丝·雅诗,湖北省,十堰市,丹江口市,艾诺丝·雅诗丹(江口店),丹江口市丹江大道250号,32.543372,111.508614,购物服务;服装鞋帽皮具店;服装鞋帽皮具店,B0FFH5TANB
225,ARIOSEYEARS|艾诺丝雅诗|艾诺丝·雅诗,湖北省,十堰市,房县,艾诺丝,房县城关镇天一路小广场垃圾收费处理中心,32.054309,110.74001499999999,购物服务;购物相关场所;购物相关场所,B0FFGZJJVZ
227,ARIOSEYEARS|艾诺丝雅诗|艾诺丝·雅诗,湖北省,十堰市,竹山县,艾诺丝,竹山县人民路与北大街交叉口西150米,32.221761,110.231572,购物服务;购物相关场所;购物相关场所,B0FFHHUN7O
226,ARIOSEYEARS|艾诺丝雅诗|艾诺丝·雅诗,湖北省,十堰市,竹溪县,艾诺丝,竹溪县鄂陕大道195号附近,32.311903,109.716696,购物服务;购物相关场所;购物相关场所,B0FFFT3NWJ
216,ARIOSEYEARS|艾诺丝雅诗|艾诺丝·雅诗,湖北省,咸宁市,嘉鱼县,艾诺丝·雅诗(嘉鱼店),嘉鱼县沙阳大道与通湖路交叉口西南50米,29.973583,113.91050700000001,购物服务;服装鞋帽皮具店;服装鞋帽皮具店,B0FFHN1OGW
217,ARIOSEYEARS|艾诺丝雅诗|艾诺丝·雅诗,湖北省,咸宁市,崇阳县,艾诺丝(新建路),崇阳县天城镇紫晶城,29.541301,114.049452,购物服务;服装鞋帽皮具店;服装鞋帽皮具店,B0FFHIU4GN
214,ARIOSEYEARS|艾诺丝雅诗|艾诺丝·雅诗,湖北省,咸宁市,赤壁市,艾诺丝雅诗,赤壁市三国商业城孔明街29号31号,29.712958,113.88331200000002,购物服务;服装鞋帽皮具店;品牌服装店,B0FFG2RSIK
215,ARIOSEYEARS|艾诺丝雅诗|艾诺丝·雅诗,湖北省,咸宁市,通城县,艾诺丝.雅诗(通城店),通城县湘汉路与金井街交叉口东南50米,29.243344,113.813608,购物服务;服装鞋帽皮具店;服装鞋帽皮具店,B0FFFZ7D8C
275,ARIOSEYEARS|艾诺丝雅诗|艾诺丝·雅诗,湖北省,孝感市,孝南区,艾诺丝雅诗(孝感店),孝南区广场街办事处文化路123号,30.923508,113.923864,购物服务;服装鞋帽皮具店;服装鞋帽皮具店,B0FFFGVX7D
276,ARIOSEYEARS|艾诺丝雅诗|艾诺丝·雅诗,湖北省,孝感市,应城市,艾诺丝,应城市西大街与解放街交叉口西北50米,30.943517,113.568522,购物服务;服装鞋帽皮具店;品牌服装店,B0FFH0CH51
86,ARIOSEYEARS|艾诺丝雅诗|艾诺丝·雅诗,湖北省,宜昌市,伍家岗区,艾诺丝·雅诗(伍家岗店),伍家岗区伍家岗街道伍临路桔香花园1号,30.640475,111.360472,购物服务;服装鞋帽皮具店;服装鞋帽皮具店,B0FFFZY1MM
89,ARIOSEYEARS|艾诺丝雅诗|艾诺丝·雅诗,湖北省,宜昌市,宜都市,艾诺丝(园林大道商业街),宜都市名都商业街秀水苑102号,30.378952,111.44705800000001,购物服务;服装鞋帽皮具店;服装鞋帽皮具店,B0FFHJ244W
88,ARIOSEYEARS|艾诺丝雅诗|艾诺丝·雅诗,湖北省,宜昌市,当阳市,艾诺丝(南正街),当阳市玉阳街道长坂路129号,30.822113,111.793392,购物服务;服装鞋帽皮具店;服装鞋帽皮具店,B0FFIN57OJ
87,ARIOSEYEARS|艾诺丝雅诗|艾诺丝·雅诗,湖北省,宜昌市,秭归县,艾诺丝·雅诗(秭归店),秭归县茅坪镇港归购物广场1楼,30.822072,110.97451699999999,购物服务;服装鞋帽皮具店;服装鞋帽皮具店,B0FFGHLMW3
85,ARIOSEYEARS|艾诺丝雅诗|艾诺丝·雅诗,湖北省,宜昌市,西陵区,艾诺丝·雅诗(宜昌店),西陵区夷陵大道79号,30.705238,111.292144,购物服务;服装鞋帽皮具店;服装鞋帽皮具店,B0FFFFBCMX
90,ARIOSEYEARS|艾诺丝雅诗|艾诺丝·雅诗,湖北省,宜昌市,远安县,艾诺丝雅诗专卖店,远安县鸣凤镇解放路49号,31.058888,111.641927,购物服务;购物相关场所;购物相关场所,B0FFH07ZCV
160,ARIOSEYEARS|艾诺丝雅诗|艾诺丝·雅诗,湖北省,恩施土家族苗族自治州,建始县,ARIOSEyears,建始县业州大道与体育巷交叉口南50米,30.600475,109.71928,购物服务;服装鞋帽皮具店;品牌服装店,B0FFIK6K3E
161,ARIOSEYEARS|艾诺丝雅诗|艾诺丝·雅诗,湖北省,恩施土家族苗族自治州,恩施市,艾诺丝雅诗专柜,恩施市小渡船街道航空路恩施广场二楼,30.289325,109.47953700000001,购物服务;购物相关场所;购物相关场所,B0FFHE2OAU
71,ARIOSEYEARS|艾诺丝雅诗|艾诺丝·雅诗,湖北省,武汉市,武昌区,艾诺丝.雅诗(东亭店),武昌区东亭路4附3号,30.567913,114.361476,购物服务;服装鞋帽皮具店;服装鞋帽皮具店,B0FFFLIMNJ
79,ARIOSEYEARS|艾诺丝雅诗|艾诺丝·雅诗,湖北省,武汉市,武昌区,ARIOSEYEARS服装店,武昌区水果湖街街道中北路233号世纪彩城世纪大厦一楼17号商铺,30.570978000000004,114.35553700000001,购物服务;购物相关场所;购物相关场所,B0FFIK53FQ
72,ARIOSEYEARS|艾诺丝雅诗|艾诺丝·雅诗,湖北省,武汉市,汉阳区,艾诺丝雅诗(汉商21世纪购物中心),汉阳区汉阳大道687号汉商21世纪购物中心F3层,30.560091999999997,114.21113400000002,购物服务;服装鞋帽皮具店;品牌服装店|购物服务;服装鞋帽皮具店;品牌鞋店,B0FFFFLF4F
76,ARIOSEYEARS|艾诺丝雅诗|艾诺丝·雅诗,湖北省,武汉市,汉阳区,ARIOSE years(武汉摩尔城),汉阳区王家湾龙阳大道特6号武汉摩尔城F2层L2-A009-1,30.558482,114.208054,购物服务;服装鞋帽皮具店;品牌服装店,B0FFI70JFK
77,ARIOSEYEARS|艾诺丝雅诗|艾诺丝·雅诗,湖北省,武汉市,汉阳区,ARIOSE&years(永旺梦乐城A馆),汉阳区江城大道388号永旺梦乐城A馆F2层,30.505542,114.206434,购物服务;服装鞋帽皮具店;品牌鞋店,B0FFHDQMPS
78,ARIOSEYEARS|艾诺丝雅诗|艾诺丝·雅诗,湖北省,武汉市,江岸区,ARIOSE&years(汉口城市广场购物中心),江岸区后湖大道111号汉口城市广场购物中心F1层,30.651321999999997,114.30553300000001,购物服务;服装鞋帽皮具店;品牌服装店,B0FFHQKZ7T
80,ARIOSEYEARS|艾诺丝雅诗|艾诺丝·雅诗,湖北省,武汉市,江岸区,ARIOSE years,江岸区黄孝河路28附9号附近,30.609488,114.285697,购物服务;购物相关场所;购物相关场所,B0FFICEY9D
67,ARIOSEYEARS|艾诺丝雅诗|艾诺丝·雅诗,湖北省,武汉市,江汉区,艾诺丝雅诗,江汉区民意街办事处中山大道友谊南路汉正国际中心7楼7018室,30.573966,114.28114,购物服务;服装鞋帽皮具店;服装鞋帽皮具店,B0FFI8NI7T
68,ARIOSEYEARS|艾诺丝雅诗|艾诺丝·雅诗,湖北省,武汉市,江汉区,艾诺丝雅诗,江汉区唐家墩街办事处全国服装贸易中心二楼,30.617896999999996,114.27204099999999,购物服务;服装鞋帽皮具店;服装鞋帽皮具店,B0FFIVPIJC
73,ARIOSEYEARS|艾诺丝雅诗|艾诺丝·雅诗,湖北省,武汉市,江汉区,arioseyears(新唐万科广场店),江汉区常青一路218号新唐万科广场1层,30.623468,114.26228799999998,购物服务;专卖店;专营店,B0FFHUWFB1
69,ARIOSEYEARS|艾诺丝雅诗|艾诺丝·雅诗,湖北省,武汉市,硚口区,艾诺丝雅诗,硚口区多福路特58号汉正街品牌服饰批发广场四楼台北路4023,30.570194,114.277854,购物服务;服装鞋帽皮具店;服装鞋帽皮具店,B0FFFT4ZKS
70,ARIOSEYEARS|艾诺丝雅诗|艾诺丝·雅诗,湖北省,武汉市,硚口区,艾诺丝·雅诗(航空路店),硚口区万松街办事处公园社区(万松园路)52号,30.584459999999996,114.26156999999999,购物服务;服装鞋帽皮具店;品牌服装店,B0FFFALIGB
75,ARIOSEYEARS|艾诺丝雅诗|艾诺丝·雅诗,湖北省,武汉市,硚口区,ARIOSE&years,硚口区解放大道387号南国西汇城市广场一期1层,30.585552000000003,114.22283,购物服务;服装鞋帽皮具店;品牌服装店,B0FFHCTREU
74,ARIOSEYEARS|艾诺丝雅诗|艾诺丝·雅诗,湖北省,武汉市,蔡甸区,艾诺丝(汉阳大街店),蔡甸区汉阳大街88号附3号,30.577958000000002,114.03392099999999,购物服务;服装鞋帽皮具店;服装鞋帽皮具店,B0FFG8WOQV
115,ARIOSEYEARS|艾诺丝雅诗|艾诺丝·雅诗,湖北省,潜江市,潜江市,艾诺丝雅诗专卖店,潜江市园林办事处建设街老邮局旁,30.421359000000002,112.897934,购物服务;购物相关场所;购物相关场所,B0FFI9PGQV
109,ARIOSEYEARS|艾诺丝雅诗|艾诺丝·雅诗,湖北省,神农架林区,神农架林区,艾诺丝·雅诗,神农架林区中心街6号附近,31.744208,110.674544,购物服务;服装鞋帽皮具店;服装鞋帽皮具店,B0FFFZ0W45
533,ARIOSEYEARS|艾诺丝雅诗|艾诺丝·雅诗,湖北省,荆州市,公安县,ARIOSE years,公安县斗湖堤镇五九路,30.058708000000003,112.224833,购物服务;服装鞋帽皮具店;服装鞋帽皮具店,B0FFIVSBSJ
532,ARIOSEYEARS|艾诺丝雅诗|艾诺丝·雅诗,湖北省,荆州市,洪湖市,艾诺丝,洪湖市新堤街道宏伟南路购物公园,29.807740999999996,113.46794299999999,购物服务;服装鞋帽皮具店;服装鞋帽皮具店,B0FFHHDE4X
531,ARIOSEYEARS|艾诺丝雅诗|艾诺丝·雅诗,湖北省,荆州市,石首市,艾诺丝·雅诗,石首市建设路115-6号,29.724835,112.41031000000001,购物服务;购物相关场所;购物相关场所,B02CC0PBA4
153,ARIOSEYEARS|艾诺丝雅诗|艾诺丝·雅诗,湖北省,荆门市,沙洋县,艾诺丝雅诗,沙洋县沙洋镇五一路71号,30.701601,112.593547,购物服务;服装鞋帽皮具店;服装鞋帽皮具店,B0FFGZ72BH
413,ARIOSEYEARS|艾诺丝雅诗|艾诺丝·雅诗,湖北省,襄阳市,樊城区,ARIOSEyears(七彩名店),樊城区解放路27-6号,32.036427,112.15208100000001,购物服务;服装鞋帽皮具店;品牌服装店,B0FFIK4NRJ
412,ARIOSEYEARS|艾诺丝雅诗|艾诺丝·雅诗,湖北省,襄阳市,襄城区,艾诺丝·雅诗(北街),襄城区积仓街15-8号,32.017846999999996,112.151877,购物服务;服装鞋帽皮具店;品牌服装店,B0FFFO49T0
414,ARIOSEYEARS|艾诺丝雅诗|艾诺丝·雅诗,湖北省,襄阳市,谷城县,艾诺丝(谷城县支持铁路建设办公室西),谷城县粉水路71-18号附近,32.261993,111.644016,购物服务;服装鞋帽皮具店;服装鞋帽皮具店,B0FFFWFQOI
646,ARIOSEYEARS|艾诺丝雅诗|艾诺丝·雅诗,湖北省,随州市,曾都区,ARIOSEyears,曾都区解放路维多利亚旁,31.71247,113.36854,购物服务;服装鞋帽皮具店;品牌服装店,B0FFILDFJA
416,ARIOSEYEARS|艾诺丝雅诗|艾诺丝·雅诗,湖北省,黄冈市,浠水县,艾诺丝雅诗(新华正街),浠水县新华正街368号,30.453929,115.265625,购物服务;服装鞋帽皮具店;服装鞋帽皮具店,B0FFGICA3Y
415,ARIOSEYEARS|艾诺丝雅诗|艾诺丝·雅诗,湖北省,黄冈市,黄梅县,艾诺丝·雅诗,黄梅县五祖大道199号(黄梅一小、政府大院附近、信访局对面),30.070916999999998,115.945427,购物服务;服装鞋帽皮具店;服装鞋帽皮具店,B0FFF6PHSD
469,ARIOSEYEARS|艾诺丝雅诗|艾诺丝·雅诗,湖北省,黄石市,铁山区,艾诺丝,铁山区区直辖村模拟镇铁山大道42号,30.204595,114.90156999999999,购物服务;服装鞋帽皮具店;服装鞋帽皮具店,B0FFHRVBGC
470,ARIOSEYEARS|艾诺丝雅诗|艾诺丝·雅诗,湖北省,黄石市,黄石港区,艾诺丝雅诗女装,黄石港区万达广场二楼2033,30.243498,115.05981399999999,购物服务;购物相关场所;购物相关场所,B0FFJ31SKM
455,ARIOSEYEARS|艾诺丝雅诗|艾诺丝·雅诗,湖南省,娄底市,冷水江市,ARIOSEyears,冷水江市步行街冷水江中心学校西,27.688717999999998,111.43845800000001,购物服务;服装鞋帽皮具店;品牌服装店,B0FFIK5FRB
457,ARIOSEYEARS|艾诺丝雅诗|艾诺丝·雅诗,湖南省,娄底市,双峰县,艾诺丝雅诗,双峰县城中路118号,27.455197,112.19435,购物服务;服装鞋帽皮具店;服装鞋帽皮具店,B0FFHJ48V0
456,ARIOSEYEARS|艾诺丝雅诗|艾诺丝·雅诗,湖南省,娄底市,娄星区,艾诺丝雅诗,娄星区万豪城市广场负一楼贝比熊对门,27.727442,112.006174,购物服务;服装鞋帽皮具店;服装鞋帽皮具店,B0FFHWUZ5H
27,ARIOSEYEARS|艾诺丝雅诗|艾诺丝·雅诗,湖南省,岳阳市,岳阳楼区,艾诺丝,岳阳楼区金虹广场506号,29.357328999999996,113.13819699999999,购物服务;服装鞋帽皮具店;服装鞋帽皮具店,B0FFGJSX44
421,ARIOSEYEARS|艾诺丝雅诗|艾诺丝·雅诗,湖南省,张家界市,慈利县,艾诺丝,慈利县零阳中路金穗商业街,29.421613,111.130279,购物服务;服装鞋帽皮具店;服装鞋帽皮具店,B0FFHG1YQY
557,ARIOSEYEARS|艾诺丝雅诗|艾诺丝·雅诗,湖南省,怀化市,芷江侗族自治县,艾诺丝,芷江侗族自治县凯旅路47号(中医院对面),27.435844,109.689536,购物服务;服装鞋帽皮具店;服装鞋帽皮具店,B0FFGPMQKA
558,ARIOSEYEARS|艾诺丝雅诗|艾诺丝·雅诗,湖南省,怀化市,鹤城区,艾诺丝雅诗(府星路),鹤城区府星路57号附近,27.546314000000002,109.96704799999999,购物服务;服装鞋帽皮具店;服装鞋帽皮具店,B0FFGFA0EA
288,ARIOSEYEARS|艾诺丝雅诗|艾诺丝·雅诗,湖南省,株洲市,攸县,ARIOSEyears,攸县县步行商业街华谊时尚影城旁,26.999561,113.34773700000001,购物服务;服装鞋帽皮具店;品牌服装店,B0FFIR6L23
289,ARIOSEYEARS|艾诺丝雅诗|艾诺丝·雅诗,湖南省,株洲市,醴陵市,ARIOSE years艾诺丝,醴陵市瓷城大道与青云北路交叉口东北150米,27.661621999999998,113.50363300000001,购物服务;服装鞋帽皮具店;服装鞋帽皮具店,B0FFH5FEDO
638,ARIOSEYEARS|艾诺丝雅诗|艾诺丝·雅诗,湖南省,永州市,冷水滩区,艾诺丝雅诗专柜,冷水滩区新金水湾广场二楼,26.447578999999998,111.596378,购物服务;购物相关场所;购物相关场所,B0FFI5TH3R
507,ARIOSEYEARS|艾诺丝雅诗|艾诺丝·雅诗,湖南省,湘潭市,湘乡市,ARIOSEyears,湘乡市改造投资开发有限责任公司,27.731073,112.534024,购物服务;服装鞋帽皮具店;品牌服装店,B0FFIIPV0X
53,ARIOSEYEARS|艾诺丝雅诗|艾诺丝·雅诗,湖南省,湘西土家族苗族自治州,永顺县,艾诺丝雅诗,永顺县灵溪镇,28.996567,109.853168,购物服务;服装鞋帽皮具店;服装鞋帽皮具店,B0FFHC10L4
320,ARIOSEYEARS|艾诺丝雅诗|艾诺丝·雅诗,湖南省,益阳市,南县,ARIOSEyears,南县南洲路与人民路交叉口西北角,29.369018,112.40600500000001,购物服务;服装鞋帽皮具店;品牌服装店,B0FFIKOXXT
237,ARIOSEYEARS|艾诺丝雅诗|艾诺丝·雅诗,湖南省,衡阳市,石鼓区,艾诺丝·雅诗(常胜路),石鼓区常胜东路8号,26.899641,112.609994,购物服务;服装鞋帽皮具店;服装鞋帽皮具店,B0FFFEA87V
238,ARIOSEYEARS|艾诺丝雅诗|艾诺丝·雅诗,湖南省,衡阳市,石鼓区,ARIOSE years,石鼓区和平北路与解放大道交叉口北50米,26.896817,112.610721,购物服务;服装鞋帽皮具店;服装鞋帽皮具店,B0FFIVHK60
402,ARIOSEYEARS|艾诺丝雅诗|艾诺丝·雅诗,湖南省,邵阳市,大祥区,ARIOSEyears(中心路店),大祥区中心路与红旗路交叉口北150米,27.236796999999996,111.46591200000002,购物服务;服装鞋帽皮具店;品牌服装店,B0FFIJPG21
400,ARIOSEYEARS|艾诺丝雅诗|艾诺丝·雅诗,湖南省,邵阳市,新邵县,艾诺丝雅诗,新邵县酿溪镇湾田广场,27.320078000000002,111.46621699999999,购物服务;服装鞋帽皮具店;服装鞋帽皮具店,B0FFIX95RA
401,ARIOSEYEARS|艾诺丝雅诗|艾诺丝·雅诗,湖南省,邵阳市,邵东县,ARIOSEyears(荷田路店),邵东县两市镇荷田路征稽所6-8号,27.256689,111.742728,购物服务;服装鞋帽皮具店;品牌服装店,B0FFIGJW11
544,ARIOSEYEARS|艾诺丝雅诗|艾诺丝·雅诗,湖南省,郴州市,北湖区,ARIOSEyears,北湖区升平路17号,25.807405,113.028457,购物服务;服装鞋帽皮具店;品牌服装店,B0FFG90VLB
546,ARIOSEYEARS|艾诺丝雅诗|艾诺丝·雅诗,湖南省,郴州市,北湖区,艾诺丝·雅诗,北湖区国庆北路7号市邮政局对面,25.797631,113.030353,购物服务;服装鞋帽皮具店;服装鞋帽皮具店,B0FFFSUMBP
545,ARIOSEYEARS|艾诺丝雅诗|艾诺丝·雅诗,湖南省,郴州市,桂东县,ARIOSEyears,桂东县维夏路福临门超市北侧,26.074413,113.945699,购物服务;服装鞋帽皮具店;品牌服装店,B0FFIKMP0X
548,ARIOSEYEARS|艾诺丝雅诗|艾诺丝·雅诗,湖南省,郴州市,桂阳县,ARIOSE years,桂阳县商业步行街5号附近,25.737767,112.735317,购物服务;服装鞋帽皮具店;服装鞋帽皮具店,B0FFIHH5JK
547,ARIOSEYEARS|艾诺丝雅诗|艾诺丝·雅诗,湖南省,郴州市,汝城县,艾诺丝(雅诗汝城店),汝城县庐阳兴隆街与郴义路交叉口东南100米,25.552007999999997,113.686198,购物服务;服装鞋帽皮具店;服装鞋帽皮具店,B0FFIE3EIK
642,ARIOSEYEARS|艾诺丝雅诗|艾诺丝·雅诗,湖南省,长沙市,芙蓉区,艾诺丝.雅诗(古汉路),芙蓉区银港水晶城B1栋,28.203868,113.03318,购物服务;服装鞋帽皮具店;服装鞋帽皮具店,B0FFFDDXMS
643,ARIOSEYEARS|艾诺丝雅诗|艾诺丝·雅诗,湖南省,长沙市,雨花区,艾诺丝·雅诗(韶山中路),雨花区韶山中路476号,28.157193,112.993801,购物服务;服装鞋帽皮具店;服装鞋帽皮具店|购物服务;专卖店;专营店,B0FFF406XR
460,ARIOSEYEARS|艾诺丝雅诗|艾诺丝·雅诗,甘肃省,临夏回族自治州,临夏市,艾诺丝,临夏市新华街永宁路10号,35.599612,103.210748,购物服务;服装鞋帽皮具店;服装鞋帽皮具店,B0FFHJPWXQ
511,ARIOSEYEARS|艾诺丝雅诗|艾诺丝·雅诗,甘肃省,兰州市,永登县,艾诺丝雅诗,永登县和平街141号,36.731668,103.2579,购物服务;服装鞋帽皮具店;服装鞋帽皮具店,B0FFHJ7PHK
462,ARIOSEYEARS|艾诺丝雅诗|艾诺丝·雅诗,甘肃省,嘉峪关市,嘉峪关市,艾诺丝雅诗(雄关东路),嘉峪关市新华中路与镜铁西路交叉口东150米,39.799296999999996,98.271049,购物服务;服装鞋帽皮具店;服装鞋帽皮具店,B0FFH558AJ
478,ARIOSEYEARS|艾诺丝雅诗|艾诺丝·雅诗,甘肃省,定西市,安定区,艾诺丝雅诗,安定区解放路42-4号,35.577083,104.62075,购物服务;服装鞋帽皮具店;服装鞋帽皮具店,B0FFGZ6A1W
356,ARIOSEYEARS|艾诺丝雅诗|艾诺丝·雅诗,甘肃省,庆阳市,华池县,ARIOSE years,华池县中街与大顺街交叉口东50米,36.460052000000005,107.98902700000001,购物服务;购物相关场所;购物相关场所,B0FFJ0HA4S
355,ARIOSEYEARS|艾诺丝雅诗|艾诺丝·雅诗,甘肃省,庆阳市,庆城县,艾诺丝,庆城县人民路23号,36.005438,107.88651100000001,购物服务;服装鞋帽皮具店;服装鞋帽皮具店,B0FFI2JAHG
354,ARIOSEYEARS|艾诺丝雅诗|艾诺丝·雅诗,甘肃省,庆阳市,环县,艾诺丝雅诗,环县康居路与金鹏街交叉口西南150米,36.570018,107.304649,购物服务;服装鞋帽皮具店;服装鞋帽皮具店,B0FFH9V72R
471,ARIOSEYEARS|艾诺丝雅诗|艾诺丝·雅诗,甘肃省,张掖市,甘州区,ARIOSEyears(南大街店),甘州区南街街道国贸大厦三楼,38.935448,100.452026,购物服务;服装鞋帽皮具店;品牌服装店,B0FFIIPUYI
428,ARIOSEYEARS|艾诺丝雅诗|艾诺丝·雅诗,甘肃省,白银市,会宁县,艾诺丝雅诗,会宁县会师南路与汪家巷交叉口东200米,35.690309,105.055866,购物服务;服装鞋帽皮具店;服装鞋帽皮具店,B0FFI0891I
330,ARIOSEYEARS|艾诺丝雅诗|艾诺丝·雅诗,甘肃省,酒泉市,瓜州县,艾诺丝·雅诗,瓜州县渊泉街98号附近,40.515719,95.780532,购物服务;服装鞋帽皮具店;服装鞋帽皮具店,B0FFFZ0JDB
403,ARIOSEYEARS|艾诺丝雅诗|艾诺丝·雅诗,甘肃省,金昌市,金川区,艾诺丝(公园路),金川区公园路与武都路交叉口东北100米,38.511783,102.18218900000001,购物服务;服装鞋帽皮具店;服装鞋帽皮具店,B0FFH8D68F
409,ARIOSEYEARS|艾诺丝雅诗|艾诺丝·雅诗,福建省,三明市,尤溪县,艾诺丝,尤溪县建设东街161号,26.168779,118.191499,购物服务;购物相关场所;购物相关场所,B0FFH910LZ
408,ARIOSEYEARS|艾诺丝雅诗|艾诺丝·雅诗,福建省,三明市,沙县,艾诺丝,沙县凤岗街道步行街1栋50号,26.395244,117.79031599999999,购物服务;购物相关场所;购物相关场所,B0FFHBYHLH
407,ARIOSEYEARS|艾诺丝雅诗|艾诺丝·雅诗,福建省,三明市,泰宁县,艾诺丝,泰宁县杉城镇状元街北侧7-8号,26.899793,117.176625,购物服务;服装鞋帽皮具店;服装鞋帽皮具店,B0FFI4JA12
340,ARIOSEYEARS|艾诺丝雅诗|艾诺丝·雅诗,福建省,厦门市,思明区,ARIOSE YEARS,思明区中山路1号夏商百货(中山路步行街)4层,24.453871,118.078325,购物服务;专卖店;专营店,B0FFG1SEGM
2,ARIOSEYEARS|艾诺丝雅诗|艾诺丝·雅诗,福建省,宁德市,寿宁县,艾诺丝,寿宁县鳌阳镇解放街159号,27.455334999999998,119.504529,购物服务;服装鞋帽皮具店;服装鞋帽皮具店,B0FFHUQHTF
3,ARIOSEYEARS|艾诺丝雅诗|艾诺丝·雅诗,福建省,宁德市,蕉城区,艾诺丝雅诗(宝信·城市广场),蕉城区天湖东路2号宝信·城市广场F2层,26.652793,119.538225,购物服务;服装鞋帽皮具店;品牌服装店,B0FFHHJJDJ
4,ARIOSEYEARS|艾诺丝雅诗|艾诺丝·雅诗,福建省,宁德市,霞浦县,艾诺丝雅诗(太康路),霞浦县松城街道太康路466号,26.881815999999997,120.00858999999998,购物服务;服装鞋帽皮具店;品牌服装店,B0FFGICNM6
231,ARIOSEYEARS|艾诺丝雅诗|艾诺丝·雅诗,福建省,泉州市,惠安县,艾诺丝雅诗,惠安县螺阳镇世纪大道禹洲城市广场1011号,25.00517,118.77505900000001,购物服务;服装鞋帽皮具店;服装鞋帽皮具店,B0FFIDRL58
573,ARIOSEYEARS|艾诺丝雅诗|艾诺丝·雅诗,福建省,漳州市,南靖县,ARIOSEyears,南靖县山城镇人民路93一3,24.512757999999998,117.370721,购物服务;服装鞋帽皮具店;品牌服装店,B0FFILLHJS
574,ARIOSEYEARS|艾诺丝雅诗|艾诺丝·雅诗,福建省,漳州市,南靖县,艾诺丝,南靖县人民路113号-5,24.512794,117.37075700000001,购物服务;服装鞋帽皮具店;服装鞋帽皮具店,B0FFHF5D73
575,ARIOSEYEARS|艾诺丝雅诗|艾诺丝·雅诗,福建省,漳州市,芗城区,ARIOSE years,芗城区南昌中路与苍园路交叉口西100米,24.510433,117.660229,购物服务;服装鞋帽皮具店;服装鞋帽皮具店,B0FFIIIP5Q
430,ARIOSEYEARS|艾诺丝雅诗|艾诺丝·雅诗,福建省,福州市,平潭县,ARIOSEyears,平潭县潭城镇东大街58号,25.499579,119.794775,购物服务;服装鞋帽皮具店;服装鞋帽皮具店,B0FFI0IS5W
432,ARIOSEYEARS|艾诺丝雅诗|艾诺丝·雅诗,福建省,福州市,福清市,Ariose&years(福清万达广场),福清市清昌大道105号福清万达广场F1层,25.71501,119.35034399999999,购物服务;购物相关场所;购物相关场所,B0FFGJ8JPQ
431,ARIOSEYEARS|艾诺丝雅诗|艾诺丝·雅诗,福建省,福州市,鼓楼区,艾诺丝(杨桥东路),鼓楼区杨桥东路95号,26.084974,119.292825,购物服务;服装鞋帽皮具店;服装鞋帽皮具店,B0FFH1GP17
622,ARIOSEYEARS|艾诺丝雅诗|艾诺丝·雅诗,福建省,莆田市,城厢区,艾诺丝·雅诗(莆田店),城厢区文献路大唐广场1号楼,25.431870999999997,119.01175400000001,购物服务;服装鞋帽皮具店;服装鞋帽皮具店,B0FFFY8MDL
623,ARIOSEYEARS|艾诺丝雅诗|艾诺丝·雅诗,福建省,莆田市,城厢区,ARIOSE years,城厢区梅园西路241-259号,25.436201999999998,119.011692,购物服务;购物相关场所;购物相关场所,B0FFIUDODT
624,ARIOSEYEARS|艾诺丝雅诗|艾诺丝·雅诗,福建省,莆田市,秀屿区,ARIOSE years,秀屿区大众路85号,25.315392000000003,119.092381,购物服务;服装鞋帽皮具店;服装鞋帽皮具店,B0FFIU8WDE
65,ARIOSEYEARS|艾诺丝雅诗|艾诺丝·雅诗,福建省,龙岩市,连城县,艾诺丝雅诗,连城县北大中路170号,25.709532,116.759451,购物服务;购物相关场所;购物相关场所,B0FFGZ8SAI
138,ARIOSEYEARS|艾诺丝雅诗|艾诺丝·雅诗,贵州省,六盘水市,钟山区,艾诺丝-雅诗,钟山区国贸大厦二楼,26.583920000000003,104.85172299999999,购物服务;购物相关场所;购物相关场所,B0FFIM7S7T
387,ARIOSEYEARS|艾诺丝雅诗|艾诺丝·雅诗,贵州省,安顺市,普定县,艾诺丝·雅诗(普定店),普定县园丁北路与园丁路交叉口西北50米,26.303379999999997,105.74313899999999,购物服务;服装鞋帽皮具店;服装鞋帽皮具店,B0FFG0TOOF
488,ARIOSEYEARS|艾诺丝雅诗|艾诺丝·雅诗,贵州省,毕节市,纳雍县,艾诺丝雅诗,纳雍县雍熙街道万象商城二楼,26.775027,105.381419,购物服务;服装鞋帽皮具店;服装鞋帽皮具店,B0FFHVV5JI
489,ARIOSEYEARS|艾诺丝雅诗|艾诺丝·雅诗,贵州省,毕节市,黔西县,ARIOSE&years,黔西县恭勤路与文峰路交叉口东北50米,27.023290999999997,106.040245,购物服务;服装鞋帽皮具店;服装鞋帽皮具店,B0FFI9M7FW
466,ARIOSEYEARS|艾诺丝雅诗|艾诺丝·雅诗,贵州省,贵阳市,清镇市,ARIOSE years,清镇市新民路25号附近,26.555019,106.469834,购物服务;服装鞋帽皮具店;服装鞋帽皮具店,B0FFITWC0M
464,ARIOSEYEARS|艾诺丝雅诗|艾诺丝·雅诗,贵州省,贵阳市,观山湖区,艾诺丝.雅诗(金阳店),观山湖区北京西路171号,26.599358000000002,106.62714199999999,购物服务;服装鞋帽皮具店;服装鞋帽皮具店,B0FFF0268P
465,ARIOSEYEARS|艾诺丝雅诗|艾诺丝·雅诗,贵州省,贵阳市,观山湖区,艾诺丝雅诗(世纪城店),观山湖区龙泉苑街203号,26.606545,106.630777,购物服务;服装鞋帽皮具店;服装鞋帽皮具店,B0FFJ2XIJG
444,ARIOSEYEARS|艾诺丝雅诗|艾诺丝·雅诗,贵州省,遵义市,余庆县,ARIOSE years,余庆县中华中路141号,27.220309999999998,107.89301299999998,购物服务;服装鞋帽皮具店;服装鞋帽皮具店,B0FFIK6PEF
443,ARIOSEYEARS|艾诺丝雅诗|艾诺丝·雅诗,贵州省,遵义市,湄潭县,ARIOSEyears,湄潭县茶乡南路111,27.763496999999997,107.487473,购物服务;服装鞋帽皮具店;品牌服装店,B0FFH2R8ZV
93,ARIOSEYEARS|艾诺丝雅诗|艾诺丝·雅诗,贵州省,黔东南苗族侗族自治州,凯里市,艾诺丝(步行街),凯里市步行街东北50米,26.584134000000002,107.97694299999999,购物服务;服装鞋帽皮具店;品牌服装店,B0FFHH4C2V
315,ARIOSEYEARS|艾诺丝雅诗|艾诺丝·雅诗,贵州省,黔南布依族苗族自治州,惠水县,艾诺丝·雅诗(惠水专卖店),惠水县凤山路与惠兴路交叉口西南50米,26.129293,106.65834,购物服务;服装鞋帽皮具店;服装鞋帽皮具店,B0FFF2OPZJ
314,ARIOSEYEARS|艾诺丝雅诗|艾诺丝·雅诗,贵州省,黔南布依族苗族自治州,荔波县,艾诺丝·雅诗,荔波县文明路财富广场1层,25.412189,107.883701,购物服务;服装鞋帽皮具店;服装鞋帽皮具店,B0FFF2MKC8
451,ARIOSEYEARS|艾诺丝雅诗|艾诺丝·雅诗,贵州省,黔西南布依族苗族自治州,兴义市,艾诺丝雅诗(盘江东路),兴义市兴源街与盘江东路交叉口东北50米,25.086838,104.89726399999999,购物服务;服装鞋帽皮具店;服装鞋帽皮具店,B0FFGCN1N8
452,ARIOSEYEARS|艾诺丝雅诗|艾诺丝·雅诗,贵州省,黔西南布依族苗族自治州,安龙县,艾诺丝雅诗女装店,安龙县招堤办事处马场坝17号,25.107096,105.46380400000001,购物服务;购物相关场所;购物相关场所,B0FFIDCDV7
449,ARIOSEYEARS|艾诺丝雅诗|艾诺丝·雅诗,辽宁省,大连市,普兰店区,艾诺丝雅诗,普兰店区商业大街锦龙大厦1层,39.400811,121.96391899999999,购物服务;服装鞋帽皮具店;服装鞋帽皮具店,B0FFFDQIZ4
450,ARIOSEYEARS|艾诺丝雅诗|艾诺丝·雅诗,辽宁省,大连市,瓦房店市,艾诺丝雅诗,瓦房店市盖亮线华太购物广场2层,39.647441,122.002898,购物服务;服装鞋帽皮具店;品牌服装店,B0FFG4SVUY
447,ARIOSEYEARS|艾诺丝雅诗|艾诺丝·雅诗,辽宁省,大连市,金州区,ARIOSEyears(金州新玛特购物广场店),金州区斯大林路284号金州新玛特购物广场2层,39.104307,121.71546599999999,购物服务;服装鞋帽皮具店;品牌服装店,B0FFI5FGLD
448,ARIOSEYEARS|艾诺丝雅诗|艾诺丝·雅诗,辽宁省,大连市,金州区,ARIOSEyears,金州区金马路175号开发区商场F3,39.048390000000005,121.78318999999999,购物服务;服装鞋帽皮具店;品牌服装店,B0FFIK6REW
582,ARIOSEYEARS|艾诺丝雅诗|艾诺丝·雅诗,辽宁省,朝阳市,喀喇沁左翼蒙古族自治县,ARIOSEyears,喀喇沁左翼蒙古族自治县团结路64-66号附近,41.126576,119.743743,购物服务;服装鞋帽皮具店;品牌服装店,B0FFIGJQMN
480,ARIOSEYEARS|艾诺丝雅诗|艾诺丝·雅诗,辽宁省,本溪市,本溪满族自治县,艾诺丝雅诗,本溪满族自治县小市镇华龙购物中心四楼,41.299845,124.128646,购物服务;服装鞋帽皮具店;服装鞋帽皮具店,B0FFH81NBT
254,ARIOSEYEARS|艾诺丝雅诗|艾诺丝·雅诗,辽宁省,沈阳市,新民市,艾诺丝雅诗(新民店),新民市辽河大街115号-1号,41.993728000000004,122.83066200000002,购物服务;服装鞋帽皮具店;品牌服装店,B001817GIA
255,ARIOSEYEARS|艾诺丝雅诗|艾诺丝·雅诗,辽宁省,沈阳市,苏家屯区,艾诺丝.雅诗(1克拉生活广场),苏家屯区枫杨路107号1克拉生活广场2F层2081-2082,41.657833000000004,123.33065400000001,购物服务;服装鞋帽皮具店;服装鞋帽皮具店,B0FFHITMMR
599,ARIOSEYEARS|艾诺丝雅诗|艾诺丝·雅诗,辽宁省,盘锦市,兴隆台区,艾诺丝,兴隆台区鹤舞路54号,41.127445,122.074176,购物服务;服装鞋帽皮具店;品牌服装店,B01AB0I4N7
25,ARIOSEYEARS|艾诺丝雅诗|艾诺丝·雅诗,辽宁省,营口市,站前区,艾诺丝雅诗,站前区东升路30号大润发(营口店)1层,40.676651,122.26685900000001,购物服务;服装鞋帽皮具店;服装鞋帽皮具店,B0FFG56U9D
332,ARIOSEYEARS|艾诺丝雅诗|艾诺丝·雅诗,辽宁省,葫芦岛市,建昌县,艾诺丝,建昌县建昌镇红旗街三段4号5号,40.813581,119.79924399999999,购物服务;服装鞋帽皮具店;品牌服装店,B0FFG6VIRF
386,ARIOSEYEARS|艾诺丝雅诗|艾诺丝·雅诗,辽宁省,辽阳市,文圣区,艾诺丝·雅诗(辽阳店),文圣区商业步行街与新华路交叉口西150米,41.265334,123.18305600000001,购物服务;服装鞋帽皮具店;服装鞋帽皮具店,B0FFFPKPTO
385,ARIOSEYEARS|艾诺丝雅诗|艾诺丝·雅诗,辽宁省,辽阳市,辽阳县,艾诺丝雅诗(人民街店),辽阳县人民街23号,41.217853999999996,123.07913500000001,购物服务;服装鞋帽皮具店;服装鞋帽皮具店,B0FFFPKD67
140,ARIOSEYEARS|艾诺丝雅诗|艾诺丝·雅诗,辽宁省,铁岭市,银州区,ARIOSE years,银州区南马路29号大商新玛特F1,42.298051,123.849375,购物服务;服装鞋帽皮具店;服装鞋帽皮具店,B0FFHWIDGW
576,ARIOSEYEARS|艾诺丝雅诗|艾诺丝·雅诗,辽宁省,锦州市,古塔区,艾诺丝,古塔区锦华街99号,41.119495,121.13496299999998,购物服务;购物相关场所;购物相关场所,B0FFGJPRJL
61,ARIOSEYEARS|艾诺丝雅诗|艾诺丝·雅诗,辽宁省,鞍山市,海城市,艾诺丝雅诗女装,海城市白杨北街与白杨西街交叉口西150米,40.855732,122.753798,购物服务;购物相关场所;购物相关场所,B0FFHN0BLP
166,ARIOSEYEARS|艾诺丝雅诗|艾诺丝·雅诗,重庆市,重庆市,万州区,ARIOSEYEARS,万州区新城路与高笋塘广场步行街交叉口西北150米,30.811117,108.377195,购物服务;服装鞋帽皮具店;品牌服装店,B0FFIJ41BH
165,ARIOSEYEARS|艾诺丝雅诗|艾诺丝·雅诗,重庆市,重庆市,丰都县,ARIOSEyears,丰都县平都大道东段47号附近,29.868707,107.736529,购物服务;服装鞋帽皮具店;品牌服装店,B0FFILZYL7
164,ARIOSEYEARS|艾诺丝雅诗|艾诺丝·雅诗,重庆市,重庆市,九龙坡区,ARIOSEyears,九龙坡区白华西街1号附近,29.489138,106.37076499999999,购物服务;服装鞋帽皮具店;品牌服装店,B0FFICDUK7
170,ARIOSEYEARS|艾诺丝雅诗|艾诺丝·雅诗,重庆市,重庆市,南岸区,艾诺丝,南岸区弹子石街道弹子石宏声广场,29.581128000000003,106.591829,购物服务;服装鞋帽皮具店;服装鞋帽皮具店,B0FFHCXP99
175,ARIOSEYEARS|艾诺丝雅诗|艾诺丝·雅诗,重庆市,重庆市,南岸区,ARIOSE years(回龙路),南岸区南湖路27号附85-86号,29.511508000000003,106.57153999999998,购物服务;服装鞋帽皮具店;品牌服装店,B0FFHCL1OL
176,ARIOSEYEARS|艾诺丝雅诗|艾诺丝·雅诗,重庆市,重庆市,南岸区,ARIOSE years,南岸区福红路46-附12号附近,29.537336,106.57896299999999,购物服务;服装鞋帽皮具店;服装鞋帽皮具店,B0FFI091FE
183,ARIOSEYEARS|艾诺丝雅诗|艾诺丝·雅诗,重庆市,重庆市,南岸区,ARIOSE&years(重庆南坪万达广场店),南岸区江南大道8号南坪万达广场1层,29.525863,106.569111,购物服务;服装鞋帽皮具店;品牌服装店,B0FFHJO3FF
178,ARIOSEYEARS|艾诺丝雅诗|艾诺丝·雅诗,重庆市,重庆市,大渡口区,ARIOSE years,大渡口区松青路1011号国瑞城2期B2-88号门面,29.477378,106.48110700000001,购物服务;购物相关场所;购物相关场所,B0FFIJZLPK
180,ARIOSEYEARS|艾诺丝雅诗|艾诺丝·雅诗,重庆市,重庆市,巫山县,ARIOSE years,巫山县广东中路169号,31.077187,109.88259199999999,购物服务;购物相关场所;购物相关场所,B0FFHX25L6
179,ARIOSEYEARS|艾诺丝雅诗|艾诺丝·雅诗,重庆市,重庆市,巴南区,ARIOSE&YEARS(万达广场),巴南区龙洲大道5号万达广场F1层,29.399393,106.54453799999999,购物服务;购物相关场所;购物相关场所,B0FFGCVKK3
182,ARIOSEYEARS|艾诺丝雅诗|艾诺丝·雅诗,重庆市,重庆市,彭水苗族土家族自治县,ARIOSE years,彭水苗族土家族自治县城隍巷与鼓楼街交叉口东南50米,29.289859999999997,108.16445300000001,购物服务;服装鞋帽皮具店;服装鞋帽皮具店,B0FFIN1HLY
181,ARIOSEYEARS|艾诺丝雅诗|艾诺丝·雅诗,重庆市,重庆市,武隆区,ARIOSE years武隆店,武隆区建设中路32号附5号,29.321084999999997,107.75788500000002,购物服务;购物相关场所;购物相关场所,B0FFHVRYNR
169,ARIOSEYEARS|艾诺丝雅诗|艾诺丝·雅诗,重庆市,重庆市,沙坪坝区,艾诺丝,沙坪坝区新桥正街与石新路交叉口东南100米,29.525033,106.442481,购物服务;购物相关场所;购物相关场所,B0FFG9N0O3
168,ARIOSEYEARS|艾诺丝雅诗|艾诺丝·雅诗,重庆市,重庆市,涪陵区,艾诺丝雅诗(兴华中路),涪陵区兴华中路53号附6号,29.701928999999996,107.39146399999998,购物服务;服装鞋帽皮具店;服装鞋帽皮具店,B0FFG8WS1J
167,ARIOSEYEARS|艾诺丝雅诗|艾诺丝·雅诗,重庆市,重庆市,渝北区,艾诺丝雅诗(新南路),渝北区新南路锦绣广苑旁(龙湖西苑东南200米),29.600416,106.512107,购物服务;服装鞋帽皮具店;服装鞋帽皮具店,B0FFGZVVVY
171,ARIOSEYEARS|艾诺丝雅诗|艾诺丝·雅诗,重庆市,重庆市,渝北区,艾诺丝,渝北区渝鲁大道660-2-5号附近,29.594695,106.561105,购物服务;服装鞋帽皮具店;服装鞋帽皮具店,B0FFHLT7ZI
177,ARIOSEYEARS|艾诺丝雅诗|艾诺丝·雅诗,重庆市,重庆市,渝北区,ARIOSE years,渝北区松石北路58号附26号,29.585659999999997,106.50493600000001,购物服务;购物相关场所;购物相关场所,B0FFHBV347
174,ARIOSEYEARS|艾诺丝雅诗|艾诺丝·雅诗,重庆市,重庆市,璧山区,艾诺丝,璧山区璧城街道名豪步行街(巴黎春天对面),29.588976000000002,106.228899,购物服务;购物相关场所;购物相关场所,B0FFHDA37P
172,ARIOSEYEARS|艾诺丝雅诗|艾诺丝·雅诗,重庆市,重庆市,綦江区,艾诺丝,綦江区电力街芭蒂娜旁边,29.028865000000003,106.65719399999999,购物服务;服装鞋帽皮具店;服装鞋帽皮具店,B0FFGKQPBH
173,ARIOSEYEARS|艾诺丝雅诗|艾诺丝·雅诗,重庆市,重庆市,綦江区,艾诺丝,綦江区万新路尚科·上城(广进骊都西南100米),28.963683000000003,106.928249,购物服务;服装鞋帽皮具店;服装鞋帽皮具店,B0FFGY737X
222,ARIOSEYEARS|艾诺丝雅诗|艾诺丝·雅诗,陕西省,咸阳市,秦都区,ARIOSEYEARS,秦都区玉泉中路10号万达广场一楼,34.342411,108.69116899999999,购物服务;服装鞋帽皮具店;品牌服装店,B0FFHO0C89
223,ARIOSEYEARS|艾诺丝雅诗|艾诺丝·雅诗,陕西省,咸阳市,长武县,ARIOSEyears,长武县昭仁镇新都会步行街,35.217705,107.789528,购物服务;服装鞋帽皮具店;品牌服装店,B0FFIK6ZQQ
1,ARIOSEYEARS|艾诺丝雅诗|艾诺丝·雅诗,陕西省,商洛市,柞水县,艾诺丝·雅诗(悬月路),柞水县悬月路与西新街交叉口东50米,33.683596,109.111397,购物服务;服装鞋帽皮具店;服装鞋帽皮具店,B0FFG37SCW
0,ARIOSEYEARS|艾诺丝雅诗|艾诺丝·雅诗,陕西省,商洛市,镇安县,ARIOSEyears,镇安县南新街旺夫人旁,33.423983,109.150424,购物服务;服装鞋帽皮具店;品牌服装店,B0FFIGAPX3
445,ARIOSEYEARS|艾诺丝雅诗|艾诺丝·雅诗,陕西省,安康市,旬阳县,艾诺丝,旬阳县商贸大街35号附近,32.829318,109.37160800000001,购物服务;服装鞋帽皮具店;服装鞋帽皮具店,B0FFIHGEM7
136,ARIOSEYEARS|艾诺丝雅诗|艾诺丝·雅诗,陕西省,宝鸡市,渭滨区,ARIOSEyears,渭滨区经二路50号银座购物中心F4,34.372361,107.145023,购物服务;服装鞋帽皮具店;品牌服装店,B0FFIJT654
257,ARIOSEYEARS|艾诺丝雅诗|艾诺丝·雅诗,陕西省,榆林市,神木县,艾诺丝·雅诗(神木店),神木县神木镇麟州街中段,38.8418,110.493003,购物服务;服装鞋帽皮具店;服装鞋帽皮具店,B0FFF40PJN
258,ARIOSEYEARS|艾诺丝雅诗|艾诺丝·雅诗,陕西省,榆林市,靖边县,ARIOSE years,靖边县南大街12号附近,37.594060999999996,108.80611999999999,购物服务;服装鞋帽皮具店;服装鞋帽皮具店,B0FFIUY5UK
664,ARIOSEYEARS|艾诺丝雅诗|艾诺丝·雅诗,陕西省,汉中市,城固县,ARIOSE years,城固县博望镇文化路中段成都小吃城徐歪嘴对面,33.152308000000005,107.32855500000001,购物服务;服装鞋帽皮具店;服装鞋帽皮具店,B0FFID56NU
662,ARIOSEYEARS|艾诺丝雅诗|艾诺丝·雅诗,陕西省,汉中市,汉台区,艾诺丝雅诗,汉台区劳动东路南3号格之百货F2,33.074163,107.031457,购物服务;服装鞋帽皮具店;服装鞋帽皮具店,B0FFH1JBGP
663,ARIOSEYEARS|艾诺丝雅诗|艾诺丝·雅诗,陕西省,汉中市,汉台区,艾诺丝雅诗(格之百货),汉台区五四路与劳动东路交叉口西150米格之百货F2层,33.077857,107.031015,购物服务;服装鞋帽皮具店;品牌服装店,B0FFHWVMYE
483,ARIOSEYEARS|艾诺丝雅诗|艾诺丝·雅诗,陕西省,渭南市,临渭区,ARIOSE&years,临渭区新区东路28号万达广场F1层,34.506285,109.453505,购物服务;购物相关场所;购物相关场所,B0FFHJ0SL7
482,ARIOSEYEARS|艾诺丝雅诗|艾诺丝·雅诗,陕西省,渭南市,蒲城县,艾诺丝(解放路店),蒲城县解放路与红旗路十字路口,34.955007,109.58968999999999,购物服务;服装鞋帽皮具店;服装鞋帽皮具店,B0391019Y9
618,ARIOSEYEARS|艾诺丝雅诗|艾诺丝·雅诗,陕西省,西安市,临潼区,艾诺丝(鑫龙商业步行街),临潼区姜寨北路与姜寨南路交叉口东100米,34.374339,109.21204099999999,购物服务;服装鞋帽皮具店;服装鞋帽皮具店,B0FFGJQ7I1
619,ARIOSEYEARS|艾诺丝雅诗|艾诺丝·雅诗,陕西省,西安市,周至县,艾诺丝(隆发步行街),周至县中心西街中段隆发城市广场,34.160942999999996,108.21614199999999,购物服务;服装鞋帽皮具店;服装鞋帽皮具店,B0FFFHJ089
620,ARIOSEYEARS|艾诺丝雅诗|艾诺丝·雅诗,陕西省,西安市,新城区,ARIOSE&years(万达广场),新城区解放路111号万达广场F3层,34.268412,108.96368400000001,购物服务;服装鞋帽皮具店;品牌服装店,B0FFHFE71E
621,ARIOSEYEARS|艾诺丝雅诗|艾诺丝·雅诗,陕西省,西安市,未央区,ARIOSE&years,未央区未央路33号印象城购物中心2层,34.294148,108.948241,购物服务;服装鞋帽皮具店;品牌服装店,B0FFH1DABJ
617,ARIOSEYEARS|艾诺丝雅诗|艾诺丝·雅诗,陕西省,西安市,鄠邑区,艾诺丝·雅诗(鄠邑区店),鄠邑区东街与展宏路交叉口东南50米,34.10776,108.612851,购物服务;服装鞋帽皮具店;服装鞋帽皮具店,B0FFG0MKUR
616,ARIOSEYEARS|艾诺丝雅诗|艾诺丝·雅诗,陕西省,西安市,雁塔区,艾诺丝雅诗(华东服饰广场电子正街),雁塔区电子城街道电子正街397号华东服饰广场(电子正街)1F层,34.209724,108.920718,购物服务;服装鞋帽皮具店;品牌服装店,B0FFHITFOD
467,ARIOSEYEARS|艾诺丝雅诗|艾诺丝·雅诗,陕西省,铜川市,王益区,艾诺丝,王益区红旗街正大商城三楼,35.071382,109.080417,购物服务;服装鞋帽皮具店;服装鞋帽皮具店,B0FFH93JCO
468,ARIOSEYEARS|艾诺丝雅诗|艾诺丝·雅诗,陕西省,铜川市,耀州区,艾诺丝雅诗店,耀州区新区大耀城二楼,34.89716,108.94803600000002,购物服务;购物相关场所;购物相关场所,B0FFIR2WQK
43,ARIOSEYEARS|艾诺丝雅诗|艾诺丝·雅诗,青海省,海东市,乐都区,艾诺丝,乐都区新乐大街23号,36.479240000000004,102.400547,购物服务;服装鞋帽皮具店;服装鞋帽皮具店,B0FFFWVWIO
148,ARIOSEYEARS|艾诺丝雅诗|艾诺丝·雅诗,青海省,海西蒙古族藏族自治州,格尔木市,ARIOSEyears,格尔木市八一中路华兴广场2层,36.406758,94.902652,购物服务;服装鞋帽皮具店;品牌服装店,B0FFG26W7H
233,ARIOSEYEARS|艾诺丝雅诗|艾诺丝·雅诗,青海省,西宁市,城中区,艾诺丝-雅诗,城中区饮马街37号,36.621103000000005,101.787,购物服务;购物相关场所;购物相关场所,B0FFIAOYRV
234,ARIOSEYEARS|艾诺丝雅诗|艾诺丝·雅诗,青海省,西宁市,城西区,ARIOSE&YEARS(西宁万达广场),城西区广场路1号西宁万达广场F1层,36.641698999999996,101.715542,购物服务;购物相关场所;购物相关场所,B0FFHESTBT
39,ARIOSEYEARS|艾诺丝雅诗|艾诺丝·雅诗,黑龙江省,七台河市,勃利县,ARIOSEyears,勃利县元明街道康华街东北亚商业广场旁,45.75485,130.57848,购物服务;服装鞋帽皮具店;品牌服装店,B0FFHRHEFW
64,ARIOSEYEARS|艾诺丝雅诗|艾诺丝·雅诗,黑龙江省,伊春市,伊春区,艾诺丝雅诗专柜,伊春区大商百货大楼2楼,47.727663,128.90616599999998,购物服务;购物相关场所;购物相关场所,B0FFI9QLU9
63,ARIOSEYEARS|艾诺丝雅诗|艾诺丝·雅诗,黑龙江省,伊春市,铁力市,艾诺丝雅诗,铁力市铁力镇商业大厦四楼,46.984644,128.024935,购物服务;服装鞋帽皮具店;服装鞋帽皮具店,B0FFH7806K
459,ARIOSEYEARS|艾诺丝雅诗|艾诺丝·雅诗,黑龙江省,哈尔滨市,宾县,艾诺丝雅诗专卖,宾县宾州镇远大名店购物广场一楼,45.758589,127.48673400000001,购物服务;购物相关场所;购物相关场所,B0FFI5DWRZ
458,ARIOSEYEARS|艾诺丝雅诗|艾诺丝·雅诗,黑龙江省,哈尔滨市,阿城区,艾诺丝.雅诗(达仁·印象城购物中心),阿城区会宁路312-1号达仁·印象城购物中心F2层,45.537745,126.980698,购物服务;服装鞋帽皮具店;服装鞋帽皮具店,B0FFHS9E3B
144,ARIOSEYEARS|艾诺丝雅诗|艾诺丝·雅诗,黑龙江省,大兴安岭地区,加格达奇区,艾诺丝雅诗,加格达奇区百货大楼三楼,50.423618,124.129829,购物服务;服装鞋帽皮具店;服装鞋帽皮具店,B0FFJ20REO
157,ARIOSEYEARS|艾诺丝雅诗|艾诺丝·雅诗,黑龙江省,大庆市,肇源县,ARIOSEyears,肇源县中央大街与政府大街交叉口西南50米,45.517668,125.082329,购物服务;服装鞋帽皮具店;品牌服装店,B0FFIGJT0G
158,ARIOSEYEARS|艾诺丝雅诗|艾诺丝·雅诗,黑龙江省,大庆市,萨尔图区,艾诺丝·雅诗,萨尔图区会战大街22号千盛百货2层,46.60137,125.01742,购物服务;专卖店;专营店,B0FFG2GL1G
159,ARIOSEYEARS|艾诺丝雅诗|艾诺丝·雅诗,黑龙江省,大庆市,让胡路区,艾诺丝雅诗女装,让胡路区唐人中心精致楼二楼连廊,46.635220000000004,124.88418600000001,购物服务;购物相关场所;购物相关场所,B0FFHZRYKJ
111,ARIOSEYEARS|艾诺丝雅诗|艾诺丝·雅诗,黑龙江省,牡丹江市,绥芬河市,艾诺丝雅诗,绥芬河市旭升商厦三楼,44.395981,131.163558,购物服务;服装鞋帽皮具店;服装鞋帽皮具店,B0FFIFGR73
590,ARIOSEYEARS|艾诺丝雅诗|艾诺丝·雅诗,黑龙江省,绥化市,海伦市,艾诺丝(京都购物广场西),海伦市雷炎大街425号,47.460891,126.96298200000001,购物服务;服装鞋帽皮具店;服装鞋帽皮具店,B0FFGZVZ40
484,ARIOSEYEARS|艾诺丝雅诗|艾诺丝·雅诗,黑龙江省,鸡西市,鸡冠区,艾诺丝雅诗专柜,鸡冠区新玛特中心店三楼,45.298203,130.981001,购物服务;购物相关场所;购物相关场所,B0FFGZ7FQ3
672,ARIOSEYEARS|艾诺丝雅诗|艾诺丝·雅诗,黑龙江省,黑河市,北安市,艾诺丝,北安市和平街道三道街女人屋三店,48.242301,126.512179,购物服务;服装鞋帽皮具店;服装鞋帽皮具店,B0FFH3EUR3
673,ARIOSEYEARS|艾诺丝雅诗|艾诺丝·雅诗,黑龙江省,黑河市,嫩江县,艾诺丝雅诗女装,嫩江县时代广场三楼,49.176151000000004,125.222595,购物服务;购物相关场所;购物相关场所,B0FFIY3S5G
298,ARIOSEYEARS|艾诺丝雅诗|艾诺丝·雅诗,黑龙江省,齐齐哈尔市,克东县,艾诺丝雅诗店,克东县糖酒一楼,48.035358,126.24666599999999,购物服务;购物相关场所;购物相关场所,B0FFIKNZTQ
839,SUIYUERUGE|岁月如歌,上海市,上海市,浦东新区,岁月如歌,浦东新区三林镇永泰路468弄8号901广场东2a,31.13683,121.51306000000001,购物服务;服装鞋帽皮具店;服装鞋帽皮具店,B0FFGC1BNO
864,SUIYUERUGE|岁月如歌,云南省,楚雄彝族自治州,楚雄市,岁月如歌(文联街),楚雄市文联街31号,25.032094,101.544853,购物服务;服装鞋帽皮具店;服装鞋帽皮具店,B036E146AB
900,SUIYUERUGE|岁月如歌,内蒙古自治区,包头市,昆都仑区,岁月如歌(为一购物广场东北),昆都仑区东方明珠休闲广场A区105号,40.658966,109.81821799999999,购物服务;服装鞋帽皮具店;服装鞋帽皮具店,B01D802GQO
779,SUIYUERUGE|岁月如歌,内蒙古自治区,巴彦淖尔市,乌拉特前旗,岁月如歌品牌女装,乌拉特前旗东风大街与政法路交叉口东50米,40.722823999999996,108.64692099999999,购物服务;服装鞋帽皮具店;服装鞋帽皮具店,B0FFFYZM3M
690,SUIYUERUGE|岁月如歌,内蒙古自治区,鄂尔多斯市,准格尔旗,岁月如歌,准格尔旗沙圪堵镇文化街华林商厦对面,39.643784000000004,110.884518,购物服务;服装鞋帽皮具店;服装鞋帽皮具店,B0FFG0D6DB
691,SUIYUERUGE|岁月如歌,内蒙古自治区,鄂尔多斯市,达拉特旗,岁月如歌女装,达拉特旗锡尼街21号,40.396005,110.02126799999999,购物服务;服装鞋帽皮具店;服装鞋帽皮具店,B01DD14TU7
847,SUIYUERUGE|岁月如歌,内蒙古自治区,锡林郭勒盟,多伦县,岁月如歌(多伦店),多伦县东仓路东50米,42.197825,116.479,购物服务;服装鞋帽皮具店;服装鞋帽皮具店,B01DF14B0G
749,SUIYUERUGE|岁月如歌,北京市,北京市,东城区,岁月如歌,东城区天坛东路77号诚信宾馆,39.874209,116.420891,购物服务;服装鞋帽皮具店;服装鞋帽皮具店,B0FFIG4R60
750,SUIYUERUGE|岁月如歌,北京市,北京市,东城区,岁月如歌,东城区东四六条21号梅龙香苑,39.930278,116.42340700000001,购物服务;服装鞋帽皮具店;服装鞋帽皮具店,B0FFI2Q0D1
751,SUIYUERUGE|岁月如歌,北京市,北京市,海淀区,岁月如歌,海淀区莲花池西里20号(原金色华年),39.892295000000004,116.30564,购物服务;服装鞋帽皮具店;服装鞋帽皮具店,B0FFFWAQB8
706,SUIYUERUGE|岁月如歌,四川省,乐山市,市中区,岁月如歌,市中区嘉定中路576号附近,29.57885,103.765238,购物服务;服装鞋帽皮具店;服装鞋帽皮具店,B0FFGJMX2X
851,SUIYUERUGE|岁月如歌,四川省,德阳市,广汉市,岁月如歌,广汉市高坪镇东升街17号,31.046940000000003,104.219541,购物服务;服装鞋帽皮具店;服装鞋帽皮具店,B0FFFX0346
775,SUIYUERUGE|岁月如歌,四川省,成都市,双流区,A&Y岁月如歌,双流区棠中路一段55号,30.567687,103.92052,购物服务;服装鞋帽皮具店;服装鞋帽皮具店,B001C8U333
795,SUIYUERUGE|岁月如歌,四川省,达州市,宣汉县,岁月如歌,宣汉县石岭大道244号,31.361488,107.715906,购物服务;服装鞋帽皮具店;服装鞋帽皮具店,B0FFHNS7NB
789,SUIYUERUGE|岁月如歌,四川省,遂宁市,射洪县,岁月如歌(恒业旺街店),射洪县新阳街39、41号,30.873083,105.38581,购物服务;服装鞋帽皮具店;服装鞋帽皮具店,B0FFGB6SY3
785,SUIYUERUGE|岁月如歌,安徽省,六安市,金安区,岁月如歌(商之都),金安区人民路与解放路交叉路口商之都F2层,31.757128,116.498597,购物服务;服装鞋帽皮具店;服装鞋帽皮具店,B0FFG5DCKF
716,SUIYUERUGE|岁月如歌,安徽省,合肥市,庐阳区,岁月如歌,庐阳区双岗老街五巷126号附近,31.878278,117.288625,购物服务;服装鞋帽皮具店;服装鞋帽皮具店,B0FFIHJNFG
717,SUIYUERUGE|岁月如歌,安徽省,合肥市,瑶海区,岁月如歌品牌女装店,瑶海区沁园11幢商-115号,31.868698,117.37959,购物服务;服装鞋帽皮具店;服装鞋帽皮具店,B02271804T
815,SUIYUERUGE|岁月如歌,安徽省,池州市,石台县,岁月如歌,石台县曙光西路49号,30.209898,117.48284299999999,购物服务;服装鞋帽皮具店;服装鞋帽皮具店,B0FFG0OXLE
736,SUIYUERUGE|岁月如歌,山东省,临沂市,临沭县,岁月如歌时尚精品女装,临沭县临沭街道商业步行街B栋,34.922502,118.652601,购物服务;服装鞋帽皮具店;服装鞋帽皮具店,B0FFFZQJZA
724,SUIYUERUGE|岁月如歌,山东省,济宁市,鱼台县,岁月如歌,鱼台县实验中学北门对过,34.989776,116.650967,购物服务;服装鞋帽皮具店;服装鞋帽皮具店,B0FFI70RX2
686,SUIYUERUGE|岁月如歌,山东省,淄博市,张店区,岁月如歌,张店区玉龙商街南街南100米,36.82526,118.02269,购物服务;服装鞋帽皮具店;服装鞋帽皮具店,B02150RM14
862,SUIYUERUGE|岁月如歌,山东省,潍坊市,临朐县,岁月如歌,临朐县城南街,36.506703,118.53886100000001,购物服务;服装鞋帽皮具店;服装鞋帽皮具店,B0FFHP2W5Y
759,SUIYUERUGE|岁月如歌,山西省,临汾市,乡宁县,岁月如歌,乡宁县鄂城大街20号东风购物中心2层,35.968340000000005,110.842881,购物服务;服装鞋帽皮具店;服装鞋帽皮具店,B0FFG293QY
896,SUIYUERUGE|岁月如歌,山西省,太原市,迎泽区,岁月如歌,迎泽区双塔北路与郝庄正街交叉口东北100米,37.856598999999996,112.59583899999998,购物服务;服装鞋帽皮具店;服装鞋帽皮具店,B015F16D8O
819,SUIYUERUGE|岁月如歌,山西省,忻州市,忻府区,岁月如歌,忻府区长征东街时代购物广场1层,38.41713,112.73943,购物服务;服装鞋帽皮具店;服装鞋帽皮具店,B0FFG2HAY5
799,SUIYUERUGE|岁月如歌,山西省,晋中市,太谷县,岁月如歌,太谷县南大街与南寺街交叉口西南50米,37.422160999999996,112.558647,购物服务;服装鞋帽皮具店;服装鞋帽皮具店,B0FFG0BALS
783,SUIYUERUGE|岁月如歌,山西省,运城市,永济市,岁月如歌,永济市步行街西二楼,34.867975,110.45127099999999,购物服务;服装鞋帽皮具店;服装鞋帽皮具店,B0FFHJ3JNN
889,SUIYUERUGE|岁月如歌,广东省,东莞市,东莞市,岁月如歌(海雅百货),东莞市鸿福西路曼哈顿时代83号F2层,23.017425,113.74129199999999,购物服务;服装鞋帽皮具店;服装鞋帽皮具店,B0FFF3KZ9R
767,SUIYUERUGE|岁月如歌,广东省,深圳市,宝安区,岁月如歌(岁宝百货),宝安区民主大道与松福路交汇处岁宝百货2F层,22.736313,113.79236200000001,购物服务;服装鞋帽皮具店;服装鞋帽皮具店,B0FFG27RCW
875,SUIYUERUGE|岁月如歌,新疆维吾尔自治区,昌吉回族自治州,昌吉市,岁月如歌女装店,昌吉市商城路亚中商贸广场(即黑色建筑)一楼东厅,44.009873,87.2896,购物服务;专卖店;专营店,B0FFGZ5CLU
763,SUIYUERUGE|岁月如歌,江苏省,南京市,江宁区,岁月如歌,江宁区金箔路468号富腾奥特莱斯商场2层,31.9493,118.85108999999999,购物服务;服装鞋帽皮具店;服装鞋帽皮具店,B0FFGC9CDR
688,SUIYUERUGE|岁月如歌,江苏省,常州市,钟楼区,岁月如歌,钟楼区新世纪商城b座4楼,31.78019,119.95528999999999,购物服务;服装鞋帽皮具店;服装鞋帽皮具店,B0FFGC8DZE
740,SUIYUERUGE|岁月如歌,江苏省,扬州市,江都区,岁月如歌,江都区龙城路87号(龙川广场),32.419383,119.561582,购物服务;服装鞋帽皮具店;服装鞋帽皮具店,B0FFG5CD0L
684,SUIYUERUGE|岁月如歌,江苏省,泰州市,海陵区,岁月如歌(泰州市海陵区信访局东南),海陵区打笆巷与税务桥东街交叉口北150米,32.488708,119.91939599999999,购物服务;服装鞋帽皮具店;服装鞋帽皮具店,B020B0ORIL
678,SUIYUERUGE|岁月如歌,江西省,上饶市,铅山县,岁月如歌,铅山县永平镇永平村村民委员会(永平路北),28.213952000000003,117.775107,购物服务;服装鞋帽皮具店;服装鞋帽皮具店,B0FFG019ZU
745,SUIYUERUGE|岁月如歌,江西省,吉安市,新干县,岁月如歌,新干县中山路30-2号,27.757296000000004,115.395173,购物服务;服装鞋帽皮具店;服装鞋帽皮具店,B0FFG32261
825,SUIYUERUGE|岁月如歌,江西省,抚州市,黎川县,岁月如歌(日峰商业步行街),黎川县日峰步行街12-16号,27.29192,116.91366599999999,购物服务;服装鞋帽皮具店;服装鞋帽皮具店,B0FFG02BF8
883,SUIYUERUGE|岁月如歌,江西省,萍乡市,安源区,岁月如歌,安源区昭萍东路与绿茵广场交叉口西50米,27.629797999999997,113.849709,购物服务;服装鞋帽皮具店;服装鞋帽皮具店,B0FFG8XJ08
726,SUIYUERUGE|岁月如歌,江西省,赣州市,定南县,岁月如歌(大世界路),定南县大世界路1-15号,24.773032,115.031621,购物服务;服装鞋帽皮具店;服装鞋帽皮具店,B031D0QVC2
769,SUIYUERUGE|岁月如歌,河北省,保定市,涞水县,岁月如歌,涞水县涞水镇东大街悦购物广场4楼,39.391312,115.72741200000002,购物服务;服装鞋帽皮具店;服装鞋帽皮具店,B0FFGXW9KX
781,SUIYUERUGE|岁月如歌,河北省,唐山市,古冶区,岁月如歌(腾达购物广场),古冶区新林道151号腾达购物广场F1层,39.713945,118.448508,购物服务;服装鞋帽皮具店;品牌鞋店,B0FFH1GAPJ
902,SUIYUERUGE|岁月如歌,河北省,廊坊市,广阳区,岁月如歌,广阳区新世纪步行街第四大街221号附近,39.534119,116.710848,购物服务;服装鞋帽皮具店;服装鞋帽皮具店,B0FFFOG8R8
869,SUIYUERUGE|岁月如歌,河北省,张家口市,桥西区,岁月如歌,桥西区东门大街3号凯博风尚(东门大街店)4层,40.81977,114.88206000000001,购物服务;服装鞋帽皮具店;服装鞋帽皮具店,B0FFG2E2JY
700,SUIYUERUGE|岁月如歌,河北省,承德市,滦平县,岁月如歌,滦平县中兴路街道明华商场三层,40.93119,117.33228000000001,购物服务;服装鞋帽皮具店;服装鞋帽皮具店,B0FFGZ3O8I
797,SUIYUERUGE|岁月如歌,河北省,秦皇岛市,昌黎县,岁月如歌(民生路南段),昌黎县民生路106号,39.70748,119.16693899999999,购物服务;服装鞋帽皮具店;品牌服装店,B014F0SQ7O
859,SUIYUERUGE|岁月如歌,河南省,南阳市,宛城区,岁月如歌,宛城区友谊街与广南路交叉口西北150米,32.677507,112.61296999999999,购物服务;服装鞋帽皮具店;服装鞋帽皮具店,B0FFH0K3A5
860,SUIYUERUGE|岁月如歌,河南省,南阳市,邓州市,岁月如歌,邓州市卫生路西50米,32.69122,112.08317,购物服务;服装鞋帽皮具店;服装鞋帽皮具店|生活服务;洗浴推拿场所;洗浴推拿场所,B0FFHCXD69
894,SUIYUERUGE|岁月如歌,河南省,驻马店市,泌阳县,岁月如歌,泌阳县人民路世纪商城南(体育中心东南)(泌阳县体育中心东南),32.72143,113.32786000000002,购物服务;服装鞋帽皮具店;服装鞋帽皮具店,B0FFHRAT6Z
854,SUIYUERUGE|岁月如歌,浙江省,杭州市,下城区,岁月如歌(香积寺路),下城区香积寺路107号,30.306757,120.16825,购物服务;服装鞋帽皮具店;服装鞋帽皮具店,B023B1AG0D
855,SUIYUERUGE|岁月如歌,浙江省,杭州市,余杭区,岁月如歌(凤凰山路店),余杭区余杭街道凤凰山路314号,30.266616,119.94067199999999,购物服务;服装鞋帽皮具店;服装鞋帽皮具店,B0FFG8FZ7U
853,SUIYUERUGE|岁月如歌,浙江省,杭州市,建德市,岁月如歌,建德市康乐路8号,29.472486,119.275131,购物服务;服装鞋帽皮具店;服装鞋帽皮具店|生活服务;美容美发店;美容美发店,B023B1AUYT
698,SUIYUERUGE|岁月如歌,浙江省,衢州市,开化县,岁月如歌,开化县华埠镇兴华街120号,29.015094,118.355407,购物服务;服装鞋帽皮具店;服装鞋帽皮具店,B0FFFYUUJU
710,SUIYUERUGE|岁月如歌,浙江省,金华市,义乌市,SUIYUERUGE,义乌市稠城街道工人西路15号银泰百货(义乌伊美店)3层,29.307819,120.07455,购物服务;专卖店;专营店,B0FFG1TG85
714,SUIYUERUGE|岁月如歌,浙江省,金华市,兰溪市,岁月如歌(嘉泰新时代广场),兰溪市兰江街道丹溪大道157号嘉泰新时代广场F2层,29.213638,119.451792,购物服务;服装鞋帽皮具店;品牌鞋店,B0FFH1JZWT
711,SUIYUERUGE|岁月如歌,浙江省,金华市,婺城区,岁月如歌(银泰百货金华店),婺城区解放东路168号银泰百货f3层,29.10391,119.65361000000001,购物服务;服装鞋帽皮具店;服装鞋帽皮具店,B0FFF5YS82
712,SUIYUERUGE|岁月如歌,浙江省,金华市,婺城区,岁月如歌(银泰百货金华江南店),婺城区宾虹路777号F2层,29.083519,119.64927,购物服务;服装鞋帽皮具店;品牌服装店,B0FFF5YS84
713,SUIYUERUGE|岁月如歌,浙江省,金华市,婺城区,岁月如歌(银泰百货金华福华店),婺城区八一北街88号银泰百货福华店2楼,29.100206,119.64896,购物服务;服装鞋帽皮具店;服装鞋帽皮具店,B0FFG9E1F7
715,SUIYUERUGE|岁月如歌,浙江省,金华市,永康市,岁月如歌专柜,永康市太平洋南龙百货西城大司巷28号2楼,28.897375,120.02912099999999,购物服务;专卖店;专营店,B0FFGBRZAD
757,SUIYUERUGE|岁月如歌,湖北省,十堰市,竹山县,岁月如歌,竹山县044乡道与305省道交叉口南150米,32.294717,110.037948,购物服务;服装鞋帽皮具店;服装鞋帽皮具店,B0FFI2NDYF
758,SUIYUERUGE|岁月如歌,湖北省,十堰市,竹溪县,岁月如歌,竹溪县宾馆路64号附近,32.315728,109.718442,购物服务;服装鞋帽皮具店;服装鞋帽皮具店,B0FFGZQNLD
747,SUIYUERUGE|岁月如歌,湖北省,咸宁市,通城县,岁月如歌(民主路),通城县宾阳门街与民主路交叉口西南50米,29.243757000000002,113.814953,购物服务;服装鞋帽皮具店;服装鞋帽皮具店,B02CB009TX
728,SUIYUERUGE|岁月如歌,湖北省,恩施土家族苗族自治州,咸丰县,岁月如歌,咸丰县沿河路13号,29.680157,109.15323300000001,购物服务;服装鞋帽皮具店;服装鞋帽皮具店,B0FFG9A14D
697,SUIYUERUGE|岁月如歌,湖北省,武汉市,洪山区,岁月如歌(东一路店),洪山区珞瑜路1037号华中科技大学,30.516659000000004,114.414653,购物服务;服装鞋帽皮具店;服装鞋帽皮具店,B0FFG03CR5
696,SUIYUERUGE|岁月如歌,湖北省,武汉市,黄陂区,岁月如歌(黄陂店),黄陂区前川双凤大道601号(近金都丽园),30.873653000000004,114.37530600000001,购物服务;服装鞋帽皮具店;服装鞋帽皮具店,B0FFFGMXXG
708,SUIYUERUGE|岁月如歌,湖北省,鄂州市,华容区,岁月如歌(二分店),华容区葛店经济开发区葛店镇葛洪大道144号,30.531913,114.636353,购物服务;服装鞋帽皮具店;服装鞋帽皮具店,B0FFFY44GG
824,SUIYUERUGE|岁月如歌,湖北省,黄冈市,武穴市,岁月如歌(翡翠家园步行街),武穴市民主路与永宁大道交叉口东南100米,29.84726,115.56178100000001,购物服务;服装鞋帽皮具店;服装鞋帽皮具店,B0FFG02037
823,SUIYUERUGE|岁月如歌,湖北省,黄冈市,浠水县,岁月如歌,浠水县新华正街与新华私营经济街交叉口西南150米,30.453848999999998,115.264645,购物服务;服装鞋帽皮具店;服装鞋帽皮具店,B0FFFWWMLJ
837,SUIYUERUGE|岁月如歌,湖北省,黄石市,大冶市,岁月如歌,大冶市大冶大道50-7号,30.088075,114.969357,购物服务;服装鞋帽皮具店;服装鞋帽皮具店,B0FFG0P013
738,SUIYUERUGE|岁月如歌,湖南省,常德市,汉寿县,岁月如歌,汉寿县龙阳镇岩下荣祺食品有限公司,28.927013,111.95526100000001,购物服务;服装鞋帽皮具店;服装鞋帽皮具店,B0FFINONL3
833,SUIYUERUGE|岁月如歌,甘肃省,嘉峪关市,嘉峪关市,岁月如歌,嘉峪关市新华南路38-1号附近,39.776436,98.28361,购物服务;专卖店;专营店,B0FFFE0VPV
807,SUIYUERUGE|岁月如歌,甘肃省,庆阳市,华池县,岁月如歌(华池店),华池县柔远镇中街良源饭店楼下,36.459136,107.987916,购物服务;服装鞋帽皮具店;服装鞋帽皮具店,B0FFFP39ZA
821,SUIYUERUGE|岁月如歌,福建省,三明市,尤溪县,岁月如歌,尤溪县汤川乡卫生院旁,26.118429000000003,118.435157,购物服务;服装鞋帽皮具店;服装鞋帽皮具店,B0FFHMU7O5
879,SUIYUERUGE|岁月如歌,福建省,漳州市,华安县,岁月如歌,华安县靖安路3附近,25.001457000000002,117.53698999999999,购物服务;服装鞋帽皮具店;服装鞋帽皮具店,B0FFG0OEN9
718,SUIYUERUGE|岁月如歌,贵州省,六盘水市,盘州市,岁月如歌,盘州市竹海东路10,25.698031,104.470205,购物服务;服装鞋帽皮具店;服装鞋帽皮具店,B0FFFGLVVU
791,SUIYUERUGE|岁月如歌,辽宁省,葫芦岛市,绥中县,岁月如歌,绥中县东市胡同与中央路交叉口东北100米,40.332062,120.341151,购物服务;服装鞋帽皮具店;服装鞋帽皮具店,B0FFG2B17G
720,SUIYUERUGE|岁月如歌,辽宁省,铁岭市,银州区,岁月如歌,银州区广裕街新都太平洋购物中心2层,42.293665999999995,123.846198,购物服务;服装鞋帽皮具店;服装鞋帽皮具店,B0FFFR8A8S
732,SUIYUERUGE|岁月如歌,重庆市,重庆市,九龙坡区,岁月如歌(杨家坪横街),九龙坡区团结路铁马综合市场107号附近,29.508552,106.51613799999998,体育休闲服务;娱乐场所;KTV|购物服务;服装鞋帽皮具店;服装鞋帽皮具店,B0FFG652IA
733,SUIYUERUGE|岁月如歌,重庆市,重庆市,巴南区,岁月如歌(下河路),巴南区下河路与巴县大道交叉口北,29.382894,106.521091,购物服务;服装鞋帽皮具店;服装鞋帽皮具店,B0FFG7D8DO
755,SUIYUERUGE|岁月如歌,陕西省,咸阳市,三原县,岁月如歌服装店,三原县苏宁电器楼下,34.61553,108.93433,购物服务;服装鞋帽皮具店;服装鞋帽皮具店,B038E0OO5H
831,SUIYUERUGE|岁月如歌,陕西省,安康市,平利县,岁月如歌,平利县城关镇新正街广伟商城1楼,32.38961,109.35893,购物服务;服装鞋帽皮具店;服装鞋帽皮具店,B0FFGK5683
849,SUIYUERUGE|岁月如歌,陕西省,延安市,甘泉县,岁月如歌,甘泉县北关街94号,36.28256,109.34943999999999,购物服务;服装鞋帽皮具店;服装鞋帽皮具店,B038F0OMK8
843,SUIYUERUGE|岁月如歌,陕西省,渭南市,华州区,岁月如歌(清华步行街),华州区华州镇华县步行街商铺,34.508696,109.765397,购物服务;服装鞋帽皮具店;品牌服装店,B03910N2NN
892,SUIYUERUGE|岁月如歌,陕西省,西安市,未央区,岁月如歌,未央区未央大道与凤城2号天地时代广场B1层,34.318253999999996,108.948,购物服务;服装鞋帽皮具店;服装鞋帽皮具店,B0FFG2018V
891,SUIYUERUGE|岁月如歌,陕西省,西安市,碑林区,岁月如歌,碑林区竹笆市中环广长B座二楼,34.258013,108.943317,购物服务;服装鞋帽皮具店;服装鞋帽皮具店,B0FFHP25BU
893,SUIYUERUGE|岁月如歌,陕西省,西安市,长安区,岁月如歌,长安区长百新市购物广场对面太阳新街,34.16225,108.93148000000001,购物服务;服装鞋帽皮具店;服装鞋帽皮具店,B001D0ZW0V
835,SUIYUERUGE|岁月如歌,陕西省,铜川市,耀州区,岁月如歌(鼎尚购物中心),耀州区步寿路中国建设银行旁鼎尚购物中心F3层,34.915027,108.978578,购物服务;服装鞋帽皮具店;服装鞋帽皮具店,B0FFG23JJO
