,brand,province,city,area,name,address,lat,lng,Type,id
0,YoungLining|李宁童装|李宁儿童,安徽省,淮南市,田家庵区,李宁儿童,田家庵区朝阳街道人民南路318号淮南百大四楼,32.646490,117.019660,购物服务;专卖店;儿童用品店,B0FFHDCULK
1,YoungLining|李宁童装|李宁儿童,安徽省,淮南市,田家庵区,李宁儿童,田家庵区朝阳街道人民南路318号淮南百大四楼,32.646490,117.019660,购物服务;专卖店;儿童用品店,B0FFHDCULK
2,YoungLining|李宁童装|李宁儿童,湖北省,宜昌市,伍家岗区,李宁,伍家岗区桔城路国贸新天地,30.648274,111.361226,购物服务;专卖店;儿童用品店,B0FFHNWL20
3,YoungLining|李宁童装|李宁儿童,湖北省,宜昌市,伍家岗区,李宁,伍家岗区桔城路国贸新天地,30.648274,111.361226,购物服务;专卖店;儿童用品店,B0FFHNWL20
4,YoungLining|李宁童装|李宁儿童,浙江省,丽水市,莲都区,小李宁童装,莲都区花园路万地广场三楼,28.462225,119.924537,购物服务;购物相关场所;购物相关场所,B0FFHLNPGX
5,YoungLining|李宁童装|李宁儿童,浙江省,丽水市,莲都区,小李宁童装,莲都区花园路万地广场三楼,28.462225,119.924537,购物服务;购物相关场所;购物相关场所,B0FFHLNPGX
6,YoungLining|李宁童装|李宁儿童,浙江省,金华市,婺城区,李宁青少年,婺城区解放东路168号银泰城F6,29.103534,119.653961,购物服务;专卖店;专营店,B0FFIL64SU
7,YoungLining|李宁童装|李宁儿童,浙江省,金华市,婺城区,李宁青少年,婺城区解放东路168号银泰城F6,29.103534,119.653961,购物服务;专卖店;专营店,B0FFIL64SU
8,YoungLining|李宁童装|李宁儿童,贵州省,铜仁市,德江县,卡通欢乐岛童装屋,德江县玉水街道城南步行街B栋一楼李宁隔壁,28.255306,108.120736,购物服务;专卖店;儿童用品店,B0FFG3MC46
9,YoungLining|李宁童装|李宁儿童,贵州省,铜仁市,德江县,卡通欢乐岛童装屋,德江县玉水街道城南步行街B栋一楼李宁隔壁,28.255306,108.120736,购物服务;专卖店;儿童用品店,B0FFG3MC46
10,YoungLining|李宁童装|李宁儿童,云南省,玉溪市,澄江县,李宁,澄江县振兴路42号,24.668073,102.913071,购物服务;体育用品店;李宁专卖店,B0FFHBZ8C3
11,YoungLining|李宁童装|李宁儿童,云南省,玉溪市,红塔区,李宁童装店,红塔区北苑路41一1号,24.364512,102.553199,购物服务;专卖店;专营店,B0FFI0XXDU
12,YoungLining|李宁童装|李宁儿童,云南省,玉溪市,澄江县,李宁,澄江县振兴路42号,24.668073,102.913071,购物服务;体育用品店;李宁专卖店,B0FFHBZ8C3
13,YoungLining|李宁童装|李宁儿童,云南省,玉溪市,红塔区,李宁童装店,红塔区北苑路41一1号,24.364512,102.553199,购物服务;专卖店;专营店,B0FFI0XXDU
14,YoungLining|李宁童装|李宁儿童,山东省,泰安市,泰山区,李宁童装,泰山区岱庙街道通天街43号,36.189136,117.131963,购物服务;体育用品店;李宁专卖店,B0FFI5JG5P
15,YoungLining|李宁童装|李宁儿童,山东省,泰安市,泰山区,李宁童装,泰山区岱庙街道通天街43号,36.189136,117.131963,购物服务;体育用品店;李宁专卖店,B0FFI5JG5P
16,YoungLining|李宁童装|李宁儿童,湖南省,郴州市,北湖区,李宁(国庆北路店),北湖区郴州兴隆步行街16号门面,25.798759,113.031330,购物服务;体育用品店;李宁专卖店,B02DF0006G
17,YoungLining|李宁童装|李宁儿童,湖南省,郴州市,北湖区,李宁(国庆北路店),北湖区郴州兴隆步行街16号门面,25.798759,113.031330,购物服务;体育用品店;李宁专卖店,B02DF0006G
18,YoungLining|李宁童装|李宁儿童,河南省,鹤壁市,淇滨区,李宁童装,淇滨区九州路街道兴鹤大街爱之城四楼,35.732710,114.292805,购物服务;体育用品店;李宁专卖店,B0FFGA47JR
19,YoungLining|李宁童装|李宁儿童,河南省,鹤壁市,淇滨区,李宁童装,淇滨区九州路街道兴鹤大街爱之城四楼,35.732710,114.292805,购物服务;体育用品店;李宁专卖店,B0FFGA47JR
20,YoungLining|李宁童装|李宁儿童,陕西省,榆林市,榆阳区,李宁(榆林市生产力促进中心东南),榆阳区常乐路140号,38.287761,109.735618,购物服务;体育用品店;李宁专卖店,B03900NK8E
21,YoungLining|李宁童装|李宁儿童,陕西省,榆林市,榆阳区,李宁(新建南路),榆阳区新建南路159号,38.288051,109.754249,购物服务;体育用品店;李宁专卖店,B0FFF2SU5N
22,YoungLining|李宁童装|李宁儿童,陕西省,榆林市,榆阳区,kids,榆阳区常乐路139号,38.286536,109.736240,购物服务;服装鞋帽皮具店;服装鞋帽皮具店,B0FFH7QE68
23,YoungLining|李宁童装|李宁儿童,陕西省,榆林市,榆阳区,李宁(榆林市生产力促进中心东南),榆阳区常乐路140号,38.287761,109.735618,购物服务;体育用品店;李宁专卖店,B03900NK8E
24,YoungLining|李宁童装|李宁儿童,陕西省,榆林市,榆阳区,李宁(新建南路),榆阳区新建南路159号,38.288051,109.754249,购物服务;体育用品店;李宁专卖店,B0FFF2SU5N
25,YoungLining|李宁童装|李宁儿童,陕西省,榆林市,榆阳区,kids,榆阳区常乐路139号,38.286536,109.736240,购物服务;服装鞋帽皮具店;服装鞋帽皮具店,B0FFH7QE68
26,YoungLining|李宁童装|李宁儿童,新疆维吾尔自治区,克拉玛依市,独山子区,李宁童装,独山子区金盛百货四楼,44.326054,84.868446,购物服务;体育用品店;李宁专卖店,B0FFILETJ0
27,YoungLining|李宁童装|李宁儿童,新疆维吾尔自治区,克拉玛依市,独山子区,李宁童装,独山子区金盛百货四楼,44.326054,84.868446,购物服务;体育用品店;李宁专卖店,B0FFILETJ0
28,YoungLining|李宁童装|李宁儿童,新疆维吾尔自治区,巴音郭楞蒙古自治州,库尔勒市,李宁,库尔勒市人民东路天百商场三楼,41.770293,86.160495,购物服务;体育用品店;李宁专卖店,B0FFHJTNMJ
29,YoungLining|李宁童装|李宁儿童,新疆维吾尔自治区,巴音郭楞蒙古自治州,库尔勒市,李宁,库尔勒市人民东路天百商场三楼,41.770293,86.160495,购物服务;体育用品店;李宁专卖店,B0FFHJTNMJ
30,YoungLining|李宁童装|李宁儿童,内蒙古自治区,乌兰察布市,集宁区,李宁儿童,集宁区恩和大街14号附近,41.035051,113.115034,购物服务;购物相关场所;购物相关场所,B0FFHQLSOZ
31,YoungLining|李宁童装|李宁儿童,内蒙古自治区,乌兰察布市,集宁区,李宁儿童,集宁区恩和大街14号附近,41.035051,113.115034,购物服务;购物相关场所;购物相关场所,B0FFHQLSOZ
32,YoungLining|李宁童装|李宁儿童,山东省,临沂市,兰山区,LI-NING(九州商业大厦),兰山区解放路183号九州商业大厦F5层,35.067064,118.332856,购物服务;体育用品店;李宁专卖店,B0FFF6O57R
33,YoungLining|李宁童装|李宁儿童,山东省,临沂市,兰山区,安踏儿童,兰山区兰山街道解放路与通达路交汇和谐广场2楼,35.066620,118.327245,购物服务;专卖店;儿童用品店,B0FFHIPZLI
34,YoungLining|李宁童装|李宁儿童,山东省,临沂市,兰山区,LI-NING(九州商业大厦),兰山区解放路183号九州商业大厦F5层,35.067064,118.332856,购物服务;体育用品店;李宁专卖店,B0FFF6O57R
35,YoungLining|李宁童装|李宁儿童,山东省,临沂市,兰山区,安踏儿童,兰山区兰山街道解放路与通达路交汇和谐广场2楼,35.066620,118.327245,购物服务;专卖店;儿童用品店,B0FFHIPZLI
36,YoungLining|李宁童装|李宁儿童,辽宁省,本溪市,平山区,李宁童装,平山区永丰商业区华联街1号华联商厦8楼,41.291134,123.760895,购物服务;体育用品店;李宁专卖店,B0FFJ36IPI
37,YoungLining|李宁童装|李宁儿童,辽宁省,本溪市,平山区,李宁童装,平山区永丰商业区华联街1号华联商厦8楼,41.291134,123.760895,购物服务;体育用品店;李宁专卖店,B0FFJ36IPI
38,YoungLining|李宁童装|李宁儿童,吉林省,通化市,东昌区,李宁国际穿线,东昌区新华大街70号,41.726980,125.939785,购物服务;购物相关场所;购物相关场所,B0FFHYKR6F
39,YoungLining|李宁童装|李宁儿童,吉林省,通化市,东昌区,李宁国际穿线,东昌区新华大街70号,41.726980,125.939785,购物服务;购物相关场所;购物相关场所,B0FFHYKR6F
40,YoungLining|李宁童装|李宁儿童,四川省,乐山市,市中区,李宁(东大街店),市中区东大街与玉堂街交叉口东南50米,29.553930,103.765971,购物服务;体育用品店;李宁专卖店,B034102WSL
41,YoungLining|李宁童装|李宁儿童,四川省,乐山市,市中区,李宁(东大街店),市中区东大街与玉堂街交叉口东南50米,29.553930,103.765971,购物服务;体育用品店;李宁专卖店,B034102WSL
42,YoungLining|李宁童装|李宁儿童,浙江省,杭州市,萧山区,李宁(峙山东路),萧山区临浦镇峙山北路107号,30.039405,120.249507,购物服务;体育用品店;李宁专卖店,B023B1AFZU
43,YoungLining|李宁童装|李宁儿童,浙江省,杭州市,萧山区,李宁(人民路),萧山区人民路221之4-5号(近城河街),30.160017,120.272917,购物服务;体育用品店;李宁专卖店,B0FFG6EW0E
44,YoungLining|李宁童装|李宁儿童,浙江省,杭州市,萧山区,李宁(峙山东路),萧山区临浦镇峙山北路107号,30.039405,120.249507,购物服务;体育用品店;李宁专卖店,B023B1AFZU
45,YoungLining|李宁童装|李宁儿童,浙江省,杭州市,萧山区,李宁(人民路),萧山区人民路221之4-5号(近城河街),30.160017,120.272917,购物服务;体育用品店;李宁专卖店,B0FFG6EW0E
46,YoungLining|李宁童装|李宁儿童,辽宁省,葫芦岛市,连山区,李宁(宏运·商厦南),连山区中央大街9号宏运百货二楼,40.755999,120.860569,购物服务;体育用品店;李宁专卖店,B0FFHMVRZ4
47,YoungLining|李宁童装|李宁儿童,辽宁省,葫芦岛市,连山区,李宁(宏运·商厦南),连山区中央大街9号宏运百货二楼,40.755999,120.860569,购物服务;体育用品店;李宁专卖店,B0FFHMVRZ4
48,YoungLining|李宁童装|李宁儿童,安徽省,六安市,金寨县,李宁童装,金寨县梅山镇江店晥润大厦联家超市三楼,31.728176,115.941307,购物服务;体育用品店;李宁专卖店,B0FFIBUEZS
49,YoungLining|李宁童装|李宁儿童,安徽省,六安市,金寨县,李宁童装,金寨县梅山镇江店晥润大厦联家超市三楼,31.728176,115.941307,购物服务;体育用品店;李宁专卖店,B0FFIBUEZS
50,YoungLining|李宁童装|李宁儿童,四川省,南充市,顺庆区,李宁儿童,顺庆区赛场街26楼附近,30.794344,106.088484,购物服务;专卖店;儿童用品店,B0FFID9U38
51,YoungLining|李宁童装|李宁儿童,四川省,南充市,顺庆区,李宁儿童,顺庆区赛场街26楼附近,30.794344,106.088484,购物服务;专卖店;儿童用品店,B0FFID9U38
52,YoungLining|李宁童装|李宁儿童,甘肃省,平凉市,崆峒区,李宁童装,崆峒区新世纪商厦A座三楼,35.536659,106.689223,购物服务;体育用品店;李宁专卖店,B0FFIZFVIL
53,YoungLining|李宁童装|李宁儿童,甘肃省,平凉市,崆峒区,李宁童装,崆峒区新世纪商厦A座三楼,35.536659,106.689223,购物服务;体育用品店;李宁专卖店,B0FFIZFVIL
54,YoungLining|李宁童装|李宁儿童,山东省,威海市,环翠区,李宁儿童,环翠区高区文化西路166号利群威海购物广场2楼,37.527517,122.065286,购物服务;体育用品店;李宁专卖店,B0FFGBRO6B
55,YoungLining|李宁童装|李宁儿童,山东省,威海市,环翠区,李宁,环翠区文化西路166号利群集团威海购物广场F2,37.527517,122.065286,购物服务;体育用品店;李宁专卖店,B0FFHTZGCE
56,YoungLining|李宁童装|李宁儿童,山东省,威海市,环翠区,李宁,环翠区新威路89号振华商厦六楼,37.500225,122.123704,购物服务;体育用品店;李宁专卖店,B0FFF333ZE
57,YoungLining|李宁童装|李宁儿童,山东省,威海市,环翠区,李宁儿童,环翠区高区文化西路166号利群威海购物广场2楼,37.527517,122.065286,购物服务;体育用品店;李宁专卖店,B0FFGBRO6B
58,YoungLining|李宁童装|李宁儿童,山东省,威海市,环翠区,李宁,环翠区文化西路166号利群集团威海购物广场F2,37.527517,122.065286,购物服务;体育用品店;李宁专卖店,B0FFHTZGCE
59,YoungLining|李宁童装|李宁儿童,山东省,威海市,环翠区,李宁,环翠区新威路89号振华商厦六楼,37.500225,122.123704,购物服务;体育用品店;李宁专卖店,B0FFF333ZE
60,YoungLining|李宁童装|李宁儿童,宁夏回族自治区,石嘴山市,大武口区,李宁(贺兰山商厦店),大武口区人民路街道贺兰山南路贺兰山商业大楼三楼,39.015800,106.377951,购物服务;体育用品店;李宁专卖店,B0FFH9SMA1
61,YoungLining|李宁童装|李宁儿童,宁夏回族自治区,石嘴山市,大武口区,李宁(贺兰山商厦店),大武口区人民路街道贺兰山南路贺兰山商业大楼三楼,39.015800,106.377951,购物服务;体育用品店;李宁专卖店,B0FFH9SMA1
62,YoungLining|李宁童装|李宁儿童,湖南省,益阳市,赫山区,李宁童装,赫山区桃花仑西路616号,28.579957,112.353973,购物服务;体育用品店;李宁专卖店,B02E1005TY
63,YoungLining|李宁童装|李宁儿童,湖南省,益阳市,赫山区,李宁童装,赫山区桃花仑西路616号,28.579957,112.353973,购物服务;体育用品店;李宁专卖店,B02E1005TY
64,YoungLining|李宁童装|李宁儿童,湖南省,株洲市,天元区,李宁KIDS,天元区天台路27号附近,27.824934,113.130902,购物服务;专卖店;儿童用品店,B0FFHUV60M
65,YoungLining|李宁童装|李宁儿童,湖南省,株洲市,天元区,李宁KIDS,天元区天台路27号附近,27.824934,113.130902,购物服务;专卖店;儿童用品店,B0FFHUV60M
66,YoungLining|李宁童装|李宁儿童,内蒙古自治区,鄂尔多斯市,乌审旗,李宁童装,乌审旗巴音路与萨拉乌苏街交叉口东南100米,38.598863,108.845594,购物服务;体育用品店;李宁专卖店,B0FFHG7A40
67,YoungLining|李宁童装|李宁儿童,内蒙古自治区,鄂尔多斯市,东胜区,李宁,东胜区鄂尔多斯东街2号北国新天地F3层,39.812984,110.004755,购物服务;体育用品店;李宁专卖店,B0FFHW8K5S
68,YoungLining|李宁童装|李宁儿童,内蒙古自治区,鄂尔多斯市,乌审旗,李宁童装,乌审旗巴音路与萨拉乌苏街交叉口东南100米,38.598863,108.845594,购物服务;体育用品店;李宁专卖店,B0FFHG7A40
69,YoungLining|李宁童装|李宁儿童,内蒙古自治区,鄂尔多斯市,东胜区,李宁,东胜区鄂尔多斯东街2号北国新天地F3层,39.812984,110.004755,购物服务;体育用品店;李宁专卖店,B0FFHW8K5S
70,YoungLining|李宁童装|李宁儿童,河北省,廊坊市,固安县,李宁,固安县宝德购物中心3层,39.438509,116.313553,购物服务;专卖店;儿童用品店,B0FFHQP0Z3
71,YoungLining|李宁童装|李宁儿童,河北省,廊坊市,大城县,小李宁童装,大城县平舒镇明珠大厦4楼,38.696995,116.645973,购物服务;专卖店;儿童用品店,B0FFIJOPDF
72,YoungLining|李宁童装|李宁儿童,河北省,廊坊市,固安县,李宁,固安县宝德购物中心3层,39.438509,116.313553,购物服务;专卖店;儿童用品店,B0FFHQP0Z3
73,YoungLining|李宁童装|李宁儿童,河北省,廊坊市,大城县,小李宁童装,大城县平舒镇明珠大厦4楼,38.696995,116.645973,购物服务;专卖店;儿童用品店,B0FFIJOPDF
74,YoungLining|李宁童装|李宁儿童,新疆维吾尔自治区,乌鲁木齐市,天山区,李宁KIDS,天山区解放北路116号王府井百货5楼,43.797794,87.622094,购物服务;专卖店;儿童用品店,B0FFG1N4R5
75,YoungLining|李宁童装|李宁儿童,新疆维吾尔自治区,乌鲁木齐市,天山区,李宁KIDS,天山区解放北路116号王府井百货5楼,43.797794,87.622094,购物服务;专卖店;儿童用品店,B0FFG1N4R5
76,YoungLining|李宁童装|李宁儿童,山西省,临汾市,尧都区,李宁(生龙国际时尚广场),尧都区解放西路31号生龙国际时尚广场7F层,36.084742,111.523121,购物服务;专卖店;儿童用品店|购物服务;体育用品店;李宁专卖店,B01650WFBD
77,YoungLining|李宁童装|李宁儿童,山西省,临汾市,尧都区,李宁(生龙国际时尚广场),尧都区解放西路31号生龙国际时尚广场7F层,36.084742,111.523121,购物服务;专卖店;儿童用品店|购物服务;体育用品店;李宁专卖店,B01650WFBD
78,YoungLining|李宁童装|李宁儿童,内蒙古自治区,呼和浩特市,新城区,李宁专柜,新城区昭乌达路亿乐儿童商场,40.821381,111.690269,购物服务;购物相关场所;购物相关场所,B0FFI0OBYF
79,YoungLining|李宁童装|李宁儿童,内蒙古自治区,呼和浩特市,新城区,李宁专柜,新城区昭乌达路亿乐儿童商场,40.821381,111.690269,购物服务;购物相关场所;购物相关场所,B0FFI0OBYF
80,YoungLining|李宁童装|李宁儿童,山东省,德州市,德城区,李宁,德城区东风中路1537号华联商厦F5,37.443047,116.293140,购物服务;体育用品店;李宁专卖店,B0FFHU427I
81,YoungLining|李宁童装|李宁儿童,山东省,德州市,德城区,李宁,德城区东风中路1537号华联商厦F5,37.443047,116.293140,购物服务;体育用品店;李宁专卖店,B0FFHU427I
82,YoungLining|李宁童装|李宁儿童,河北省,秦皇岛市,海港区,李宁(二楼工厂店),海港区河北大街146号茂业百货F5,39.931657,119.604279,购物服务;专卖店;儿童用品店,B0FFH3YCU2
83,YoungLining|李宁童装|李宁儿童,河北省,秦皇岛市,海港区,李宁(二楼工厂店),海港区河北大街146号茂业百货F5,39.931657,119.604279,购物服务;专卖店;儿童用品店,B0FFH3YCU2
84,YoungLining|李宁童装|李宁儿童,辽宁省,大连市,甘井子区,LI-NING(安盛购物广场),甘井子区中华西路22号安盛购物广场F2层,38.989019,121.590136,购物服务;体育用品店;李宁专卖店,B0FFHTNVKU
85,YoungLining|李宁童装|李宁儿童,辽宁省,大连市,甘井子区,LI-NING(安盛购物广场),甘井子区中华西路22号安盛购物广场F2层,38.989019,121.590136,购物服务;体育用品店;李宁专卖店,B0FFHTNVKU
86,YoungLining|李宁童装|李宁儿童,广西壮族自治区,贵港市,港北区,李宁儿童(步步高购物广场贵港店),港北区建设路与解放路交叉口贵港步步高购物广场3层,23.090358,109.607898,购物服务;专卖店;儿童用品店,B0FFIORPVW
87,YoungLining|李宁童装|李宁儿童,广西壮族自治区,贵港市,港北区,李宁儿童(步步高购物广场贵港店),港北区建设路与解放路交叉口贵港步步高购物广场3层,23.090358,109.607898,购物服务;专卖店;儿童用品店,B0FFIORPVW
88,YoungLining|李宁童装|李宁儿童,黑龙江省,佳木斯市,前进区,李宁(中山路93号店),前进区中山路93号,46.814273,130.365905,购物服务;体育用品店;李宁专卖店,B0FFFP6MMM
89,YoungLining|李宁童装|李宁儿童,黑龙江省,佳木斯市,前进区,李宁(中山路93号店),前进区中山路93号,46.814273,130.365905,购物服务;体育用品店;李宁专卖店,B0FFFP6MMM
90,YoungLining|李宁童装|李宁儿童,湖南省,怀化市,沅陵县,李宁(辰州西街店),沅陵县沅陵镇品龙佳慧超市对面社保局旁,28.454971,110.400337,购物服务;体育用品店;李宁专卖店,B02E903KJ1
91,YoungLining|李宁童装|李宁儿童,湖南省,怀化市,沅陵县,李宁(辰州西街店),沅陵县沅陵镇品龙佳慧超市对面社保局旁,28.454971,110.400337,购物服务;体育用品店;李宁专卖店,B02E903KJ1
92,YoungLining|李宁童装|李宁儿童,四川省,成都市,双流区,李宁童装,双流区双楠大道五段东200米,30.598746,103.893613,购物服务;购物相关场所;购物相关场所,B0FFHOYHJ0
93,YoungLining|李宁童装|李宁儿童,四川省,成都市,成华区,李宁儿童(SM购物广场),成华区二环路东二段29号SM购物广场F2层,30.667917,104.112772,购物服务;专卖店;儿童用品店,B0FFHITL9F
94,YoungLining|李宁童装|李宁儿童,四川省,成都市,金堂县,李宁(成都金堂万达广场店),金堂县金堂万达广场1号门,30.852909,104.416127,购物服务;购物相关场所;购物相关场所,B0FFIPF40D
95,YoungLining|李宁童装|李宁儿童,四川省,成都市,成华区,LI NING(财富又一城购物中心),成华区府青路二段2号财富又一城购物中心B1层,30.677800,104.095077,购物服务;服装鞋帽皮具店;品牌服装店,B001C90LBN
96,YoungLining|李宁童装|李宁儿童,四川省,成都市,双流区,李宁童装,双流区双楠大道五段东200米,30.598746,103.893613,购物服务;购物相关场所;购物相关场所,B0FFHOYHJ0
97,YoungLining|李宁童装|李宁儿童,四川省,成都市,成华区,李宁儿童(SM购物广场),成华区二环路东二段29号SM购物广场F2层,30.667917,104.112772,购物服务;专卖店;儿童用品店,B0FFHITL9F
98,YoungLining|李宁童装|李宁儿童,四川省,成都市,金堂县,李宁(成都金堂万达广场店),金堂县金堂万达广场1号门,30.852909,104.416127,购物服务;购物相关场所;购物相关场所,B0FFIPF40D
99,YoungLining|李宁童装|李宁儿童,四川省,成都市,成华区,LI NING(财富又一城购物中心),成华区府青路二段2号财富又一城购物中心B1层,30.677800,104.095077,购物服务;服装鞋帽皮具店;品牌服装店,B001C90LBN
100,YoungLining|李宁童装|李宁儿童,河南省,新乡市,封丘县,李宁童装,封丘县黄池路1304号附近,35.048746,114.422429,购物服务;体育用品店;李宁专卖店,B017501E3G
101,YoungLining|李宁童装|李宁儿童,河南省,新乡市,长垣县,李宁(西大街),长垣县蒲西街与西大街交叉口西北50米,35.198985,114.683438,购物服务;体育用品店;李宁专卖店,B0FFINP4DK
102,YoungLining|李宁童装|李宁儿童,河南省,新乡市,封丘县,李宁(黄池路),封丘县城关镇温州商业街七栋楼,35.046748,114.422378,购物服务;体育用品店;李宁专卖店,B0FFF05W5Z
103,YoungLining|李宁童装|李宁儿童,河南省,新乡市,封丘县,李宁童装,封丘县黄池路1304号附近,35.048746,114.422429,购物服务;体育用品店;李宁专卖店,B017501E3G
104,YoungLining|李宁童装|李宁儿童,河南省,新乡市,长垣县,李宁(西大街),长垣县蒲西街与西大街交叉口西北50米,35.198985,114.683438,购物服务;体育用品店;李宁专卖店,B0FFINP4DK
105,YoungLining|李宁童装|李宁儿童,河南省,新乡市,封丘县,李宁(黄池路),封丘县城关镇温州商业街七栋楼,35.046748,114.422378,购物服务;体育用品店;李宁专卖店,B0FFF05W5Z
106,YoungLining|李宁童装|李宁儿童,内蒙古自治区,呼伦贝尔市,满洲里市,李宁(博伦体育分公司店),满洲里市五道街友谊购物中心一楼门市,49.588237,117.474765,购物服务;体育用品店;李宁专卖店,B0FFG1KP4M
107,YoungLining|李宁童装|李宁儿童,内蒙古自治区,呼伦贝尔市,满洲里市,李宁(博伦体育分公司店),满洲里市五道街友谊购物中心一楼门市,49.588237,117.474765,购物服务;体育用品店;李宁专卖店,B0FFG1KP4M
108,YoungLining|李宁童装|李宁儿童,河南省,商丘市,永城市,爱儿健,永城市演集镇永兴街新华书店东100米李宁对面,33.931836,116.454765,购物服务;专卖店;儿童用品店,B0FFFOI10H
109,YoungLining|李宁童装|李宁儿童,河南省,商丘市,永城市,爱儿健,永城市演集镇永兴街新华书店东100米李宁对面,33.931836,116.454765,购物服务;专卖店;儿童用品店,B0FFFOI10H
110,YoungLining|李宁童装|李宁儿童,湖南省,邵阳市,大祥区,贝贝熊孕婴童(中心路),大祥区中心路砂井头通道以南一楼第010号和011及二楼商铺李宁往东50米,27.234937,111.466178,购物服务;专卖店;儿童用品店,B02E30PQ1Q
111,YoungLining|李宁童装|李宁儿童,湖南省,邵阳市,大祥区,贝贝熊孕婴童(中心路),大祥区中心路砂井头通道以南一楼第010号和011及二楼商铺李宁往东50米,27.234937,111.466178,购物服务;专卖店;儿童用品店,B02E30PQ1Q
112,YoungLining|李宁童装|李宁儿童,山西省,朔州市,朔城区,李宁(美都汇购物广场),朔城区民福街与开发路交汇处美都汇购物广场F4层,39.341002,112.438555,购物服务;体育用品店;李宁专卖店,B0FFHJ8ZSI
113,YoungLining|李宁童装|李宁儿童,山西省,朔州市,朔城区,水孩儿李宁童装(燕来购物中心),朔城区马邑路1号燕来购物中心F5层,39.319678,112.422403,购物服务;购物相关场所;购物相关场所,B0FFHWVQ3B
114,YoungLining|李宁童装|李宁儿童,山西省,朔州市,朔城区,李宁(美都汇购物广场),朔城区民福街与开发路交汇处美都汇购物广场F4层,39.341002,112.438555,购物服务;体育用品店;李宁专卖店,B0FFHJ8ZSI
115,YoungLining|李宁童装|李宁儿童,山西省,朔州市,朔城区,水孩儿李宁童装(燕来购物中心),朔城区马邑路1号燕来购物中心F5层,39.319678,112.422403,购物服务;购物相关场所;购物相关场所,B0FFHWVQ3B
116,YoungLining|李宁童装|李宁儿童,湖北省,孝感市,汉川市,李宁童装工厂店,汉川市文化北路85号,30.656688,113.838001,购物服务;体育用品店;李宁专卖店,B0FFHUFUTC
117,YoungLining|李宁童装|李宁儿童,湖北省,孝感市,汉川市,李宁童装工厂店,汉川市文化北路85号,30.656688,113.838001,购物服务;体育用品店;李宁专卖店,B0FFHUFUTC
118,YoungLining|李宁童装|李宁儿童,江苏省,南京市,浦口区,李宁(弘阳广场),浦口区大桥北路48号弘阳广场F3层,32.139443,118.723078,购物服务;体育用品店;李宁专卖店,B0FFHOZRDC
119,YoungLining|李宁童装|李宁儿童,江苏省,南京市,秦淮区,李宁KIDS(太平商场),秦淮区太平南路279号太平商场F4层,32.033081,118.792683,购物服务;体育用品店;李宁专卖店,B0FFHUI4AV
120,YoungLining|李宁童装|李宁儿童,江苏省,南京市,浦口区,李宁KIDS(弘阳广场),浦口区大桥北路48号弘阳广场F4层,32.139197,118.723215,购物服务;专卖店;儿童用品店,B0FFI0CZB4
121,YoungLining|李宁童装|李宁儿童,江苏省,南京市,浦口区,李宁(弘阳广场),浦口区大桥北路48号弘阳广场F3层,32.139443,118.723078,购物服务;体育用品店;李宁专卖店,B0FFHOZRDC
122,YoungLining|李宁童装|李宁儿童,江苏省,南京市,秦淮区,李宁KIDS(太平商场),秦淮区太平南路279号太平商场F4层,32.033081,118.792683,购物服务;体育用品店;李宁专卖店,B0FFHUI4AV
123,YoungLining|李宁童装|李宁儿童,江苏省,南京市,浦口区,李宁KIDS(弘阳广场),浦口区大桥北路48号弘阳广场F4层,32.139197,118.723215,购物服务;专卖店;儿童用品店,B0FFI0CZB4
124,YoungLining|李宁童装|李宁儿童,河北省,唐山市,乐亭县,李宁儿童,乐亭县乐亭镇金融街盛世景湾1号楼,39.428698,118.914530,购物服务;专卖店;儿童用品店,B0FFHQTK5N
125,YoungLining|李宁童装|李宁儿童,河北省,唐山市,迁西县,李宁儿童,迁西县景忠东街24号,40.141451,118.310964,购物服务;专卖店;儿童用品店,B0FFI83BOD
126,YoungLining|李宁童装|李宁儿童,河北省,唐山市,迁安市,小李宁童装,迁安市迁安镇东安悦购城三楼,40.001942,118.704033,购物服务;专卖店;儿童用品店,B0FFIWUXLD
127,YoungLining|李宁童装|李宁儿童,河北省,唐山市,路北区,李宁(八方购物广场),路北区北新西道20号八方购物广场F2层,39.632358,118.161796,购物服务;服装鞋帽皮具店;品牌服装店,B0FFF0A121
128,YoungLining|李宁童装|李宁儿童,河北省,唐山市,玉田县,李宁儿童专厅,玉田县玉田供销大厦四楼,39.883453,117.755028,购物服务;购物相关场所;购物相关场所,B0FFIT9WGZ
129,YoungLining|李宁童装|李宁儿童,河北省,唐山市,遵化市,YOUNG李宁,遵化市文化北路36号金缘购物F3,40.195614,117.965939,购物服务;专卖店;专营店,B0FFJ12HYL
130,YoungLining|李宁童装|李宁儿童,河北省,唐山市,乐亭县,李宁儿童,乐亭县乐亭镇金融街盛世景湾1号楼,39.428698,118.914530,购物服务;专卖店;儿童用品店,B0FFHQTK5N
131,YoungLining|李宁童装|李宁儿童,河北省,唐山市,迁西县,李宁儿童,迁西县景忠东街24号,40.141451,118.310964,购物服务;专卖店;儿童用品店,B0FFI83BOD
132,YoungLining|李宁童装|李宁儿童,河北省,唐山市,迁安市,小李宁童装,迁安市迁安镇东安悦购城三楼,40.001942,118.704033,购物服务;专卖店;儿童用品店,B0FFIWUXLD
133,YoungLining|李宁童装|李宁儿童,河北省,唐山市,路北区,李宁(八方购物广场),路北区北新西道20号八方购物广场F2层,39.632358,118.161796,购物服务;服装鞋帽皮具店;品牌服装店,B0FFF0A121
134,YoungLining|李宁童装|李宁儿童,河北省,唐山市,玉田县,李宁儿童专厅,玉田县玉田供销大厦四楼,39.883453,117.755028,购物服务;购物相关场所;购物相关场所,B0FFIT9WGZ
135,YoungLining|李宁童装|李宁儿童,河北省,唐山市,遵化市,YOUNG李宁,遵化市文化北路36号金缘购物F3,40.195614,117.965939,购物服务;专卖店;专营店,B0FFJ12HYL
136,YoungLining|李宁童装|李宁儿童,江苏省,南通市,海安县,李宁儿童,海安县文峰大世界(海安店)南通市海安县宁海南路15号F3,32.538637,120.468441,购物服务;专卖店;儿童用品店,B0FFHW5TAL
137,YoungLining|李宁童装|李宁儿童,江苏省,南通市,海安县,李宁儿童,海安县文峰大世界(海安店)南通市海安县宁海南路15号F3,32.538637,120.468441,购物服务;专卖店;儿童用品店,B0FFHW5TAL
138,YoungLining|李宁童装|李宁儿童,山东省,济南市,槐荫区,李宁(经二路一店),槐荫区经二路622-1号,36.660608,116.974089,购物服务;体育用品店;李宁专卖店,B0FFFOXCJU
139,YoungLining|李宁童装|李宁儿童,山东省,济南市,槐荫区,李宁(经二路一店),槐荫区经二路622-1号,36.660608,116.974089,购物服务;体育用品店;李宁专卖店,B0FFFOXCJU
140,YoungLining|李宁童装|李宁儿童,吉林省,吉林市,舒兰市,李宁(人民大路),舒兰市舒兰大街万嘉购物广场对面,44.412546,126.946534,购物服务;体育用品店;李宁专卖店,B01B00PN02
141,YoungLining|李宁童装|李宁儿童,吉林省,吉林市,舒兰市,李宁(人民大路),舒兰市舒兰大街万嘉购物广场对面,44.412546,126.946534,购物服务;体育用品店;李宁专卖店,B01B00PN02
142,YoungLining|李宁童装|李宁儿童,广西壮族自治区,桂林市,秀峰区,李宁(桂林梦之岛店),秀峰区中山中路20号梦之岛商场5层,25.273131,110.293846,购物服务;体育用品店;李宁专卖店,B0FFFOVWZ3
143,YoungLining|李宁童装|李宁儿童,广西壮族自治区,桂林市,秀峰区,李宁(桂林梦之岛店),秀峰区中山中路20号梦之岛商场5层,25.273131,110.293846,购物服务;体育用品店;李宁专卖店,B0FFFOVWZ3
144,YoungLining|李宁童装|李宁儿童,河南省,焦作市,孟州市,小李宁young童装,孟州市西韩愈大街279号附近,34.906586,112.783772,购物服务;购物相关场所;购物相关场所,B0FFIWFVY4
145,YoungLining|李宁童装|李宁儿童,河南省,焦作市,孟州市,小李宁young童装,孟州市西韩愈大街279号附近,34.906586,112.783772,购物服务;购物相关场所;购物相关场所,B0FFIWFVY4
146,YoungLining|李宁童装|李宁儿童,辽宁省,营口市,鲅鱼圈区,李宁(平安大街红旺广场店),鲅鱼圈区红旺广场三楼,40.233480,122.124770,购物服务;体育用品店;李宁专卖店,B0FFHI2ADG
147,YoungLining|李宁童装|李宁儿童,辽宁省,营口市,鲅鱼圈区,李宁(平安大街红旺广场店),鲅鱼圈区红旺广场三楼,40.233480,122.124770,购物服务;体育用品店;李宁专卖店,B0FFHI2ADG
148,YoungLining|李宁童装|李宁儿童,重庆市,重庆市,巴南区,李宁童装(南渝星城·秀街)(装修中),巴南区鱼轻路南渝星城·秀街,29.379511,106.516033,购物服务;专卖店;儿童用品店,B0FFIDGM8F
149,YoungLining|李宁童装|李宁儿童,重庆市,重庆市,巴南区,李宁童装(南渝星城·秀街)(装修中),巴南区鱼轻路南渝星城·秀街,29.379511,106.516033,购物服务;专卖店;儿童用品店,B0FFIDGM8F
150,YoungLining|李宁童装|李宁儿童,浙江省,嘉兴市,桐乡市,李宁(东兴商厦),桐乡市庆丰中路18号东兴商厦4F层,30.632769,120.550831,购物服务;体育用品店;李宁专卖店,B0FFHIPK20
151,YoungLining|李宁童装|李宁儿童,浙江省,嘉兴市,桐乡市,李宁(东兴商厦),桐乡市庆丰中路18号东兴商厦4F层,30.632769,120.550831,购物服务;体育用品店;李宁专卖店,B0FFHIPK20
152,YoungLining|李宁童装|李宁儿童,陕西省,西安市,雁塔区,YOUNGLINING,雁塔区赛格国际购物中心西安市雁塔区长安中路123号F5,34.223732,108.948598,购物服务;购物相关场所;购物相关场所,B0FFJ525GI
153,YoungLining|李宁童装|李宁儿童,陕西省,西安市,雁塔区,YOUNGLINING,雁塔区赛格国际购物中心西安市雁塔区长安中路123号F5,34.223732,108.948598,购物服务;购物相关场所;购物相关场所,B0FFJ525GI
154,YoungLining|李宁童装|李宁儿童,湖南省,长沙市,雨花区,李宁童装(通程商业广场),雨花区湘府中路二段517号通程商业广场B1层,28.109580,113.015938,购物服务;服装鞋帽皮具店;品牌服装店,B0FFH6OE00
155,YoungLining|李宁童装|李宁儿童,湖南省,长沙市,天心区,李宁(工厂店),天心区芙蓉南路三段27号友阿奥特莱斯5栋1层,28.071507,112.992640,购物服务;体育用品店;李宁专卖店,B0FFF03KC2
156,YoungLining|李宁童装|李宁儿童,湖南省,长沙市,雨花区,李宁(长沙顺领体育店),雨花区民主路高桥服饰城2层,28.173279,113.018240,购物服务;体育用品店;李宁专卖店,B0FFF2INOM
157,YoungLining|李宁童装|李宁儿童,湖南省,长沙市,天心区,李宁(芙蓉南路天虹百货店),天心区芙蓉南路天虹百货四楼,28.134888,112.986645,购物服务;专卖店;儿童用品店,B0FFGL9WB5
158,YoungLining|李宁童装|李宁儿童,湖南省,长沙市,雨花区,LI-NING KIDS,雨花区万家丽中路二段8号通程奥特莱斯直销广场F4,28.167853,113.028809,购物服务;专卖店;专营店,B0FFHMG8XA
159,YoungLining|李宁童装|李宁儿童,湖南省,长沙市,雨花区,李宁童装(通程商业广场),雨花区湘府中路二段517号通程商业广场B1层,28.109580,113.015938,购物服务;服装鞋帽皮具店;品牌服装店,B0FFH6OE00
160,YoungLining|李宁童装|李宁儿童,湖南省,长沙市,天心区,李宁(工厂店),天心区芙蓉南路三段27号友阿奥特莱斯5栋1层,28.071507,112.992640,购物服务;体育用品店;李宁专卖店,B0FFF03KC2
161,YoungLining|李宁童装|李宁儿童,湖南省,长沙市,雨花区,李宁(长沙顺领体育店),雨花区民主路高桥服饰城2层,28.173279,113.018240,购物服务;体育用品店;李宁专卖店,B0FFF2INOM
162,YoungLining|李宁童装|李宁儿童,湖南省,长沙市,天心区,李宁(芙蓉南路天虹百货店),天心区芙蓉南路天虹百货四楼,28.134888,112.986645,购物服务;专卖店;儿童用品店,B0FFGL9WB5
163,YoungLining|李宁童装|李宁儿童,湖南省,长沙市,雨花区,LI-NING KIDS,雨花区万家丽中路二段8号通程奥特莱斯直销广场F4,28.167853,113.028809,购物服务;专卖店;专营店,B0FFHMG8XA
164,YoungLining|李宁童装|李宁儿童,北京市,北京市,朝阳区,李宁童装,朝阳区黄厂南里3号院25号,39.845518,116.558697,购物服务;专卖店;儿童用品店,B0FFH5P5M5
165,YoungLining|李宁童装|李宁儿童,北京市,北京市,海淀区,李宁儿童(泰鑫源商厦),海淀区永泰庄路25号泰鑫源商厦F3层,40.032922,116.347360,购物服务;专卖店;儿童用品店,B0FFI1Q3L2
166,YoungLining|李宁童装|李宁儿童,北京市,北京市,延庆区,李宁儿童(中踏广场),延庆区东外大街111号中踏广场F6层,40.460157,115.976397,购物服务;服装鞋帽皮具店;品牌服装店,B0FFHPUJ68
167,YoungLining|李宁童装|李宁儿童,北京市,北京市,东城区,李宁童装(北京王府井银泰in88),东城区王府井大街88号in886层,39.916004,116.411917,购物服务;体育用品店;李宁专卖店,B0FFG96ZGD
168,YoungLining|李宁童装|李宁儿童,北京市,北京市,顺义区,李宁儿童(新世界百货),顺义区新顺南大街18号新世界百货F2层,40.126222,116.652125,购物服务;专卖店;儿童用品店,B0FFIVFGEA
169,YoungLining|李宁童装|李宁儿童,北京市,北京市,大兴区,李宁童装(亦庄创意生活广场),大兴区文化园东路6号亦庄创意生活广场F4层,39.810674,116.503518,购物服务;专卖店;儿童用品店,B0FFHOCET9
170,YoungLining|李宁童装|李宁儿童,北京市,北京市,丰台区,李宁(草桥上品工厂店),丰台区草桥东路1号草桥上品折扣3层,39.850857,116.358449,购物服务;体育用品店;李宁专卖店,B0FFFKGYW9
171,YoungLining|李宁童装|李宁儿童,北京市,北京市,朝阳区,李宁(活力东方购物广场),朝阳区姚家园路甲一号活力东方购物广场SF2层,39.940567,116.523395,购物服务;体育用品店;李宁专卖店,B0FFHU5ZP5
172,YoungLining|李宁童装|李宁儿童,北京市,北京市,通州区,李宁(苏荷时代商业广场),通州区翠屏西路2号苏荷时代商业广场F1层,39.891460,116.644361,购物服务;体育用品店;李宁专卖店,B0FFHOSEX7
173,YoungLining|李宁童装|李宁儿童,北京市,北京市,昌平区,李宁(悦荟·万科购物中心),昌平区南环路6号悦荟·万科购物中心L4层L4013,40.212525,116.239620,购物服务;体育用品店;李宁专卖店,B0FFHU5X6B
174,YoungLining|李宁童装|李宁儿童,北京市,北京市,顺义区,李宁(新世界百货),顺义区新顺南大街18号新世界百货F5层,40.126517,116.651923,购物服务;体育用品店;李宁专卖店,B0FFHKW3QL
175,YoungLining|李宁童装|李宁儿童,北京市,北京市,顺义区,李宁(隆华购物中心),顺义区站前街1号隆华购物中心F4层,40.126910,116.650061,购物服务;体育用品店;李宁专卖店,B0FFHKVKW5
176,YoungLining|李宁童装|李宁儿童,北京市,北京市,怀柔区,李宁(怀柔青春万达广场),怀柔区青春路怀柔青春万达广场F4层,40.316114,116.629992,购物服务;体育用品店;李宁专卖店,B0FFIPPSIZ
177,YoungLining|李宁童装|李宁儿童,北京市,北京市,通州区,李宁仓库,通州区张家湾镇上店村,39.847889,116.755815,公司企业;公司;公司,B0FFGIX3VV
178,YoungLining|李宁童装|李宁儿童,北京市,北京市,海淀区,李宁,海淀区巴沟路2号万柳华联购物中心3层,39.973064,116.295257,购物服务;专卖店;儿童用品店,B0FFHSNUEL
179,YoungLining|李宁童装|李宁儿童,北京市,北京市,海淀区,李宁(中发百旺商城),海淀区圆明园西路18号中发百旺商城2层2799号,40.028800,116.276854,购物服务;专卖店;儿童用品店|购物服务;体育用品店;李宁专卖店,B0FFFFN5TA
180,YoungLining|李宁童装|李宁儿童,北京市,北京市,房山区,李宁(首创奥特莱斯),房山区长阳镇悦盛路6号园2号楼F2-C05,39.764231,116.185948,购物服务;体育用品店;李宁专卖店|购物服务;专卖店;儿童用品店,B0FFFKGYTN
181,YoungLining|李宁童装|李宁儿童,北京市,北京市,房山区,李宁(国泰百货良乡店),房山区良乡拱辰南大街6号国泰百货(良乡店)F5层,39.730686,116.142876,购物服务;体育用品店;李宁专卖店,B0FFI2QL5D
182,YoungLining|李宁童装|李宁儿童,北京市,北京市,朝阳区,李宁(北京燕莎奥特莱斯购物中心A座),朝阳区东四环南路9号北京燕莎奥特莱斯购物中心A座F2层,39.876684,116.487971,购物服务;专卖店;儿童用品店,B0FFIMJI5H
183,YoungLining|李宁童装|李宁儿童,北京市,北京市,大兴区,李宁(火神庙国际商业中心南区),大兴区黄村东大街38号火神庙国际商业中心南区NF2层,39.730030,116.341313,购物服务;专卖店;儿童用品店,B0FFIP1EH5
184,YoungLining|李宁童装|李宁儿童,北京市,北京市,朝阳区,李宁童装,朝阳区黄厂南里3号院25号,39.845518,116.558697,购物服务;专卖店;儿童用品店,B0FFH5P5M5
185,YoungLining|李宁童装|李宁儿童,北京市,北京市,海淀区,李宁儿童(泰鑫源商厦),海淀区永泰庄路25号泰鑫源商厦F3层,40.032922,116.347360,购物服务;专卖店;儿童用品店,B0FFI1Q3L2
186,YoungLining|李宁童装|李宁儿童,北京市,北京市,延庆区,李宁儿童(中踏广场),延庆区东外大街111号中踏广场F6层,40.460157,115.976397,购物服务;服装鞋帽皮具店;品牌服装店,B0FFHPUJ68
187,YoungLining|李宁童装|李宁儿童,北京市,北京市,东城区,李宁童装(北京王府井银泰in88),东城区王府井大街88号in886层,39.916004,116.411917,购物服务;体育用品店;李宁专卖店,B0FFG96ZGD
188,YoungLining|李宁童装|李宁儿童,北京市,北京市,顺义区,李宁儿童(新世界百货),顺义区新顺南大街18号新世界百货F2层,40.126222,116.652125,购物服务;专卖店;儿童用品店,B0FFIVFGEA
189,YoungLining|李宁童装|李宁儿童,北京市,北京市,大兴区,李宁童装(亦庄创意生活广场),大兴区文化园东路6号亦庄创意生活广场F4层,39.810674,116.503518,购物服务;专卖店;儿童用品店,B0FFHOCET9
190,YoungLining|李宁童装|李宁儿童,北京市,北京市,丰台区,李宁(草桥上品工厂店),丰台区草桥东路1号草桥上品折扣3层,39.850857,116.358449,购物服务;体育用品店;李宁专卖店,B0FFFKGYW9
191,YoungLining|李宁童装|李宁儿童,北京市,北京市,朝阳区,李宁(活力东方购物广场),朝阳区姚家园路甲一号活力东方购物广场SF2层,39.940567,116.523395,购物服务;体育用品店;李宁专卖店,B0FFHU5ZP5
192,YoungLining|李宁童装|李宁儿童,北京市,北京市,通州区,李宁(苏荷时代商业广场),通州区翠屏西路2号苏荷时代商业广场F1层,39.891460,116.644361,购物服务;体育用品店;李宁专卖店,B0FFHOSEX7
193,YoungLining|李宁童装|李宁儿童,北京市,北京市,昌平区,李宁(悦荟·万科购物中心),昌平区南环路6号悦荟·万科购物中心L4层L4013,40.212525,116.239620,购物服务;体育用品店;李宁专卖店,B0FFHU5X6B
194,YoungLining|李宁童装|李宁儿童,北京市,北京市,顺义区,李宁(新世界百货),顺义区新顺南大街18号新世界百货F5层,40.126517,116.651923,购物服务;体育用品店;李宁专卖店,B0FFHKW3QL
195,YoungLining|李宁童装|李宁儿童,北京市,北京市,顺义区,李宁(隆华购物中心),顺义区站前街1号隆华购物中心F4层,40.126910,116.650061,购物服务;体育用品店;李宁专卖店,B0FFHKVKW5
196,YoungLining|李宁童装|李宁儿童,北京市,北京市,怀柔区,李宁(怀柔青春万达广场),怀柔区青春路怀柔青春万达广场F4层,40.316114,116.629992,购物服务;体育用品店;李宁专卖店,B0FFIPPSIZ
197,YoungLining|李宁童装|李宁儿童,北京市,北京市,通州区,李宁仓库,通州区张家湾镇上店村,39.847889,116.755815,公司企业;公司;公司,B0FFGIX3VV
198,YoungLining|李宁童装|李宁儿童,北京市,北京市,海淀区,李宁,海淀区巴沟路2号万柳华联购物中心3层,39.973064,116.295257,购物服务;专卖店;儿童用品店,B0FFHSNUEL
199,YoungLining|李宁童装|李宁儿童,北京市,北京市,海淀区,李宁(中发百旺商城),海淀区圆明园西路18号中发百旺商城2层2799号,40.028800,116.276854,购物服务;专卖店;儿童用品店|购物服务;体育用品店;李宁专卖店,B0FFFFN5TA
200,YoungLining|李宁童装|李宁儿童,北京市,北京市,房山区,李宁(首创奥特莱斯),房山区长阳镇悦盛路6号园2号楼F2-C05,39.764231,116.185948,购物服务;体育用品店;李宁专卖店|购物服务;专卖店;儿童用品店,B0FFFKGYTN
201,YoungLining|李宁童装|李宁儿童,北京市,北京市,房山区,李宁(国泰百货良乡店),房山区良乡拱辰南大街6号国泰百货(良乡店)F5层,39.730686,116.142876,购物服务;体育用品店;李宁专卖店,B0FFI2QL5D
202,YoungLining|李宁童装|李宁儿童,北京市,北京市,朝阳区,李宁(北京燕莎奥特莱斯购物中心A座),朝阳区东四环南路9号北京燕莎奥特莱斯购物中心A座F2层,39.876684,116.487971,购物服务;专卖店;儿童用品店,B0FFIMJI5H
203,YoungLining|李宁童装|李宁儿童,北京市,北京市,大兴区,李宁(火神庙国际商业中心南区),大兴区黄村东大街38号火神庙国际商业中心南区NF2层,39.730030,116.341313,购物服务;专卖店;儿童用品店,B0FFIP1EH5
204,YoungLining|李宁童装|李宁儿童,北京市,北京市,延庆区,小李宁童装专柜,延庆区延庆镇中踏广场六楼,40.459915,115.976448,购物服务;购物相关场所;购物相关场所,B0FFIK46L3
205,YoungLining|李宁童装|李宁儿童,北京市,北京市,西城区,小李宁专柜,西城区复兴门外大街4-8号楼儿童生活馆一层,39.906826,116.349838,购物服务;购物相关场所;购物相关场所,B0FFJ4S1WS
206,YoungLining|李宁童装|李宁儿童,广东省,深圳市,南山区,LI-NING(天虹商场),南山区留仙大道1380号天虹商场F5层,22.581418,113.955538,购物服务;体育用品店;李宁专卖店,B0FFHTNVGO
207,YoungLining|李宁童装|李宁儿童,广东省,深圳市,南山区,LI-NING(天虹商场),南山区留仙大道1380号天虹商场F5层,22.581418,113.955538,购物服务;体育用品店;李宁专卖店,B0FFHTNVGO
208,YoungLining|李宁童装|李宁儿童,山东省,聊城市,茌平县,李宁玩具店,茌平县中心街4500号附近,36.587238,116.255760,购物服务;专卖店;儿童用品店,B0FFFXR8XN
209,YoungLining|李宁童装|李宁儿童,山东省,聊城市,茌平县,李宁玩具店,茌平县中心街4500号附近,36.587238,116.255760,购物服务;专卖店;儿童用品店,B0FFFXR8XN
210,YoungLining|李宁童装|李宁儿童,浙江省,台州市,仙居县,小李宁童装,仙居县解放街111号东方百货二楼,28.855171,120.737923,购物服务;专卖店;儿童用品店,B0FFINIBF8
211,YoungLining|李宁童装|李宁儿童,浙江省,台州市,仙居县,小李宁童装,仙居县解放街111号东方百货二楼,28.855171,120.737923,购物服务;专卖店;儿童用品店,B0FFINIBF8
212,YoungLining|李宁童装|李宁儿童,黑龙江省,哈尔滨市,五常市,李宁童装,五常市文苑路133号,44.919369,127.155960,购物服务;专卖店;儿童用品店,B0FFIU45RA
213,YoungLining|李宁童装|李宁儿童,黑龙江省,哈尔滨市,香坊区,李宁(万达广场),香坊区衡山路17号万达广场F5层,45.740842,126.678363,购物服务;体育用品店;李宁专卖店,B0FFI1Q5S0
214,YoungLining|李宁童装|李宁儿童,黑龙江省,哈尔滨市,方正县,李宁(方正县正强体育店),方正县中央大街371号,45.837928,128.836267,购物服务;体育用品店;李宁专卖店,B0FFGYS2GL
215,YoungLining|李宁童装|李宁儿童,黑龙江省,哈尔滨市,香坊区,安踏儿童(香企街),香坊区香福路52号泰泰百货四楼,45.718042,126.759186,购物服务;专卖店;儿童用品店,B0FFG3Z6R9
216,YoungLining|李宁童装|李宁儿童,黑龙江省,哈尔滨市,南岗区,李宁专柜,南岗区东大直街261号华邑童装二楼,45.762515,126.648099,购物服务;购物相关场所;购物相关场所,B0FFI6YM37
217,YoungLining|李宁童装|李宁儿童,黑龙江省,哈尔滨市,南岗区,李宁KIDS(万达广场),南岗区中兴大道168号万达广场F2层,45.700492,126.586030,购物服务;专卖店;儿童用品店,B0FFHUI725
218,YoungLining|李宁童装|李宁儿童,黑龙江省,哈尔滨市,道里区,李宁KIDS(华燕奥特莱斯购物中心),道里区地段街95号华燕奥特莱斯购物中心F5层,45.770572,126.629623,购物服务;专卖店;儿童用品店,B0FFHUI5O8
219,YoungLining|李宁童装|李宁儿童,黑龙江省,哈尔滨市,五常市,李宁童装,五常市文苑路133号,44.919369,127.155960,购物服务;专卖店;儿童用品店,B0FFIU45RA
220,YoungLining|李宁童装|李宁儿童,黑龙江省,哈尔滨市,香坊区,李宁(万达广场),香坊区衡山路17号万达广场F5层,45.740842,126.678363,购物服务;体育用品店;李宁专卖店,B0FFI1Q5S0
221,YoungLining|李宁童装|李宁儿童,黑龙江省,哈尔滨市,方正县,李宁(方正县正强体育店),方正县中央大街371号,45.837928,128.836267,购物服务;体育用品店;李宁专卖店,B0FFGYS2GL
222,YoungLining|李宁童装|李宁儿童,黑龙江省,哈尔滨市,香坊区,安踏儿童(香企街),香坊区香福路52号泰泰百货四楼,45.718042,126.759186,购物服务;专卖店;儿童用品店,B0FFG3Z6R9
223,YoungLining|李宁童装|李宁儿童,黑龙江省,哈尔滨市,南岗区,李宁专柜,南岗区东大直街261号华邑童装二楼,45.762515,126.648099,购物服务;购物相关场所;购物相关场所,B0FFI6YM37
224,YoungLining|李宁童装|李宁儿童,黑龙江省,哈尔滨市,南岗区,李宁KIDS(万达广场),南岗区中兴大道168号万达广场F2层,45.700492,126.586030,购物服务;专卖店;儿童用品店,B0FFHUI725
225,YoungLining|李宁童装|李宁儿童,黑龙江省,哈尔滨市,道里区,李宁KIDS(华燕奥特莱斯购物中心),道里区地段街95号华燕奥特莱斯购物中心F5层,45.770572,126.629623,购物服务;专卖店;儿童用品店,B0FFHUI5O8
226,YoungLining|李宁童装|李宁儿童,浙江省,绍兴市,上虞区,李宁(上虞新大通店),上虞区市民大道689号大通购物中心1层,30.033257,120.872926,购物服务;体育用品店;李宁专卖店,B0FFF2C6VS
227,YoungLining|李宁童装|李宁儿童,浙江省,绍兴市,上虞区,李宁(上虞新大通店),上虞区市民大道689号大通购物中心1层,30.033257,120.872926,购物服务;体育用品店;李宁专卖店,B0FFF2C6VS
228,YoungLining|李宁童装|李宁儿童,内蒙古自治区,兴安盟,科尔沁右翼中旗,李宁儿童,科尔沁右翼中旗巴仁哲里木大街与扎木钦路交叉口东150米,45.059421,121.468909,购物服务;专卖店;儿童用品店,B0FFHOZYEU
229,YoungLining|李宁童装|李宁儿童,内蒙古自治区,兴安盟,乌兰浩特市,李宁,乌兰浩特市富民南路26号附近(内蒙古自治区兴安盟审计局南),46.071475,122.073545,购物服务;专卖店;儿童用品店,B0FFIBG0B6
230,YoungLining|李宁童装|李宁儿童,内蒙古自治区,兴安盟,扎赉特旗,李宁(音德尔北路店),扎赉特旗音德尔镇大东方一楼,46.723156,122.906533,购物服务;体育用品店;李宁专卖店,B0FFHX4HG8
231,YoungLining|李宁童装|李宁儿童,内蒙古自治区,兴安盟,科尔沁右翼中旗,李宁儿童,科尔沁右翼中旗巴仁哲里木大街与扎木钦路交叉口东150米,45.059421,121.468909,购物服务;专卖店;儿童用品店,B0FFHOZYEU
232,YoungLining|李宁童装|李宁儿童,内蒙古自治区,兴安盟,乌兰浩特市,李宁,乌兰浩特市富民南路26号附近(内蒙古自治区兴安盟审计局南),46.071475,122.073545,购物服务;专卖店;儿童用品店,B0FFIBG0B6
233,YoungLining|李宁童装|李宁儿童,内蒙古自治区,兴安盟,扎赉特旗,李宁(音德尔北路店),扎赉特旗音德尔镇大东方一楼,46.723156,122.906533,购物服务;体育用品店;李宁专卖店,B0FFHX4HG8
234,YoungLining|李宁童装|李宁儿童,云南省,昆明市,西山区,李宁儿童专卖店,西山区万达大道南50米,24.965190,102.688698,购物服务;专卖店;儿童用品店,B0FFHF7AXH
235,YoungLining|李宁童装|李宁儿童,云南省,昆明市,五华区,李宁KIDS,五华区霖雨路268号约会·嘉年华购物中心1/3楼,25.095075,102.735427,购物服务;专卖店;儿童用品店,B0FFHF7WU8
236,YoungLining|李宁童装|李宁儿童,云南省,昆明市,西山区,李宁儿童专卖店,西山区万达大道南50米,24.965190,102.688698,购物服务;专卖店;儿童用品店,B0FFHF7AXH
237,YoungLining|李宁童装|李宁儿童,云南省,昆明市,五华区,李宁KIDS,五华区霖雨路268号约会·嘉年华购物中心1/3楼,25.095075,102.735427,购物服务;专卖店;儿童用品店,B0FFHF7WU8
238,YoungLining|李宁童装|李宁儿童,湖南省,常德市,武陵区,李宁KIDS,武陵区人民路167号附近,29.026527,111.697715,购物服务;专卖店;儿童用品店,B0FFHWUSP1
239,YoungLining|李宁童装|李宁儿童,湖南省,常德市,武陵区,李宁KIDS,武陵区人民路167号附近,29.026527,111.697715,购物服务;专卖店;儿童用品店,B0FFHWUSP1
240,YoungLining|李宁童装|李宁儿童,河北省,邢台市,桥西区,李宁,桥西区中兴西大街123号大洋百货F4,37.062384,114.479755,购物服务;体育用品店;李宁专卖店,B0FFHCR0J0
241,YoungLining|李宁童装|李宁儿童,河北省,邢台市,桥西区,李宁,桥西区中兴西大街123号大洋百货F4,37.062384,114.479755,购物服务;体育用品店;李宁专卖店,B0FFHCR0J0
242,YoungLining|李宁童装|李宁儿童,山东省,济宁市,兖州区,李宁儿童,兖州区鼓楼街道建设东路266号,35.555307,116.826690,购物服务;专卖店;儿童用品店|购物服务;体育用品店;李宁专卖店,B02190WWOW
243,YoungLining|李宁童装|李宁儿童,山东省,济宁市,梁山县,李宁儿童,梁山县交通路与水泊大街交叉口南50米,35.795673,116.086516,购物服务;专卖店;儿童用品店,B0FFHSM340
244,YoungLining|李宁童装|李宁儿童,山东省,济宁市,兖州区,李宁儿童,兖州区鼓楼街道建设东路266号,35.555307,116.826690,购物服务;专卖店;儿童用品店|购物服务;体育用品店;李宁专卖店,B02190WWOW
245,YoungLining|李宁童装|李宁儿童,山东省,济宁市,梁山县,李宁儿童,梁山县交通路与水泊大街交叉口南50米,35.795673,116.086516,购物服务;专卖店;儿童用品店,B0FFHSM340
246,YoungLining|李宁童装|李宁儿童,河南省,驻马店市,西平县,童趣,西平县步行街中段李宁专卖往南100米,33.382632,114.024342,购物服务;专卖店;儿童用品店,B0FFI020EL
247,YoungLining|李宁童装|李宁儿童,河南省,驻马店市,西平县,童趣,西平县步行街中段李宁专卖往南100米,33.382632,114.024342,购物服务;专卖店;儿童用品店,B0FFI020EL
248,YoungLining|李宁童装|李宁儿童,江苏省,常州市,溧阳市,小李宁(金鹰购物中心),溧阳市天目路8号金鹰国际购物中心5层,31.425498,119.480354,购物服务;专卖店;儿童用品店,B0FFF3J6DZ
249,YoungLining|李宁童装|李宁儿童,江苏省,常州市,溧阳市,小李宁(金鹰购物中心),溧阳市天目路8号金鹰国际购物中心5层,31.425498,119.480354,购物服务;专卖店;儿童用品店,B0FFF3J6DZ
250,YoungLining|李宁童装|李宁儿童,天津市,天津市,东丽区,李宁(恒星世界店),东丽区先锋路61号恒星世界购物广场2楼,39.084531,117.306382,购物服务;体育用品店;李宁专卖店,B0FFFV4LQ3
251,YoungLining|李宁童装|李宁儿童,天津市,天津市,蓟州区,李宁(旗舰店),蓟州区城关镇文昌街6号,40.044922,117.408885,购物服务;体育用品店;李宁专卖店,B00160F5NE
252,YoungLining|李宁童装|李宁儿童,天津市,天津市,滨海新区,李宁(塘沽金元宝东方广场店),滨海新区塘沽解放路507号金元宝东方广场2F层,39.016007,117.667959,购物服务;体育用品店;李宁专卖店,B0FFHH8HF7
253,YoungLining|李宁童装|李宁儿童,天津市,天津市,河西区,李宁(阳光乐园彩悦城),河西区乐园道9号阳光乐园彩悦城1F层1L-02,39.090309,117.217621,购物服务;体育用品店;李宁专卖店,B0FFGZZREE
254,YoungLining|李宁童装|李宁儿童,天津市,天津市,武清区,李宁(中信广场店),武清区京津公路与振华道交口友谊武清百货F4层,39.370898,117.069151,购物服务;体育用品店;李宁专卖店,B0FFHS8SJY
255,YoungLining|李宁童装|李宁儿童,天津市,天津市,滨海新区,李宁(大港油田幸福广场店),滨海新区海滨街道大港油田幸福广场3层(幸福路口),38.719474,117.490307,购物服务;专卖店;儿童用品店,B0FFH1LOIE
256,YoungLining|李宁童装|李宁儿童,天津市,天津市,滨海新区,李宁(金元宝于家堡购物店),滨海新区新港路276号金元宝于家堡购物中心三楼童装,39.004830,117.698818,购物服务;专卖店;儿童用品店,B0FFGC22KX
257,YoungLining|李宁童装|李宁儿童,天津市,天津市,东丽区,李宁专卖店(新业广场),东丽区经济开发区二经路1号新业广场F2层,39.079016,117.354883,购物服务;体育用品店;李宁专卖店,B0FFFR4547
258,YoungLining|李宁童装|李宁儿童,天津市,天津市,西青区,LI-NING(AEONMALL),西青区友谊南路111号AEONMALL2层272,39.027294,117.218765,购物服务;体育用品店;李宁专卖店,B0FFHC5O68
259,YoungLining|李宁童装|李宁儿童,天津市,天津市,西青区,安踏儿童(柳口路),西青区杨柳青镇柳口路67号,39.137647,117.012605,购物服务;专卖店;儿童用品店,B0FFHEEU4U
260,YoungLining|李宁童装|李宁儿童,天津市,天津市,西青区,YOUNG LINING,西青区阜盛道1号永旺购物中心F2,39.142191,117.090620,购物服务;专卖店;专营店,B0FFJ3XMCR
261,YoungLining|李宁童装|李宁儿童,天津市,天津市,东丽区,李宁(恒星世界店),东丽区先锋路61号恒星世界购物广场2楼,39.084531,117.306382,购物服务;体育用品店;李宁专卖店,B0FFFV4LQ3
262,YoungLining|李宁童装|李宁儿童,天津市,天津市,蓟州区,李宁(旗舰店),蓟州区城关镇文昌街6号,40.044922,117.408885,购物服务;体育用品店;李宁专卖店,B00160F5NE
263,YoungLining|李宁童装|李宁儿童,天津市,天津市,滨海新区,李宁(塘沽金元宝东方广场店),滨海新区塘沽解放路507号金元宝东方广场2F层,39.016007,117.667959,购物服务;体育用品店;李宁专卖店,B0FFHH8HF7
264,YoungLining|李宁童装|李宁儿童,天津市,天津市,河西区,李宁(阳光乐园彩悦城),河西区乐园道9号阳光乐园彩悦城1F层1L-02,39.090309,117.217621,购物服务;体育用品店;李宁专卖店,B0FFGZZREE
265,YoungLining|李宁童装|李宁儿童,天津市,天津市,武清区,李宁(中信广场店),武清区京津公路与振华道交口友谊武清百货F4层,39.370898,117.069151,购物服务;体育用品店;李宁专卖店,B0FFHS8SJY
266,YoungLining|李宁童装|李宁儿童,天津市,天津市,滨海新区,李宁(大港油田幸福广场店),滨海新区海滨街道大港油田幸福广场3层(幸福路口),38.719474,117.490307,购物服务;专卖店;儿童用品店,B0FFH1LOIE
267,YoungLining|李宁童装|李宁儿童,天津市,天津市,滨海新区,李宁(金元宝于家堡购物店),滨海新区新港路276号金元宝于家堡购物中心三楼童装,39.004830,117.698818,购物服务;专卖店;儿童用品店,B0FFGC22KX
268,YoungLining|李宁童装|李宁儿童,天津市,天津市,东丽区,李宁专卖店(新业广场),东丽区经济开发区二经路1号新业广场F2层,39.079016,117.354883,购物服务;体育用品店;李宁专卖店,B0FFFR4547
269,YoungLining|李宁童装|李宁儿童,天津市,天津市,西青区,LI-NING(AEONMALL),西青区友谊南路111号AEONMALL2层272,39.027294,117.218765,购物服务;体育用品店;李宁专卖店,B0FFHC5O68
270,YoungLining|李宁童装|李宁儿童,天津市,天津市,西青区,安踏儿童(柳口路),西青区杨柳青镇柳口路67号,39.137647,117.012605,购物服务;专卖店;儿童用品店,B0FFHEEU4U
271,YoungLining|李宁童装|李宁儿童,天津市,天津市,西青区,YOUNG LINING,西青区阜盛道1号永旺购物中心F2,39.142191,117.090620,购物服务;专卖店;专营店,B0FFJ3XMCR
272,YoungLining|李宁童装|李宁儿童,河北省,沧州市,运河区,李宁,运河区新华中路49号华北商厦内(近渤海大厦),38.312507,116.857770,购物服务;体育用品店;李宁专卖店,B013D014LG
273,YoungLining|李宁童装|李宁儿童,河北省,沧州市,盐山县,李宁(盐山县经济环境投诉中心南),盐山县商业街与翠园路交叉口西北50米,38.062213,117.236015,购物服务;体育用品店;李宁专卖店,B013D011SR
274,YoungLining|李宁童装|李宁儿童,河北省,沧州市,任丘市,李宁(华油百货大楼店),任丘市北站西路21号华北石油百货大楼F3,38.687688,116.100950,购物服务;体育用品店;李宁专卖店,B0FFHHJWAX
275,YoungLining|李宁童装|李宁儿童,河北省,沧州市,运河区,李宁,运河区新华中路49号华北商厦内(近渤海大厦),38.312507,116.857770,购物服务;体育用品店;李宁专卖店,B013D014LG
276,YoungLining|李宁童装|李宁儿童,河北省,沧州市,盐山县,李宁(盐山县经济环境投诉中心南),盐山县商业街与翠园路交叉口西北50米,38.062213,117.236015,购物服务;体育用品店;李宁专卖店,B013D011SR
277,YoungLining|李宁童装|李宁儿童,河北省,沧州市,任丘市,李宁(华油百货大楼店),任丘市北站西路21号华北石油百货大楼F3,38.687688,116.100950,购物服务;体育用品店;李宁专卖店,B0FFHHJWAX
278,YoungLining|李宁童装|李宁儿童,山东省,枣庄市,市中区,李宁KIDS,市中区君山路52号枣庄贵诚购物中心3层,34.865549,117.571058,购物服务;专卖店;儿童用品店,B0FFGBMVY0
279,YoungLining|李宁童装|李宁儿童,山东省,枣庄市,市中区,李宁KIDS,市中区君山路52号枣庄贵诚购物中心3层,34.865549,117.571058,购物服务;专卖店;儿童用品店,B0FFGBMVY0
280,YoungLining|李宁童装|李宁儿童,河南省,南阳市,方城县,李宁儿童,方城县北新街56号,33.258012,113.007235,购物服务;专卖店;儿童用品店,B0FFHQ2JHV
281,YoungLining|李宁童装|李宁儿童,河南省,南阳市,卧龙区,李宁儿童专卖店,卧龙区梅溪路220号,32.988272,112.527295,购物服务;购物相关场所;购物相关场所,B0FFIQS0EK
282,YoungLining|李宁童装|李宁儿童,河南省,南阳市,方城县,李宁儿童,方城县北新街56号,33.258012,113.007235,购物服务;专卖店;儿童用品店,B0FFHQ2JHV
283,YoungLining|李宁童装|李宁儿童,河南省,南阳市,卧龙区,李宁儿童专卖店,卧龙区梅溪路220号,32.988272,112.527295,购物服务;购物相关场所;购物相关场所,B0FFIQS0EK
284,YoungLining|李宁童装|李宁儿童,黑龙江省,大庆市,让胡路区,李宁儿童,让胡路区潮阳街与长春路交叉口西南50米,46.601439,124.899250,购物服务;专卖店;儿童用品店,B0FFI9KBFY
285,YoungLining|李宁童装|李宁儿童,黑龙江省,大庆市,让胡路区,李宁儿童,让胡路区潮阳街与长春路交叉口西南50米,46.601439,124.899250,购物服务;专卖店;儿童用品店,B0FFI9KBFY
286,YoungLining|李宁童装|李宁儿童,云南省,丽江市,古城区,李宁(奥凯店),古城区福慧路凯德购物中心奥龙世博二楼,26.874896,100.230516,购物服务;体育用品店;李宁专卖店,B0FFH960G7
287,YoungLining|李宁童装|李宁儿童,云南省,丽江市,古城区,丽江李宁童装(和美店),古城区玉雪大道祥和商业广场C座三楼,26.853275,100.229576,购物服务;购物相关场所;购物相关场所,B0FFH95JSO
288,YoungLining|李宁童装|李宁儿童,云南省,丽江市,古城区,李宁(奥凯店),古城区福慧路凯德购物中心奥龙世博二楼,26.874896,100.230516,购物服务;体育用品店;李宁专卖店,B0FFH960G7
289,YoungLining|李宁童装|李宁儿童,云南省,丽江市,古城区,丽江李宁童装(和美店),古城区玉雪大道祥和商业广场C座三楼,26.853275,100.229576,购物服务;购物相关场所;购物相关场所,B0FFH95JSO
290,YoungLining|李宁童装|李宁儿童,辽宁省,锦州市,凌河区,李宁儿童,凌河区上海路四段2号大商集团千盛购物广场F6,41.120444,121.140981,购物服务;专卖店;儿童用品店,B0FFHOB4OX
291,YoungLining|李宁童装|李宁儿童,辽宁省,锦州市,凌河区,李宁儿童,凌河区上海路四段2号大商集团千盛购物广场F6,41.120444,121.140981,购物服务;专卖店;儿童用品店,B0FFHOB4OX
292,YoungLining|李宁童装|李宁儿童,江苏省,苏州市,张家港市,李宁KIDS(恒光国际),张家港市杨舍镇沙洲西路368号恒光国际B1层,31.868293,120.517626,购物服务;专卖店;儿童用品店,B02001C0V8
293,YoungLining|李宁童装|李宁儿童,江苏省,苏州市,张家港市,李宁KIDS(恒光国际),张家港市杨舍镇沙洲西路368号恒光国际B1层,31.868293,120.517626,购物服务;专卖店;儿童用品店,B02001C0V8
294,YoungLining|李宁童装|李宁儿童,湖南省,永州市,冷水滩区,李宁童装(永州步步高百货店),冷水滩区0陵北路步步高百货永州店4层,26.449140,111.602130,购物服务;体育用品店;李宁专卖店,B0FFHU1K5D
295,YoungLining|李宁童装|李宁儿童,湖南省,永州市,冷水滩区,红唇,冷水滩区又一巷李宁旁,26.443939,111.594384,购物服务;服装鞋帽皮具店;服装鞋帽皮具店,B0FFG37QKL
296,YoungLining|李宁童装|李宁儿童,湖南省,永州市,冷水滩区,李宁童装(永州步步高百货店),冷水滩区0陵北路步步高百货永州店4层,26.449140,111.602130,购物服务;体育用品店;李宁专卖店,B0FFHU1K5D
297,YoungLining|李宁童装|李宁儿童,湖南省,永州市,冷水滩区,红唇,冷水滩区又一巷李宁旁,26.443939,111.594384,购物服务;服装鞋帽皮具店;服装鞋帽皮具店,B0FFG37QKL
298,YoungLining|李宁童装|李宁儿童,河南省,洛阳市,洛龙区,李宁童装店,洛龙区开元路街道宝龙城市广场B区一楼,34.617489,112.466385,购物服务;购物相关场所;购物相关场所,B0FFIPZC5P
299,YoungLining|李宁童装|李宁儿童,河南省,洛阳市,洛龙区,李宁童装店,洛龙区开元路街道宝龙城市广场B区一楼,34.617489,112.466385,购物服务;购物相关场所;购物相关场所,B0FFIPZC5P
300,YoungLining|李宁童装|李宁儿童,福建省,厦门市,同安区,李宁儿童,同安区新民镇环城西路639号乐海广场3楼,24.720615,118.135618,购物服务;专卖店;专营店,B0FFHMW0YE
301,YoungLining|李宁童装|李宁儿童,福建省,厦门市,集美区,李宁(杏林东路店),集美区杏林街道杏林杏东路11号,24.564430,118.045136,购物服务;体育用品店;李宁专卖店,B0FFF5UQRF
302,YoungLining|李宁童装|李宁儿童,福建省,厦门市,同安区,李宁儿童,同安区新民镇环城西路639号乐海广场3楼,24.720615,118.135618,购物服务;专卖店;专营店,B0FFHMW0YE
303,YoungLining|李宁童装|李宁儿童,福建省,厦门市,集美区,李宁(杏林东路店),集美区杏林街道杏林杏东路11号,24.564430,118.045136,购物服务;体育用品店;李宁专卖店,B0FFF5UQRF
304,YoungLining|李宁童装|李宁儿童,内蒙古自治区,赤峰市,阿鲁科尔沁旗,李宁(天山路店),阿鲁科尔沁旗汉林西街与西市路交叉口东100米,43.877525,120.090491,购物服务;体育用品店;李宁专卖店,B01DC16MY7
305,YoungLining|李宁童装|李宁儿童,内蒙古自治区,赤峰市,巴林右旗,李宁童装清仓狂甩,巴林右旗大板镇北市街天赐家园楼下,43.530045,118.673707,购物服务;专卖店;专营店,B0FFIQ5ISP
306,YoungLining|李宁童装|李宁儿童,内蒙古自治区,赤峰市,阿鲁科尔沁旗,李宁(天山路店),阿鲁科尔沁旗汉林西街与西市路交叉口东100米,43.877525,120.090491,购物服务;体育用品店;李宁专卖店,B01DC16MY7
307,YoungLining|李宁童装|李宁儿童,内蒙古自治区,赤峰市,巴林右旗,李宁童装清仓狂甩,巴林右旗大板镇北市街天赐家园楼下,43.530045,118.673707,购物服务;专卖店;专营店,B0FFIQ5ISP
308,YoungLining|李宁童装|李宁儿童,江苏省,泰州市,海陵区,李宁童装,海陵区城东街道南通路386号茂业百货三楼,32.496981,119.927034,购物服务;体育用品店;李宁专卖店,B0FFHI9D9A
309,YoungLining|李宁童装|李宁儿童,江苏省,泰州市,海陵区,李宁童装,海陵区城东街道南通路386号茂业百货三楼,32.496981,119.927034,购物服务;体育用品店;李宁专卖店,B0FFHI9D9A
310,YoungLining|李宁童装|李宁儿童,安徽省,淮北市,相山区,李宁(淮海中路店),相山区洪山路与淮海中路交叉口东北50米,33.972920,116.791522,购物服务;专卖店;儿童用品店|购物服务;体育用品店;李宁专卖店,B0FFGRHKTA
311,YoungLining|李宁童装|李宁儿童,安徽省,淮北市,相山区,李宁(淮海中路店),相山区洪山路与淮海中路交叉口东北50米,33.972920,116.791522,购物服务;专卖店;儿童用品店|购物服务;体育用品店;李宁专卖店,B0FFGRHKTA
312,YoungLining|李宁童装|李宁儿童,河北省,承德市,隆化县,李宁童装(时代广场),隆化县隆化镇鸿兆商城三楼,41.315506,117.737991,购物服务;体育用品店;李宁专卖店,B0FFIZI02A
313,YoungLining|李宁童装|李宁儿童,河北省,承德市,隆化县,李宁童装(时代广场),隆化县隆化镇鸿兆商城三楼,41.315506,117.737991,购物服务;体育用品店;李宁专卖店,B0FFIZI02A
314,YoungLining|李宁童装|李宁儿童,辽宁省,阜新市,细河区,安踏儿童,细河区兴隆大家庭B座二楼D7街,42.015245,121.656941,购物服务;专卖店;儿童用品店,B01A20RDPA
315,YoungLining|李宁童装|李宁儿童,辽宁省,阜新市,细河区,安踏儿童,细河区兴隆大家庭B座二楼D7街,42.015245,121.656941,购物服务;专卖店;儿童用品店,B01A20RDPA
316,YoungLining|李宁童装|李宁儿童,河北省,石家庄市,桥西区,李宁(益友购物中心),桥西区裕华西路128号益友购物中心4F层,38.033954,114.450963,购物服务;体育用品店;李宁专卖店,B0FFHJDSKM
317,YoungLining|李宁童装|李宁儿童,河北省,石家庄市,桥西区,李宁(益友购物中心),桥西区裕华西路128号益友购物中心4F层,38.033954,114.450963,购物服务;体育用品店;李宁专卖店,B0FFHJDSKM
318,YoungLining|李宁童装|李宁儿童,吉林省,长春市,宽城区,李宁儿童,宽城区亚泰大街1138号新天地购物公园3楼东侧,43.899003,125.345309,购物服务;专卖店;儿童用品店,B0FFGXUR57
319,YoungLining|李宁童装|李宁儿童,吉林省,长春市,朝阳区,李宁,朝阳区红旗街道工农大路1128号欧亚商都B座6楼,43.870351,125.300852,购物服务;体育用品店;李宁专卖店,B0FFF9KZ9U
320,YoungLining|李宁童装|李宁儿童,吉林省,长春市,宽城区,李宁(住邦城市广场),宽城区青年路4255号住邦城市广场2F层,43.939620,125.292472,购物服务;体育用品店;李宁专卖店,B0FFGBUY8M
321,YoungLining|李宁童装|李宁儿童,吉林省,长春市,宽城区,李宁儿童,宽城区亚泰大街1138号新天地购物公园3楼东侧,43.899003,125.345309,购物服务;专卖店;儿童用品店,B0FFGXUR57
322,YoungLining|李宁童装|李宁儿童,吉林省,长春市,朝阳区,李宁,朝阳区红旗街道工农大路1128号欧亚商都B座6楼,43.870351,125.300852,购物服务;体育用品店;李宁专卖店,B0FFF9KZ9U
323,YoungLining|李宁童装|李宁儿童,吉林省,长春市,宽城区,李宁(住邦城市广场),宽城区青年路4255号住邦城市广场2F层,43.939620,125.292472,购物服务;体育用品店;李宁专卖店,B0FFGBUY8M
324,YoungLining|李宁童装|李宁儿童,吉林省,松原市,前郭尔罗斯蒙古族自治县,李宁儿童,前郭尔罗斯蒙古族自治县乌兰大街576号附近,45.115764,124.824035,购物服务;专卖店;儿童用品店,B0FFI0HYMD
325,YoungLining|李宁童装|李宁儿童,吉林省,松原市,前郭尔罗斯蒙古族自治县,李宁儿童,前郭尔罗斯蒙古族自治县乌兰大街576号附近,45.115764,124.824035,购物服务;专卖店;儿童用品店,B0FFI0HYMD
326,YoungLining|李宁童装|李宁儿童,四川省,攀枝花市,东区,李宁儿童,东区攀枝花大道东段与竹园巷交叉口西南50米,26.579981,101.720070,购物服务;专卖店;儿童用品店,B0FFIP1EAH
327,YoungLining|李宁童装|李宁儿童,四川省,攀枝花市,西区,李宁,西区梨康路与清香坪东街交叉口西北150米,26.594740,101.638300,购物服务;体育用品店;李宁专卖店,B0FFGKY6MB
328,YoungLining|李宁童装|李宁儿童,四川省,攀枝花市,东区,李宁(炳草岗大街店),东区商业街与炳草岗大街交叉口南50米,26.579908,101.714454,购物服务;体育用品店;李宁专卖店,B032C006DO
329,YoungLining|李宁童装|李宁儿童,四川省,攀枝花市,东区,李宁儿童,东区攀枝花大道东段与竹园巷交叉口西南50米,26.579981,101.720070,购物服务;专卖店;儿童用品店,B0FFIP1EAH
330,YoungLining|李宁童装|李宁儿童,四川省,攀枝花市,西区,李宁,西区梨康路与清香坪东街交叉口西北150米,26.594740,101.638300,购物服务;体育用品店;李宁专卖店,B0FFGKY6MB
331,YoungLining|李宁童装|李宁儿童,四川省,攀枝花市,东区,李宁(炳草岗大街店),东区商业街与炳草岗大街交叉口南50米,26.579908,101.714454,购物服务;体育用品店;李宁专卖店,B032C006DO
332,YoungLining|李宁童装|李宁儿童,河南省,郑州市,金水区,李宁儿童,金水区文化路82号附近,34.796493,113.665299,购物服务;专卖店;儿童用品店,B0FFHSQXBP
333,YoungLining|李宁童装|李宁儿童,河南省,郑州市,金水区,李宁(健康路超继店),金水区健康路116号超继100运动城1层,34.768541,113.663940,购物服务;体育用品店;李宁专卖店,B017315UW0
334,YoungLining|李宁童装|李宁儿童,河南省,郑州市,新密市,李宁(青屏大街),新密市青屏大街30号,34.539095,113.383267,购物服务;体育用品店;李宁专卖店,B017316JTD
335,YoungLining|李宁童装|李宁儿童,河南省,郑州市,新郑市,李宁(新郑店),新郑市洧水路115号,34.392759,113.736954,购物服务;体育用品店;李宁专卖店,B0FFF5WP2F
336,YoungLining|李宁童装|李宁儿童,河南省,郑州市,金水区,李宁KIDS(健康路利康店),金水区优胜北路6号优胜小学校楼下,34.769096,113.660018,购物服务;专卖店;儿童用品店,B0FFHZT58U
337,YoungLining|李宁童装|李宁儿童,河南省,郑州市,金水区,李宁(丹尼斯·大卫城),金水区二七路与西太康路交叉口西北丹尼斯·大卫城F9层,34.757507,113.665824,购物服务;专卖店;儿童用品店,B0FFIIT7Q1
338,YoungLining|李宁童装|李宁儿童,河南省,郑州市,中原区,李宁(万达广场),中原区中原中路171号万达广场6F层,34.746632,113.602010,购物服务;专卖店;儿童用品店,B0FFHD635O
339,YoungLining|李宁童装|李宁儿童,河南省,郑州市,金水区,李宁KIDS(丹尼斯·大卫城),金水区二七路与西太康路交叉口西北丹尼斯·大卫城F9层,34.757507,113.665774,购物服务;专卖店;儿童用品店,B0FFI6917C
340,YoungLining|李宁童装|李宁儿童,河南省,郑州市,金水区,李宁儿童,金水区文化路82号附近,34.796493,113.665299,购物服务;专卖店;儿童用品店,B0FFHSQXBP
341,YoungLining|李宁童装|李宁儿童,河南省,郑州市,金水区,李宁(健康路超继店),金水区健康路116号超继100运动城1层,34.768541,113.663940,购物服务;体育用品店;李宁专卖店,B017315UW0
342,YoungLining|李宁童装|李宁儿童,河南省,郑州市,新密市,李宁(青屏大街),新密市青屏大街30号,34.539095,113.383267,购物服务;体育用品店;李宁专卖店,B017316JTD
343,YoungLining|李宁童装|李宁儿童,河南省,郑州市,新郑市,李宁(新郑店),新郑市洧水路115号,34.392759,113.736954,购物服务;体育用品店;李宁专卖店,B0FFF5WP2F
344,YoungLining|李宁童装|李宁儿童,河南省,郑州市,金水区,李宁KIDS(健康路利康店),金水区优胜北路6号优胜小学校楼下,34.769096,113.660018,购物服务;专卖店;儿童用品店,B0FFHZT58U
345,YoungLining|李宁童装|李宁儿童,河南省,郑州市,金水区,李宁(丹尼斯·大卫城),金水区二七路与西太康路交叉口西北丹尼斯·大卫城F9层,34.757507,113.665824,购物服务;专卖店;儿童用品店,B0FFIIT7Q1
346,YoungLining|李宁童装|李宁儿童,河南省,郑州市,中原区,李宁(万达广场),中原区中原中路171号万达广场6F层,34.746632,113.602010,购物服务;专卖店;儿童用品店,B0FFHD635O
347,YoungLining|李宁童装|李宁儿童,河南省,郑州市,金水区,李宁KIDS(丹尼斯·大卫城),金水区二七路与西太康路交叉口西北丹尼斯·大卫城F9层,34.757507,113.665774,购物服务;专卖店;儿童用品店,B0FFI6917C
348,YoungLining|李宁童装|李宁儿童,湖北省,荆门市,钟祥市,李宁,钟祥市王府大道中百广场4层,31.177325,112.588968,购物服务;体育用品店;李宁专卖店,B0FFG0KZCV
349,YoungLining|李宁童装|李宁儿童,湖北省,荆门市,钟祥市,李宁,钟祥市王府大道中百广场4层,31.177325,112.588968,购物服务;体育用品店;李宁专卖店,B0FFG0KZCV
350,YoungLining|李宁童装|李宁儿童,河南省,周口市,川汇区,李宁儿童,川汇区育新街9号楼附近,33.615336,114.665766,购物服务;专卖店;儿童用品店,B0FFHMUKZP
351,YoungLining|李宁童装|李宁儿童,河南省,周口市,川汇区,李宁儿童,川汇区育新街9号楼附近,33.615336,114.665766,购物服务;专卖店;儿童用品店,B0FFHMUKZP
352,YoungLining|李宁童装|李宁儿童,四川省,凉山彝族自治州,西昌市,李宁儿童,西昌市三岔口西路(星光苑A区东),27.888157,102.263369,购物服务;专卖店;儿童用品店,B0FFHV3YV5
353,YoungLining|李宁童装|李宁儿童,四川省,凉山彝族自治州,西昌市,李宁(商业街一段店),西昌市名店街11幢-2楼,27.889954,102.264215,购物服务;体育用品店;李宁专卖店,B03420OIZK
354,YoungLining|李宁童装|李宁儿童,四川省,凉山彝族自治州,西昌市,李宁儿童,西昌市三岔口西路(星光苑A区东),27.888157,102.263369,购物服务;专卖店;儿童用品店,B0FFHV3YV5
355,YoungLining|李宁童装|李宁儿童,四川省,凉山彝族自治州,西昌市,李宁(商业街一段店),西昌市名店街11幢-2楼,27.889954,102.264215,购物服务;体育用品店;李宁专卖店,B03420OIZK
356,YoungLining|李宁童装|李宁儿童,陕西省,咸阳市,渭城区,李宁(乐育南路),渭城区人民中路3号世纪金花购物中心B1,34.336147,108.716547,购物服务;体育用品店;李宁专卖店,B0FFGDPPYB
357,YoungLining|李宁童装|李宁儿童,陕西省,咸阳市,渭城区,李宁(乐育南路),渭城区人民中路3号世纪金花购物中心B1,34.336147,108.716547,购物服务;体育用品店;李宁专卖店,B0FFGDPPYB
358,YoungLining|李宁童装|李宁儿童,山西省,晋中市,榆次区,李宁儿童,榆次区印象城沃尔玛三层世跑运动城,37.704159,112.737617,购物服务;购物相关场所;购物相关场所,B0FFIVUTVP
359,YoungLining|李宁童装|李宁儿童,山西省,晋中市,榆次区,李宁儿童,榆次区印象城沃尔玛三层世跑运动城,37.704159,112.737617,购物服务;购物相关场所;购物相关场所,B0FFIVUTVP
360,YoungLining|李宁童装|李宁儿童,山东省,滨州市,滨城区,李宁儿童(银座商城),滨城区渤海十路719号银座商城F4层,37.381817,118.000565,购物服务;服装鞋帽皮具店;品牌服装店,B0FFHUNJYT
361,YoungLining|李宁童装|李宁儿童,山东省,滨州市,博兴县,小李宁童装专柜,博兴县银座商城三楼,37.142185,118.131485,购物服务;购物相关场所;购物相关场所,B0FFIS2B95
362,YoungLining|李宁童装|李宁儿童,山东省,滨州市,滨城区,李宁儿童(银座商城),滨城区渤海十路719号银座商城F4层,37.381817,118.000565,购物服务;服装鞋帽皮具店;品牌服装店,B0FFHUNJYT
363,YoungLining|李宁童装|李宁儿童,山东省,滨州市,博兴县,小李宁童装专柜,博兴县银座商城三楼,37.142185,118.131485,购物服务;购物相关场所;购物相关场所,B0FFIS2B95
364,YoungLining|李宁童装|李宁儿童,黑龙江省,双鸭山市,尖山区,李宁(双鸭山亚萍体育店),尖山区五马路新玛特购物广场负一层,46.640594,131.157196,购物服务;体育用品店;李宁专卖店,B0FFG2YTDB
365,YoungLining|李宁童装|李宁儿童,黑龙江省,双鸭山市,尖山区,李宁(双鸭山亚萍体育店),尖山区五马路新玛特购物广场负一层,46.640594,131.157196,购物服务;体育用品店;李宁专卖店,B0FFG2YTDB
366,YoungLining|李宁童装|李宁儿童,山东省,烟台市,莱山区,李宁(振华商厦迎春大街店),莱山区迎春大街253号振华商厦(迎春大街店)F5层,37.452729,121.430245,购物服务;体育用品店;李宁专卖店,B0FFGBMWHS
367,YoungLining|李宁童装|李宁儿童,山东省,烟台市,龙口市,李宁(博商购物广场),龙口市东莱街258号博商购物广场F5层,37.646329,120.529774,购物服务;专卖店;儿童用品店,B0FFI5MO9Z
368,YoungLining|李宁童装|李宁儿童,山东省,烟台市,莱山区,李宁(振华商厦迎春大街店),莱山区迎春大街253号振华商厦(迎春大街店)F5层,37.452729,121.430245,购物服务;体育用品店;李宁专卖店,B0FFGBMWHS
369,YoungLining|李宁童装|李宁儿童,山东省,烟台市,龙口市,李宁(博商购物广场),龙口市东莱街258号博商购物广场F5层,37.646329,120.529774,购物服务;专卖店;儿童用品店,B0FFI5MO9Z
370,YoungLining|李宁童装|李宁儿童,湖南省,衡阳市,蒸湘区,李宁儿童,蒸湘区解放大道21号晓鸡汤菜馆,26.892136,112.567834,购物服务;专卖店;儿童用品店,B0FFHU6WVX
371,YoungLining|李宁童装|李宁儿童,湖南省,衡阳市,蒸湘区,李宁儿童,蒸湘区解放大道21号晓鸡汤菜馆,26.892136,112.567834,购物服务;专卖店;儿童用品店,B0FFHU6WVX
372,YoungLining|李宁童装|李宁儿童,河北省,保定市,徐水区,李宁儿童,徐水区安肃镇徐百购物二楼,39.017125,115.644325,购物服务;专卖店;儿童用品店,B0FFHZ2VC1
373,YoungLining|李宁童装|李宁儿童,河北省,保定市,涿州市,李宁儿童,涿州市三义街与学校路交叉口东南100米,39.416035,115.944044,购物服务;专卖店;儿童用品店,B0FFHU3BOG
374,YoungLining|李宁童装|李宁儿童,河北省,保定市,涿州市,李宁(东大街),涿州市东大街62号,39.486409,115.974931,购物服务;体育用品店;李宁专卖店,B01380QBM9
375,YoungLining|李宁童装|李宁儿童,河北省,保定市,涿州市,李宁(中铁建工集团医院西北),涿州市范阳路市政府对面,39.484913,115.973800,购物服务;体育用品店;李宁专卖店,B0FFIL8AI7
376,YoungLining|李宁童装|李宁儿童,河北省,保定市,涿州市,涿州李宁匡威儿童集合店,涿州市范阳西路84号,39.484858,115.973804,购物服务;专卖店;专营店,B0FFILWYNJ
377,YoungLining|李宁童装|李宁儿童,河北省,保定市,徐水区,李宁儿童,徐水区安肃镇徐百购物二楼,39.017125,115.644325,购物服务;专卖店;儿童用品店,B0FFHZ2VC1
378,YoungLining|李宁童装|李宁儿童,河北省,保定市,涿州市,李宁儿童,涿州市三义街与学校路交叉口东南100米,39.416035,115.944044,购物服务;专卖店;儿童用品店,B0FFHU3BOG
379,YoungLining|李宁童装|李宁儿童,河北省,保定市,涿州市,李宁(东大街),涿州市东大街62号,39.486409,115.974931,购物服务;体育用品店;李宁专卖店,B01380QBM9
380,YoungLining|李宁童装|李宁儿童,河北省,保定市,涿州市,李宁(中铁建工集团医院西北),涿州市范阳路市政府对面,39.484913,115.973800,购物服务;体育用品店;李宁专卖店,B0FFIL8AI7
381,YoungLining|李宁童装|李宁儿童,河北省,保定市,涿州市,涿州李宁匡威儿童集合店,涿州市范阳西路84号,39.484858,115.973804,购物服务;专卖店;专营店,B0FFILWYNJ
382,YoungLining|李宁童装|李宁儿童,内蒙古自治区,锡林郭勒盟,锡林浩特市,李宁童装店,锡林浩特市广达欣城2号楼7号商铺,43.926277,116.077384,购物服务;体育用品店;李宁专卖店,B0FFGKXRKH
383,YoungLining|李宁童装|李宁儿童,内蒙古自治区,锡林郭勒盟,锡林浩特市,李宁童装店,锡林浩特市广达欣城2号楼7号商铺,43.926277,116.077384,购物服务;体育用品店;李宁专卖店,B0FFGKXRKH
384,YoungLining|李宁童装|李宁儿童,安徽省,安庆市,潜山县,李宁儿童(潜山店),潜山县梅城镇南岳路369号一楼,30.631541,116.576530,购物服务;购物相关场所;购物相关场所,B0FFIEBQZW
385,YoungLining|李宁童装|李宁儿童,安徽省,安庆市,怀宁县,李宁(皖河路店),怀宁县高河镇皖河路25号,30.723977,116.832763,购物服务;体育用品店;李宁专卖店,B0FFG6DJDE
386,YoungLining|李宁童装|李宁儿童,安徽省,安庆市,潜山县,李宁儿童(潜山店),潜山县梅城镇南岳路369号一楼,30.631541,116.576530,购物服务;购物相关场所;购物相关场所,B0FFIEBQZW
387,YoungLining|李宁童装|李宁儿童,安徽省,安庆市,怀宁县,李宁(皖河路店),怀宁县高河镇皖河路25号,30.723977,116.832763,购物服务;体育用品店;李宁专卖店,B0FFG6DJDE
388,YoungLining|李宁童装|李宁儿童,江苏省,徐州市,邳州市,李宁儿童鞋服,邳州市人民路与民主路交叉口西北100米,34.311485,117.962981,购物服务;体育用品店;李宁专卖店,B0FFIWASVL
389,YoungLining|李宁童装|李宁儿童,江苏省,徐州市,邳州市,李宁儿童鞋服,邳州市人民路与民主路交叉口西北100米,34.311485,117.962981,购物服务;体育用品店;李宁专卖店,B0FFIWASVL
390,YoungLining|李宁童装|李宁儿童,河南省,漯河市,源汇区,李宁童装,源汇区交通路新玛特3楼,33.576916,114.038080,购物服务;体育用品店;户外用品,B018B007QT
391,YoungLining|李宁童装|李宁儿童,河南省,漯河市,源汇区,李宁童装,源汇区交通路新玛特3楼,33.576916,114.038080,购物服务;体育用品店;户外用品,B018B007QT
392,YoungLining|李宁童装|李宁儿童,山西省,阳泉市,城区,主题·印象,城区兴隆街3号底商(李宁专卖店旁),37.861558,113.586355,购物服务;服装鞋帽皮具店;服装鞋帽皮具店,B0FFIZXA4J
393,YoungLining|李宁童装|李宁儿童,山西省,阳泉市,城区,主题·印象,城区兴隆街3号底商(李宁专卖店旁),37.861558,113.586355,购物服务;服装鞋帽皮具店;服装鞋帽皮具店,B0FFIZXA4J
394,YoungLining|李宁童装|李宁儿童,河南省,濮阳市,华龙区,李宁KIDS,华龙区振兴中路与边前街交叉口东北50米,35.767086,115.031791,购物服务;专卖店;儿童用品店,B0FFGJXZXV
395,YoungLining|李宁童装|李宁儿童,河南省,濮阳市,华龙区,李宁KIDS,华龙区振兴中路与边前街交叉口东北50米,35.767086,115.031791,购物服务;专卖店;儿童用品店,B0FFGJXZXV
396,YoungLining|李宁童装|李宁儿童,江西省,上饶市,信州区,李宁(信江中路步行街店),信州区信江东路32号附近,28.440351,117.972083,购物服务;体育用品店;李宁专卖店,B031900A2Y
397,YoungLining|李宁童装|李宁儿童,江西省,上饶市,信州区,李宁(信江中路步行街店),信州区信江东路32号附近,28.440351,117.972083,购物服务;体育用品店;李宁专卖店,B031900A2Y
398,YoungLining|李宁童装|李宁儿童,江苏省,连云港市,灌云县,李宁KIDS,灌云县伊山中路15号附近,34.298405,119.254606,购物服务;专卖店;儿童用品店,B020601U9C
399,YoungLining|李宁童装|李宁儿童,江苏省,连云港市,灌云县,潮の袋,灌云县同兴巷10号,34.300779,119.257214,购物服务;专卖店;专营店,B0FFHDRUM1
400,YoungLining|李宁童装|李宁儿童,江苏省,连云港市,灌云县,李宁KIDS,灌云县伊山中路15号附近,34.298405,119.254606,购物服务;专卖店;儿童用品店,B020601U9C
401,YoungLining|李宁童装|李宁儿童,江苏省,连云港市,灌云县,潮の袋,灌云县同兴巷10号,34.300779,119.257214,购物服务;专卖店;专营店,B0FFHDRUM1
402,YoungLining|李宁童装|李宁儿童,四川省,宜宾市,宜宾县,李宁儿童,宜宾县柏溪镇三角路南段23-25,28.691209,104.535642,购物服务;购物相关场所;购物相关场所,B0FFH3JPFC
403,YoungLining|李宁童装|李宁儿童,四川省,宜宾市,宜宾县,李宁童装,宜宾县观音镇保卫街1号,29.093334,104.397769,购物服务;体育用品店;李宁专卖店,B0FFHSDWRV
404,YoungLining|李宁童装|李宁儿童,四川省,宜宾市,翠屏区,李宁,翠屏区航天路中段丽雅百货4楼,28.755531,104.648807,购物服务;专卖店;儿童用品店,B0FFHE2I91
405,YoungLining|李宁童装|李宁儿童,四川省,宜宾市,宜宾县,李宁儿童,宜宾县柏溪镇三角路南段23-25,28.691209,104.535642,购物服务;购物相关场所;购物相关场所,B0FFH3JPFC
406,YoungLining|李宁童装|李宁儿童,四川省,宜宾市,宜宾县,李宁童装,宜宾县观音镇保卫街1号,29.093334,104.397769,购物服务;体育用品店;李宁专卖店,B0FFHSDWRV
407,YoungLining|李宁童装|李宁儿童,四川省,宜宾市,翠屏区,李宁,翠屏区航天路中段丽雅百货4楼,28.755531,104.648807,购物服务;专卖店;儿童用品店,B0FFHE2I91
408,YoungLining|李宁童装|李宁儿童,山西省,大同市,城区,李宁儿童专卖店,城区永泰南路沃尔玛下沉广场,40.069560,113.304271,购物服务;购物相关场所;购物相关场所,B0FFHUXH5L
409,YoungLining|李宁童装|李宁儿童,山西省,大同市,城区,李宁儿童专卖店,城区永泰南路沃尔玛下沉广场,40.069560,113.304271,购物服务;购物相关场所;购物相关场所,B0FFHUXH5L
410,YoungLining|李宁童装|李宁儿童,陕西省,安康市,旬阳县,李宁儿童专卖店,旬阳县南方百货三楼,32.830541,109.370645,购物服务;购物相关场所;购物相关场所,B0FFIFDO5A
411,YoungLining|李宁童装|李宁儿童,陕西省,安康市,旬阳县,李宁儿童专卖店,旬阳县南方百货三楼,32.830541,109.370645,购物服务;购物相关场所;购物相关场所,B0FFIFDO5A
412,YoungLining|李宁童装|李宁儿童,山东省,潍坊市,安丘市,李宁儿童,安丘市新安路泰华城沿街174号泰华城F3,36.426854,119.228172,购物服务;专卖店;儿童用品店,B0FFH1WH6P
413,YoungLining|李宁童装|李宁儿童,山东省,潍坊市,诸城市,李宁儿童,诸城市密州街道和平街1号诸城购物广场4楼,36.007771,119.407355,购物服务;专卖店;儿童用品店,B0FFFPTLUY
414,YoungLining|李宁童装|李宁儿童,山东省,潍坊市,青州市,李宁,青州市范公亭路与昭德路交汇处泰华城2层,36.684753,118.515410,购物服务;专卖店;专营店,B0FFG34QOP
415,YoungLining|李宁童装|李宁儿童,山东省,潍坊市,奎文区,李宁(潍坊财富广场银座店),奎文区胜利东街141号银座商城(中心店)3层,36.705043,119.155942,购物服务;体育用品店;李宁专卖店,B0FFF2ZC6G
416,YoungLining|李宁童装|李宁儿童,山东省,潍坊市,诸城市,李宁(西关大街店),诸城市西关大街207号,35.992775,119.404375,购物服务;体育用品店;李宁专卖店,B0218036IU
417,YoungLining|李宁童装|李宁儿童,山东省,潍坊市,昌邑市,李宁(全福元),昌邑市利民街387号全福元F3层,36.854822,119.398993,购物服务;服装鞋帽皮具店;品牌服装店|购物服务;体育用品店;李宁专卖店,B0FFG0WVHF
418,YoungLining|李宁童装|李宁儿童,山东省,潍坊市,临朐县,李宁(中百大厦),临朐县兴隆路146号中百大厦F4层,36.519314,118.541691,购物服务;专卖店;儿童用品店,B0FFI5W6LZ
419,YoungLining|李宁童装|李宁儿童,山东省,潍坊市,潍城区,李宁KIDS,潍城区东街泰华城假日广场二楼,36.707024,119.107248,购物服务;专卖店;儿童用品店|购物服务;体育用品店;李宁专卖店,B0FFIW8QZY
420,YoungLining|李宁童装|李宁儿童,山东省,潍坊市,临朐县,李宁YOUNG,临朐县兴隆路92号全福元F3,36.519214,118.545565,购物服务;专卖店;专营店,B0FFJ55HC2
421,YoungLining|李宁童装|李宁儿童,山东省,潍坊市,奎文区,YOUNG LINING,奎文区东风东街7819号潍坊凯德广场F1,36.714626,119.150430,购物服务;专卖店;专营店,B0FFJ4OLKM
422,YoungLining|李宁童装|李宁儿童,山东省,潍坊市,安丘市,李宁儿童,安丘市新安路泰华城沿街174号泰华城F3,36.426854,119.228172,购物服务;专卖店;儿童用品店,B0FFH1WH6P
423,YoungLining|李宁童装|李宁儿童,山东省,潍坊市,诸城市,李宁儿童,诸城市密州街道和平街1号诸城购物广场4楼,36.007771,119.407355,购物服务;专卖店;儿童用品店,B0FFFPTLUY
424,YoungLining|李宁童装|李宁儿童,山东省,潍坊市,青州市,李宁,青州市范公亭路与昭德路交汇处泰华城2层,36.684753,118.515410,购物服务;专卖店;专营店,B0FFG34QOP
425,YoungLining|李宁童装|李宁儿童,山东省,潍坊市,奎文区,李宁(潍坊财富广场银座店),奎文区胜利东街141号银座商城(中心店)3层,36.705043,119.155942,购物服务;体育用品店;李宁专卖店,B0FFF2ZC6G
426,YoungLining|李宁童装|李宁儿童,山东省,潍坊市,诸城市,李宁(西关大街店),诸城市西关大街207号,35.992775,119.404375,购物服务;体育用品店;李宁专卖店,B0218036IU
427,YoungLining|李宁童装|李宁儿童,山东省,潍坊市,昌邑市,李宁(全福元),昌邑市利民街387号全福元F3层,36.854822,119.398993,购物服务;服装鞋帽皮具店;品牌服装店|购物服务;体育用品店;李宁专卖店,B0FFG0WVHF
428,YoungLining|李宁童装|李宁儿童,山东省,潍坊市,临朐县,李宁(中百大厦),临朐县兴隆路146号中百大厦F4层,36.519314,118.541691,购物服务;专卖店;儿童用品店,B0FFI5W6LZ
429,YoungLining|李宁童装|李宁儿童,山东省,潍坊市,潍城区,李宁KIDS,潍城区东街泰华城假日广场二楼,36.707024,119.107248,购物服务;专卖店;儿童用品店|购物服务;体育用品店;李宁专卖店,B0FFIW8QZY
430,YoungLining|李宁童装|李宁儿童,山东省,潍坊市,临朐县,李宁YOUNG,临朐县兴隆路92号全福元F3,36.519214,118.545565,购物服务;专卖店;专营店,B0FFJ55HC2
431,YoungLining|李宁童装|李宁儿童,山东省,潍坊市,奎文区,YOUNG LINING,奎文区东风东街7819号潍坊凯德广场F1,36.714626,119.150430,购物服务;专卖店;专营店,B0FFJ4OLKM
432,YoungLining|李宁童装|李宁儿童,黑龙江省,齐齐哈尔市,龙沙区,李宁(龙沙路店),龙沙区百货大楼对面,47.344955,123.956353,购物服务;体育用品店;李宁专卖店,B0FFFP9OL5
433,YoungLining|李宁童装|李宁儿童,黑龙江省,齐齐哈尔市,龙沙区,李宁(龙沙路店),龙沙区百货大楼对面,47.344955,123.956353,购物服务;体育用品店;李宁专卖店,B0FFFP9OL5
434,YoungLining|李宁童装|李宁儿童,辽宁省,沈阳市,和平区,李宁KIDS,和平区彩塔街33号朵朵童世界儿童体验式购物中心B1层,41.774236,123.433529,购物服务;体育用品店;李宁专卖店,B0FFH2UWSC
435,YoungLining|李宁童装|李宁儿童,辽宁省,沈阳市,和平区,李宁KIDS,和平区彩塔街33号朵朵童世界儿童体验式购物中心B1层,41.774236,123.433529,购物服务;体育用品店;李宁专卖店,B0FFH2UWSC
436,YoungLining|李宁童装|李宁儿童,上海市,上海市,杨浦区,李宁童装(大西洋百货),杨浦区翔殷路1128号大西洋百货M层,31.300993,121.517079,购物服务;服装鞋帽皮具店;品牌服装店,B0FFHOSC0X
437,YoungLining|李宁童装|李宁儿童,上海市,上海市,黄浦区,李宁(上海市第一百货商店),黄浦区南京东路819号南京路步行街(西藏中路)7层,31.234889,121.474724,购物服务;体育用品店;李宁专卖店,B0FFJ2O412
438,YoungLining|李宁童装|李宁儿童,上海市,上海市,杨浦区,李宁童装(大西洋百货),杨浦区翔殷路1128号大西洋百货M层,31.300993,121.517079,购物服务;服装鞋帽皮具店;品牌服装店,B0FFHOSC0X
439,YoungLining|李宁童装|李宁儿童,上海市,上海市,黄浦区,李宁(上海市第一百货商店),黄浦区南京东路819号南京路步行街(西藏中路)7层,31.234889,121.474724,购物服务;体育用品店;李宁专卖店,B0FFJ2O412
440,YoungLining|李宁童装|李宁儿童,山东省,淄博市,张店区,李宁,张店区金晶大道125号淄博商厦3层,36.802061,118.058309,购物服务;体育用品店;李宁专卖店,B0FFH1G2OF
441,YoungLining|李宁童装|李宁儿童,山东省,淄博市,沂源县,小李宁童装店,沂源县健康路618电台南,36.186058,118.164169,购物服务;购物相关场所;购物相关场所,B0FFJ0PVSH
442,YoungLining|李宁童装|李宁儿童,山东省,淄博市,博山区,李宁(博山银座店),博山区中心路40号银座商城4层,36.494530,117.860724,购物服务;体育用品店;李宁专卖店,B0FFF295KW
443,YoungLining|李宁童装|李宁儿童,山东省,淄博市,张店区,李宁KIDS(名尚银泰城),张店区鲁泰大道9号名尚银泰城F3层,36.848516,118.034403,购物服务;专卖店;儿童用品店,B0FFH2DYNM
444,YoungLining|李宁童装|李宁儿童,山东省,淄博市,张店区,李宁,张店区金晶大道125号淄博商厦3层,36.802061,118.058309,购物服务;体育用品店;李宁专卖店,B0FFH1G2OF
445,YoungLining|李宁童装|李宁儿童,山东省,淄博市,沂源县,小李宁童装店,沂源县健康路618电台南,36.186058,118.164169,购物服务;购物相关场所;购物相关场所,B0FFJ0PVSH
446,YoungLining|李宁童装|李宁儿童,山东省,淄博市,博山区,李宁(博山银座店),博山区中心路40号银座商城4层,36.494530,117.860724,购物服务;体育用品店;李宁专卖店,B0FFF295KW
447,YoungLining|李宁童装|李宁儿童,山东省,淄博市,张店区,李宁KIDS(名尚银泰城),张店区鲁泰大道9号名尚银泰城F3层,36.848516,118.034403,购物服务;专卖店;儿童用品店,B0FFH2DYNM
448,YoungLining|李宁童装|李宁儿童,山西省,太原市,迎泽区,李宁儿童,迎泽区朝阳街16山西东方红品牌服饰中心-1层,37.854696,112.589278,购物服务;专卖店;儿童用品店,B0FFG2DCZX
449,YoungLining|李宁童装|李宁儿童,山西省,太原市,迎泽区,李宁童装(妈妈宝贝南沙河店),迎泽区老军营街道南内环街179号妈妈宝贝三层,37.840580,112.542180,购物服务;体育用品店;李宁专卖店,B0FFGYHAHF
450,YoungLining|李宁童装|李宁儿童,山西省,太原市,迎泽区,李宁(开化寺街店),迎泽区柳巷茂业商场4层李宁专卖店,37.864874,112.562571,购物服务;体育用品店;李宁专卖店,B015F0IEEX
451,YoungLining|李宁童装|李宁儿童,山西省,太原市,万柏林区,李宁(气化街),万柏林区气化街汽运三小区西侧,37.852835,112.511438,购物服务;体育用品店;李宁专卖店,B0FFG4O93W
452,YoungLining|李宁童装|李宁儿童,山西省,太原市,万柏林区,李宁(喜宝时光儿童城发展有限公司),万柏林区和平南路9号喜宝·时光儿童城F1,37.856451,112.510347,购物服务;专卖店;专营店,B0FFHC9451
453,YoungLining|李宁童装|李宁儿童,山西省,太原市,小店区,李宁专柜,小店区长风街705号和信时尚商城4层,37.818838,112.556380,购物服务;体育用品店;李宁专卖店|购物服务;专卖店;儿童用品店,B0FFHLGQEL
454,YoungLining|李宁童装|李宁儿童,山西省,太原市,小店区,李宁KIDS(茂业天地),小店区亲贤街与体育路交汇处(紧邻山西省体育中心)茂业天地B1层,37.824078,112.567002,购物服务;专卖店;儿童用品店,B0FFHU5XMK
455,YoungLining|李宁童装|李宁儿童,山西省,太原市,迎泽区,李宁儿童,迎泽区朝阳街16山西东方红品牌服饰中心-1层,37.854696,112.589278,购物服务;专卖店;儿童用品店,B0FFG2DCZX
456,YoungLining|李宁童装|李宁儿童,山西省,太原市,迎泽区,李宁童装(妈妈宝贝南沙河店),迎泽区老军营街道南内环街179号妈妈宝贝三层,37.840580,112.542180,购物服务;体育用品店;李宁专卖店,B0FFGYHAHF
457,YoungLining|李宁童装|李宁儿童,山西省,太原市,迎泽区,李宁(开化寺街店),迎泽区柳巷茂业商场4层李宁专卖店,37.864874,112.562571,购物服务;体育用品店;李宁专卖店,B015F0IEEX
458,YoungLining|李宁童装|李宁儿童,山西省,太原市,万柏林区,李宁(气化街),万柏林区气化街汽运三小区西侧,37.852835,112.511438,购物服务;体育用品店;李宁专卖店,B0FFG4O93W
459,YoungLining|李宁童装|李宁儿童,山西省,太原市,万柏林区,李宁(喜宝时光儿童城发展有限公司),万柏林区和平南路9号喜宝·时光儿童城F1,37.856451,112.510347,购物服务;专卖店;专营店,B0FFHC9451
460,YoungLining|李宁童装|李宁儿童,山西省,太原市,小店区,李宁专柜,小店区长风街705号和信时尚商城4层,37.818838,112.556380,购物服务;体育用品店;李宁专卖店|购物服务;专卖店;儿童用品店,B0FFHLGQEL
461,YoungLining|李宁童装|李宁儿童,山西省,太原市,小店区,李宁KIDS(茂业天地),小店区亲贤街与体育路交汇处(紧邻山西省体育中心)茂业天地B1层,37.824078,112.567002,购物服务;专卖店;儿童用品店,B0FFHU5XMK
462,YoungLining|李宁童装|李宁儿童,江苏省,盐城市,亭湖区,小李宁童装柜,亭湖区建军中路金鹰二楼,33.382281,120.131771,购物服务;购物相关场所;购物相关场所,B0FFILZ2E3
463,YoungLining|李宁童装|李宁儿童,江苏省,盐城市,亭湖区,李宁KIDS(盐城商业大厦),亭湖区建军中路132号盐城商业大厦5F层,33.382489,120.132015,购物服务;专卖店;儿童用品店,B0FFHXPUK1
464,YoungLining|李宁童装|李宁儿童,江苏省,盐城市,亭湖区,李宁KIDS,亭湖区人民中路9号宝龙城市广场F3,33.361878,120.152517,购物服务;专卖店;儿童用品店,B0FFF2TDYN
465,YoungLining|李宁童装|李宁儿童,江苏省,盐城市,亭湖区,小李宁童装柜,亭湖区建军中路金鹰二楼,33.382281,120.131771,购物服务;购物相关场所;购物相关场所,B0FFILZ2E3
466,YoungLining|李宁童装|李宁儿童,江苏省,盐城市,亭湖区,李宁KIDS(盐城商业大厦),亭湖区建军中路132号盐城商业大厦5F层,33.382489,120.132015,购物服务;专卖店;儿童用品店,B0FFHXPUK1
467,YoungLining|李宁童装|李宁儿童,江苏省,盐城市,亭湖区,李宁KIDS,亭湖区人民中路9号宝龙城市广场F3,33.361878,120.152517,购物服务;专卖店;儿童用品店,B0FFF2TDYN
468,YoungLining|李宁童装|李宁儿童,广西壮族自治区,南宁市,青秀区,李宁体育园,青秀区凤岭南路13号,22.79992,108.412055,体育休闲服务;运动场馆;综合体育馆,B030307E5P
469,YoungLining|李宁童装|李宁儿童,广西壮族自治区,南宁市,青秀区,LI-NING折扣店(王府井百货南宁店),青秀区新民路4号王府井百货(南宁店)F5层,22.807438,108.329142,购物服务;体育用品店;李宁专卖店|购物服务;服装鞋帽皮具店;品牌服装店,B0FFHS91Y8
470,YoungLining|李宁童装|李宁儿童,广西壮族自治区,南宁市,青秀区,LI-NING KIDS(王府井百货南宁店),青秀区新民路4号王府井百货(南宁店)B1层,22.806648,108.328729,购物服务;体育用品店;李宁专卖店,B0FFHLYKH4
471,YoungLining|李宁童装|李宁儿童,广西壮族自治区,南宁市,青秀区,李宁体育园,青秀区凤岭南路13号,22.79992,108.412055,体育休闲服务;运动场馆;综合体育馆,B030307E5P
472,YoungLining|李宁童装|李宁儿童,广西壮族自治区,南宁市,青秀区,LI-NING折扣店(王府井百货南宁店),青秀区新民路4号王府井百货(南宁店)F5层,22.807438,108.329142,购物服务;体育用品店;李宁专卖店|购物服务;服装鞋帽皮具店;品牌服装店,B0FFHS91Y8
473,YoungLining|李宁童装|李宁儿童,广西壮族自治区,南宁市,青秀区,LI-NING KIDS(王府井百货南宁店),青秀区新民路4号王府井百货(南宁店)B1层,22.806648,108.328729,购物服务;体育用品店;李宁专卖店,B0FFHLYKH4
474,YoungLining|李宁童装|李宁儿童,黑龙江省,绥化市,北林区,李宁(华辰商都),北林区中兴东大街254号华辰商都F4层,46.636464,126.993243,购物服务;体育用品店;李宁专卖店,B0FFHW82NL
475,YoungLining|李宁童装|李宁儿童,黑龙江省,绥化市,北林区,李宁(华辰商都),北林区中兴东大街254号华辰商都F4层,46.636464,126.993243,购物服务;体育用品店;李宁专卖店,B0FFHW82NL
476,YoungLining|李宁童装|李宁儿童,河北省,邯郸市,丛台区,李宁(河北丹兰店),丛台区和平路261号城投大厦,36.603813,114.494080,购物服务;体育用品店;李宁专卖店,B013601IMJ
477,YoungLining|李宁童装|李宁儿童,河北省,邯郸市,丛台区,李宁(河北丹兰店),丛台区和平路261号城投大厦,36.603813,114.494080,购物服务;体育用品店;李宁专卖店,B013601IMJ
478,YoungLining|李宁童装|李宁儿童,辽宁省,铁岭市,银州区,小李宁童装,银州区南马路29号大商新玛特3楼,42.298321,123.849899,购物服务;专卖店;儿童用品店,B0FFIZG2TB
479,YoungLining|李宁童装|李宁儿童,辽宁省,铁岭市,银州区,小李宁童装,银州区南马路29号大商新玛特3楼,42.298321,123.849899,购物服务;专卖店;儿童用品店,B0FFIZG2TB
480,YoungLining|李宁童装|李宁儿童,安徽省,合肥市,蜀山区,李宁(万达广场),蜀山区南二环路3818号万达广场F5层,31.819518,117.221986,购物服务;体育用品店;李宁专卖店,B0FFFR4LRA
481,YoungLining|李宁童装|李宁儿童,安徽省,合肥市,庐阳区,李宁童装专卖店,庐阳区四里河路明发商业广场港荣百货二楼,31.897448,117.234975,购物服务;体育用品店;李宁专卖店,B0FFIABJD5
482,YoungLining|李宁童装|李宁儿童,安徽省,合肥市,瑶海区,李宁,瑶海区站前路20号附近,31.885212,117.311119,购物服务;专卖店;儿童用品店,B0FFHSOZU7
483,YoungLining|李宁童装|李宁儿童,安徽省,合肥市,蜀山区,李宁KIDS(万达广场),蜀山区南二环路3818号万达广场F3层,31.819696,117.221978,购物服务;专卖店;儿童用品店,B0FFHVJ1GM
484,YoungLining|李宁童装|李宁儿童,安徽省,合肥市,蜀山区,李宁(万达广场),蜀山区南二环路3818号万达广场F5层,31.819518,117.221986,购物服务;体育用品店;李宁专卖店,B0FFFR4LRA
485,YoungLining|李宁童装|李宁儿童,安徽省,合肥市,庐阳区,李宁童装专卖店,庐阳区四里河路明发商业广场港荣百货二楼,31.897448,117.234975,购物服务;体育用品店;李宁专卖店,B0FFIABJD5
486,YoungLining|李宁童装|李宁儿童,安徽省,合肥市,瑶海区,李宁,瑶海区站前路20号附近,31.885212,117.311119,购物服务;专卖店;儿童用品店,B0FFHSOZU7
487,YoungLining|李宁童装|李宁儿童,安徽省,合肥市,蜀山区,李宁KIDS(万达广场),蜀山区南二环路3818号万达广场F3层,31.819696,117.221978,购物服务;专卖店;儿童用品店,B0FFHVJ1GM
488,YoungLining|李宁童装|李宁儿童,湖南省,娄底市,娄星区,李宁KIDS,娄星区氐新路万豪广场天虹百货4楼李宁柜,27.726645,112.006388,购物服务;专卖店;儿童用品店,B0FFHU5TOS
489,YoungLining|李宁童装|李宁儿童,湖南省,娄底市,娄星区,李宁KIDS,娄星区氐新路万豪广场天虹百货4楼李宁柜,27.726645,112.006388,购物服务;专卖店;儿童用品店,B0FFHU5TOS
490,YoungLining|李宁童装|李宁儿童,山东省,青岛市,李沧区,LI-NING(北方国贸购物广场),李沧区向阳路50号北方国贸购物广场2F层,36.157275,120.422072,购物服务;体育用品店;李宁专卖店,B0FFI12XKQ
491,YoungLining|李宁童装|李宁儿童,山东省,青岛市,李沧区,LI-NING(北方国贸购物广场),李沧区向阳路50号北方国贸购物广场2F层,36.157275,120.422072,购物服务;体育用品店;李宁专卖店,B0FFI12XKQ
492,YoungLining|李宁童装|李宁儿童,内蒙古自治区,通辽市,科尔沁区,李宁(民主路店),科尔沁区霍林河大街民主路霍尔钦书社东北侧50米,43.621376,122.262012,购物服务;体育用品店;李宁专卖店,B01DB00ADE
493,YoungLining|李宁童装|李宁儿童,内蒙古自治区,通辽市,科尔沁区,李宁(民主路店),科尔沁区霍林河大街民主路霍尔钦书社东北侧50米,43.621376,122.262012,购物服务;体育用品店;李宁专卖店,B01DB00ADE
494,YoungLining|李宁童装|李宁儿童,安徽省,阜阳市,颍州区,李宁童装,颍州区文峰街道瑞丽名城3楼儿童区,32.902096,115.801702,购物服务;体育用品店;李宁专卖店,B0FFHEZHA9
495,YoungLining|李宁童装|李宁儿童,安徽省,阜阳市,颍州区,李宁童装,颍州区文峰街道瑞丽名城3楼儿童区,32.902096,115.801702,购物服务;体育用品店;李宁专卖店,B0FFHEZHA9
496,YoungLining|李宁童装|李宁儿童,云南省,曲靖市,宣威市,李宁(西宁路店),宣威市西宁路130号附近,26.223436,104.093587,购物服务;体育用品店;李宁专卖店,B036A169X7
497,YoungLining|李宁童装|李宁儿童,云南省,曲靖市,会泽县,李宁(东直街),会泽县西直街下段,26.415943,103.302123,购物服务;体育用品店;李宁专卖店,B036A16CJ0
498,YoungLining|李宁童装|李宁儿童,云南省,曲靖市,宣威市,李宁(西宁路店),宣威市西宁路130号附近,26.223436,104.093587,购物服务;体育用品店;李宁专卖店,B036A169X7
499,YoungLining|李宁童装|李宁儿童,云南省,曲靖市,会泽县,李宁(东直街),会泽县西直街下段,26.415943,103.302123,购物服务;体育用品店;李宁专卖店,B036A16CJ0
500,YoungLining|李宁童装|李宁儿童,江苏省,无锡市,滨湖区,图图童装童鞋折扣店,滨湖区东绛镇新东国际广场188-1020号(李宁店隔壁),31.508141,120.295672,购物服务;专卖店;儿童用品店,B0FFGFC9WS
501,YoungLining|李宁童装|李宁儿童,江苏省,无锡市,梁溪区,奇诺摄影(广益哥伦布店),梁溪区广益路289号(哥伦布一期2层孩子王对面李宁楼上),31.592997,120.335038,生活服务;摄影冲印店;摄影冲印,B0FFFLVDIO
502,YoungLining|李宁童装|李宁儿童,江苏省,无锡市,滨湖区,图图童装童鞋折扣店,滨湖区东绛镇新东国际广场188-1020号(李宁店隔壁),31.508141,120.295672,购物服务;专卖店;儿童用品店,B0FFGFC9WS
503,YoungLining|李宁童装|李宁儿童,江苏省,无锡市,梁溪区,奇诺摄影(广益哥伦布店),梁溪区广益路289号(哥伦布一期2层孩子王对面李宁楼上),31.592997,120.335038,生活服务;摄影冲印店;摄影冲印,B0FFFLVDIO
504,YoungLining|李宁童装|李宁儿童,黑龙江省,伊春市,伊春区,李宁(西步行街),伊春区西步行街与通河路交叉口西南150米,47.725368,128.905258,购物服务;体育用品店;李宁专卖店,B01CA0M4QQ
505,YoungLining|李宁童装|李宁儿童,黑龙江省,伊春市,伊春区,李宁(西步行街),伊春区西步行街与通河路交叉口西南150米,47.725368,128.905258,购物服务;体育用品店;李宁专卖店,B01CA0M4QQ
506,YoungLining|李宁童装|李宁儿童,江西省,宜春市,袁州区,李宁,袁州区中山中路步步高广场5楼,27.795732,114.387548,购物服务;体育用品店;李宁专卖店,B0FFHP83F3
507,YoungLining|李宁童装|李宁儿童,江西省,宜春市,袁州区,李宁,袁州区中山中路步步高广场5楼,27.795732,114.387548,购物服务;体育用品店;李宁专卖店,B0FFHP83F3
