,brand,province,city,area,name,address,lat,lng,Type,id
0,LaBatite,湖北省,武汉市,东西湖区,LABatite,东西湖区永旺梦乐城A120,30.649443,114.237888,购物服务;购物相关场所;购物相关场所,B0FFGTASRB
1,LaBatite,湖北省,武汉市,汉阳区,La Batite,汉阳区二环线与龙阳湖北路交叉口西北100米,30.558762,114.207960,购物服务;购物相关场所;购物相关场所,B0FFFX7WV6
2,LaBatite,湖北省,武汉市,东西湖区,LABatite,东西湖区永旺梦乐城A120,30.649443,114.237888,购物服务;购物相关场所;购物相关场所,B0FFGTASRB
3,LaBatite,湖北省,武汉市,汉阳区,La Batite,汉阳区二环线与龙阳湖北路交叉口西北100米,30.558762,114.207960,购物服务;购物相关场所;购物相关场所,B0FFFX7WV6
4,LaBatite,湖北省,武汉市,东西湖区,LABatite,东西湖区永旺梦乐城A120,30.649443,114.237888,购物服务;购物相关场所;购物相关场所,B0FFGTASRB
5,LaBatite,湖北省,武汉市,汉阳区,La Batite,汉阳区二环线与龙阳湖北路交叉口西北100米,30.558762,114.207960,购物服务;购物相关场所;购物相关场所,B0FFFX7WV6
6,LaBatite,湖北省,武汉市,东西湖区,LABatite,东西湖区永旺梦乐城A120,30.649443,114.237888,购物服务;购物相关场所;购物相关场所,B0FFGTASRB
7,LaBatite,湖北省,武汉市,汉阳区,La Batite,汉阳区二环线与龙阳湖北路交叉口西北100米,30.558762,114.207960,购物服务;购物相关场所;购物相关场所,B0FFFX7WV6
8,LaBatite,湖北省,武汉市,东西湖区,LABatite,东西湖区永旺梦乐城A120,30.649443,114.237888,购物服务;购物相关场所;购物相关场所,B0FFGTASRB
9,LaBatite,湖北省,武汉市,汉阳区,La Batite,汉阳区二环线与龙阳湖北路交叉口西北100米,30.558762,114.207960,购物服务;购物相关场所;购物相关场所,B0FFFX7WV6
10,LaBatite,湖北省,武汉市,东西湖区,LABatite,东西湖区永旺梦乐城A120,30.649443,114.237888,购物服务;购物相关场所;购物相关场所,B0FFGTASRB
11,LaBatite,湖北省,武汉市,汉阳区,La Batite,汉阳区二环线与龙阳湖北路交叉口西北100米,30.558762,114.207960,购物服务;购物相关场所;购物相关场所,B0FFFX7WV6
12,LaBatite,湖北省,武汉市,东西湖区,LABatite,东西湖区永旺梦乐城A120,30.649443,114.237888,购物服务;购物相关场所;购物相关场所,B0FFGTASRB
13,LaBatite,湖北省,武汉市,汉阳区,La Batite,汉阳区二环线与龙阳湖北路交叉口西北100米,30.558762,114.207960,购物服务;购物相关场所;购物相关场所,B0FFFX7WV6
14,LaBatite,湖北省,武汉市,东西湖区,LABatite,东西湖区永旺梦乐城A120,30.649443,114.237888,购物服务;购物相关场所;购物相关场所,B0FFGTASRB
15,LaBatite,湖北省,武汉市,汉阳区,La Batite,汉阳区二环线与龙阳湖北路交叉口西北100米,30.558762,114.207960,购物服务;购物相关场所;购物相关场所,B0FFFX7WV6
16,LaBatite,湖北省,武汉市,东西湖区,LABatite,东西湖区永旺梦乐城A120,30.649443,114.237888,购物服务;购物相关场所;购物相关场所,B0FFGTASRB
17,LaBatite,湖北省,武汉市,汉阳区,La Batite,汉阳区二环线与龙阳湖北路交叉口西北100米,30.558762,114.207960,购物服务;购物相关场所;购物相关场所,B0FFFX7WV6
18,LaBatite,湖北省,武汉市,东西湖区,LABatite,东西湖区永旺梦乐城A120,30.649443,114.237888,购物服务;购物相关场所;购物相关场所,B0FFGTASRB
19,LaBatite,湖北省,武汉市,汉阳区,La Batite,汉阳区二环线与龙阳湖北路交叉口西北100米,30.558762,114.207960,购物服务;购物相关场所;购物相关场所,B0FFFX7WV6
20,LaBatite,湖北省,武汉市,东西湖区,LABatite,东西湖区永旺梦乐城A120,30.649443,114.237888,购物服务;购物相关场所;购物相关场所,B0FFGTASRB
21,LaBatite,湖北省,武汉市,汉阳区,La Batite,汉阳区二环线与龙阳湖北路交叉口西北100米,30.558762,114.207960,购物服务;购物相关场所;购物相关场所,B0FFFX7WV6
22,LaBatite,湖北省,武汉市,东西湖区,LABatite,东西湖区永旺梦乐城A120,30.649443,114.237888,购物服务;购物相关场所;购物相关场所,B0FFGTASRB
23,LaBatite,湖北省,武汉市,汉阳区,La Batite,汉阳区二环线与龙阳湖北路交叉口西北100米,30.558762,114.207960,购物服务;购物相关场所;购物相关场所,B0FFFX7WV6
24,LaBatite,湖北省,武汉市,东西湖区,LABatite,东西湖区永旺梦乐城A120,30.649443,114.237888,购物服务;购物相关场所;购物相关场所,B0FFGTASRB
25,LaBatite,湖北省,武汉市,汉阳区,La Batite,汉阳区二环线与龙阳湖北路交叉口西北100米,30.558762,114.207960,购物服务;购物相关场所;购物相关场所,B0FFFX7WV6
26,LaBatite,湖北省,武汉市,东西湖区,LABatite,东西湖区永旺梦乐城A120,30.649443,114.237888,购物服务;购物相关场所;购物相关场所,B0FFGTASRB
27,LaBatite,湖北省,武汉市,汉阳区,La Batite,汉阳区二环线与龙阳湖北路交叉口西北100米,30.558762,114.207960,购物服务;购物相关场所;购物相关场所,B0FFFX7WV6
28,LaBatite,湖北省,武汉市,东西湖区,LABatite,东西湖区永旺梦乐城A120,30.649443,114.237888,购物服务;购物相关场所;购物相关场所,B0FFGTASRB
29,LaBatite,湖北省,武汉市,汉阳区,La Batite,汉阳区二环线与龙阳湖北路交叉口西北100米,30.558762,114.207960,购物服务;购物相关场所;购物相关场所,B0FFFX7WV6
30,LaBatite,湖北省,武汉市,东西湖区,LABatite,东西湖区永旺梦乐城A120,30.649443,114.237888,购物服务;购物相关场所;购物相关场所,B0FFGTASRB
31,LaBatite,湖北省,武汉市,汉阳区,La Batite,汉阳区二环线与龙阳湖北路交叉口西北100米,30.558762,114.207960,购物服务;购物相关场所;购物相关场所,B0FFFX7WV6
32,LaBatite,湖北省,武汉市,东西湖区,LABatite,东西湖区永旺梦乐城A120,30.649443,114.237888,购物服务;购物相关场所;购物相关场所,B0FFGTASRB
33,LaBatite,湖北省,武汉市,汉阳区,La Batite,汉阳区二环线与龙阳湖北路交叉口西北100米,30.558762,114.207960,购物服务;购物相关场所;购物相关场所,B0FFFX7WV6
34,LaBatite,湖北省,武汉市,东西湖区,LABatite,东西湖区永旺梦乐城A120,30.649443,114.237888,购物服务;购物相关场所;购物相关场所,B0FFGTASRB
35,LaBatite,湖北省,武汉市,汉阳区,La Batite,汉阳区二环线与龙阳湖北路交叉口西北100米,30.558762,114.207960,购物服务;购物相关场所;购物相关场所,B0FFFX7WV6
36,LaBatite,湖北省,武汉市,东西湖区,LABatite,东西湖区永旺梦乐城A120,30.649443,114.237888,购物服务;购物相关场所;购物相关场所,B0FFGTASRB
37,LaBatite,湖北省,武汉市,汉阳区,La Batite,汉阳区二环线与龙阳湖北路交叉口西北100米,30.558762,114.207960,购物服务;购物相关场所;购物相关场所,B0FFFX7WV6
38,LaBatite,湖北省,武汉市,东西湖区,LABatite,东西湖区永旺梦乐城A120,30.649443,114.237888,购物服务;购物相关场所;购物相关场所,B0FFGTASRB
39,LaBatite,湖北省,武汉市,汉阳区,La Batite,汉阳区二环线与龙阳湖北路交叉口西北100米,30.558762,114.207960,购物服务;购物相关场所;购物相关场所,B0FFFX7WV6
40,LaBatite,湖北省,武汉市,东西湖区,LABatite,东西湖区永旺梦乐城A120,30.649443,114.237888,购物服务;购物相关场所;购物相关场所,B0FFGTASRB
41,LaBatite,湖北省,武汉市,汉阳区,La Batite,汉阳区二环线与龙阳湖北路交叉口西北100米,30.558762,114.207960,购物服务;购物相关场所;购物相关场所,B0FFFX7WV6
42,LaBatite,湖北省,武汉市,东西湖区,LABatite,东西湖区永旺梦乐城A120,30.649443,114.237888,购物服务;购物相关场所;购物相关场所,B0FFGTASRB
43,LaBatite,湖北省,武汉市,汉阳区,La Batite,汉阳区二环线与龙阳湖北路交叉口西北100米,30.558762,114.207960,购物服务;购物相关场所;购物相关场所,B0FFFX7WV6
44,LaBatite,湖北省,武汉市,东西湖区,LABatite,东西湖区永旺梦乐城A120,30.649443,114.237888,购物服务;购物相关场所;购物相关场所,B0FFGTASRB
45,LaBatite,湖北省,武汉市,汉阳区,La Batite,汉阳区二环线与龙阳湖北路交叉口西北100米,30.558762,114.207960,购物服务;购物相关场所;购物相关场所,B0FFFX7WV6
46,LaBatite,湖北省,武汉市,东西湖区,LABatite,东西湖区永旺梦乐城A120,30.649443,114.237888,购物服务;购物相关场所;购物相关场所,B0FFGTASRB
47,LaBatite,湖北省,武汉市,汉阳区,La Batite,汉阳区二环线与龙阳湖北路交叉口西北100米,30.558762,114.207960,购物服务;购物相关场所;购物相关场所,B0FFFX7WV6
48,LaBatite,湖北省,武汉市,东西湖区,LABatite,东西湖区永旺梦乐城A120,30.649443,114.237888,购物服务;购物相关场所;购物相关场所,B0FFGTASRB
49,LaBatite,湖北省,武汉市,汉阳区,La Batite,汉阳区二环线与龙阳湖北路交叉口西北100米,30.558762,114.207960,购物服务;购物相关场所;购物相关场所,B0FFFX7WV6
50,LaBatite,湖北省,武汉市,东西湖区,LABatite,东西湖区永旺梦乐城A120,30.649443,114.237888,购物服务;购物相关场所;购物相关场所,B0FFGTASRB
51,LaBatite,湖北省,武汉市,汉阳区,La Batite,汉阳区二环线与龙阳湖北路交叉口西北100米,30.558762,114.207960,购物服务;购物相关场所;购物相关场所,B0FFFX7WV6
52,LaBatite,湖北省,武汉市,东西湖区,LABatite,东西湖区永旺梦乐城A120,30.649443,114.237888,购物服务;购物相关场所;购物相关场所,B0FFGTASRB
53,LaBatite,湖北省,武汉市,汉阳区,La Batite,汉阳区二环线与龙阳湖北路交叉口西北100米,30.558762,114.207960,购物服务;购物相关场所;购物相关场所,B0FFFX7WV6
54,LaBatite,湖北省,武汉市,东西湖区,LABatite,东西湖区永旺梦乐城A120,30.649443,114.237888,购物服务;购物相关场所;购物相关场所,B0FFGTASRB
55,LaBatite,湖北省,武汉市,汉阳区,La Batite,汉阳区二环线与龙阳湖北路交叉口西北100米,30.558762,114.207960,购物服务;购物相关场所;购物相关场所,B0FFFX7WV6
56,LaBatite,湖北省,武汉市,东西湖区,LABatite,东西湖区永旺梦乐城A120,30.649443,114.237888,购物服务;购物相关场所;购物相关场所,B0FFGTASRB
57,LaBatite,湖北省,武汉市,汉阳区,La Batite,汉阳区二环线与龙阳湖北路交叉口西北100米,30.558762,114.207960,购物服务;购物相关场所;购物相关场所,B0FFFX7WV6
58,LaBatite,湖北省,武汉市,东西湖区,LABatite,东西湖区永旺梦乐城A120,30.649443,114.237888,购物服务;购物相关场所;购物相关场所,B0FFGTASRB
59,LaBatite,湖北省,武汉市,汉阳区,La Batite,汉阳区二环线与龙阳湖北路交叉口西北100米,30.558762,114.207960,购物服务;购物相关场所;购物相关场所,B0FFFX7WV6
60,LaBatite,湖北省,武汉市,东西湖区,LABatite,东西湖区永旺梦乐城A120,30.649443,114.237888,购物服务;购物相关场所;购物相关场所,B0FFGTASRB
61,LaBatite,湖北省,武汉市,汉阳区,La Batite,汉阳区二环线与龙阳湖北路交叉口西北100米,30.558762,114.207960,购物服务;购物相关场所;购物相关场所,B0FFFX7WV6
62,LaBatite,湖北省,武汉市,东西湖区,LABatite,东西湖区永旺梦乐城A120,30.649443,114.237888,购物服务;购物相关场所;购物相关场所,B0FFGTASRB
63,LaBatite,湖北省,武汉市,汉阳区,La Batite,汉阳区二环线与龙阳湖北路交叉口西北100米,30.558762,114.207960,购物服务;购物相关场所;购物相关场所,B0FFFX7WV6
64,LaBatite,湖北省,武汉市,东西湖区,LABatite,东西湖区永旺梦乐城A120,30.649443,114.237888,购物服务;购物相关场所;购物相关场所,B0FFGTASRB
65,LaBatite,湖北省,武汉市,汉阳区,La Batite,汉阳区二环线与龙阳湖北路交叉口西北100米,30.558762,114.207960,购物服务;购物相关场所;购物相关场所,B0FFFX7WV6
66,LaBatite,湖北省,武汉市,东西湖区,LABatite,东西湖区永旺梦乐城A120,30.649443,114.237888,购物服务;购物相关场所;购物相关场所,B0FFGTASRB
67,LaBatite,湖北省,武汉市,汉阳区,La Batite,汉阳区二环线与龙阳湖北路交叉口西北100米,30.558762,114.207960,购物服务;购物相关场所;购物相关场所,B0FFFX7WV6
68,LaBatite,湖北省,武汉市,东西湖区,LABatite,东西湖区永旺梦乐城A120,30.649443,114.237888,购物服务;购物相关场所;购物相关场所,B0FFGTASRB
69,LaBatite,湖北省,武汉市,汉阳区,La Batite,汉阳区二环线与龙阳湖北路交叉口西北100米,30.558762,114.207960,购物服务;购物相关场所;购物相关场所,B0FFFX7WV6
70,LaBatite,湖北省,武汉市,东西湖区,LABatite,东西湖区永旺梦乐城A120,30.649443,114.237888,购物服务;购物相关场所;购物相关场所,B0FFGTASRB
71,LaBatite,湖北省,武汉市,汉阳区,La Batite,汉阳区二环线与龙阳湖北路交叉口西北100米,30.558762,114.207960,购物服务;购物相关场所;购物相关场所,B0FFFX7WV6
72,LaBatite,湖北省,武汉市,东西湖区,LABatite,东西湖区永旺梦乐城A120,30.649443,114.237888,购物服务;购物相关场所;购物相关场所,B0FFGTASRB
73,LaBatite,湖北省,武汉市,汉阳区,La Batite,汉阳区二环线与龙阳湖北路交叉口西北100米,30.558762,114.207960,购物服务;购物相关场所;购物相关场所,B0FFFX7WV6
74,LaBatite,湖北省,武汉市,东西湖区,LABatite,东西湖区永旺梦乐城A120,30.649443,114.237888,购物服务;购物相关场所;购物相关场所,B0FFGTASRB
75,LaBatite,湖北省,武汉市,汉阳区,La Batite,汉阳区二环线与龙阳湖北路交叉口西北100米,30.558762,114.207960,购物服务;购物相关场所;购物相关场所,B0FFFX7WV6
76,LaBatite,湖北省,武汉市,东西湖区,LABatite,东西湖区永旺梦乐城A120,30.649443,114.237888,购物服务;购物相关场所;购物相关场所,B0FFGTASRB
77,LaBatite,湖北省,武汉市,汉阳区,La Batite,汉阳区二环线与龙阳湖北路交叉口西北100米,30.558762,114.207960,购物服务;购物相关场所;购物相关场所,B0FFFX7WV6
78,LaBatite,湖北省,武汉市,东西湖区,LABatite,东西湖区永旺梦乐城A120,30.649443,114.237888,购物服务;购物相关场所;购物相关场所,B0FFGTASRB
79,LaBatite,湖北省,武汉市,汉阳区,La Batite,汉阳区二环线与龙阳湖北路交叉口西北100米,30.558762,114.207960,购物服务;购物相关场所;购物相关场所,B0FFFX7WV6
80,LaBatite,湖北省,武汉市,东西湖区,LABatite,东西湖区永旺梦乐城A120,30.649443,114.237888,购物服务;购物相关场所;购物相关场所,B0FFGTASRB
81,LaBatite,湖北省,武汉市,汉阳区,La Batite,汉阳区二环线与龙阳湖北路交叉口西北100米,30.558762,114.207960,购物服务;购物相关场所;购物相关场所,B0FFFX7WV6
82,LaBatite,湖北省,武汉市,东西湖区,LABatite,东西湖区永旺梦乐城A120,30.649443,114.237888,购物服务;购物相关场所;购物相关场所,B0FFGTASRB
83,LaBatite,湖北省,武汉市,汉阳区,La Batite,汉阳区二环线与龙阳湖北路交叉口西北100米,30.558762,114.207960,购物服务;购物相关场所;购物相关场所,B0FFFX7WV6
84,LaBatite,湖北省,武汉市,东西湖区,LABatite,东西湖区永旺梦乐城A120,30.649443,114.237888,购物服务;购物相关场所;购物相关场所,B0FFGTASRB
85,LaBatite,湖北省,武汉市,汉阳区,La Batite,汉阳区二环线与龙阳湖北路交叉口西北100米,30.558762,114.207960,购物服务;购物相关场所;购物相关场所,B0FFFX7WV6
86,LaBatite,湖北省,武汉市,东西湖区,LABatite,东西湖区永旺梦乐城A120,30.649443,114.237888,购物服务;购物相关场所;购物相关场所,B0FFGTASRB
87,LaBatite,湖北省,武汉市,汉阳区,La Batite,汉阳区二环线与龙阳湖北路交叉口西北100米,30.558762,114.207960,购物服务;购物相关场所;购物相关场所,B0FFFX7WV6
88,LaBatite,湖北省,武汉市,东西湖区,LABatite,东西湖区永旺梦乐城A120,30.649443,114.237888,购物服务;购物相关场所;购物相关场所,B0FFGTASRB
89,LaBatite,湖北省,武汉市,汉阳区,La Batite,汉阳区二环线与龙阳湖北路交叉口西北100米,30.558762,114.207960,购物服务;购物相关场所;购物相关场所,B0FFFX7WV6
90,LaBatite,湖北省,武汉市,东西湖区,LABatite,东西湖区永旺梦乐城A120,30.649443,114.237888,购物服务;购物相关场所;购物相关场所,B0FFGTASRB
91,LaBatite,湖北省,武汉市,汉阳区,La Batite,汉阳区二环线与龙阳湖北路交叉口西北100米,30.558762,114.207960,购物服务;购物相关场所;购物相关场所,B0FFFX7WV6
92,LaBatite,湖北省,武汉市,东西湖区,LABatite,东西湖区永旺梦乐城A120,30.649443,114.237888,购物服务;购物相关场所;购物相关场所,B0FFGTASRB
93,LaBatite,湖北省,武汉市,汉阳区,La Batite,汉阳区二环线与龙阳湖北路交叉口西北100米,30.558762,114.207960,购物服务;购物相关场所;购物相关场所,B0FFFX7WV6
94,LaBatite,湖北省,武汉市,东西湖区,LABatite,东西湖区永旺梦乐城A120,30.649443,114.237888,购物服务;购物相关场所;购物相关场所,B0FFGTASRB
95,LaBatite,湖北省,武汉市,汉阳区,La Batite,汉阳区二环线与龙阳湖北路交叉口西北100米,30.558762,114.207960,购物服务;购物相关场所;购物相关场所,B0FFFX7WV6
96,LaBatite,湖北省,武汉市,东西湖区,LABatite,东西湖区永旺梦乐城A120,30.649443,114.237888,购物服务;购物相关场所;购物相关场所,B0FFGTASRB
97,LaBatite,湖北省,武汉市,汉阳区,La Batite,汉阳区二环线与龙阳湖北路交叉口西北100米,30.558762,114.207960,购物服务;购物相关场所;购物相关场所,B0FFFX7WV6
98,LaBatite,湖北省,武汉市,东西湖区,LABatite,东西湖区永旺梦乐城A120,30.649443,114.237888,购物服务;购物相关场所;购物相关场所,B0FFGTASRB
99,LaBatite,湖北省,武汉市,汉阳区,La Batite,汉阳区二环线与龙阳湖北路交叉口西北100米,30.558762,114.207960,购物服务;购物相关场所;购物相关场所,B0FFFX7WV6
100,LaBatite,湖北省,武汉市,东西湖区,LABatite,东西湖区永旺梦乐城A120,30.649443,114.237888,购物服务;购物相关场所;购物相关场所,B0FFGTASRB
101,LaBatite,湖北省,武汉市,汉阳区,La Batite,汉阳区二环线与龙阳湖北路交叉口西北100米,30.558762,114.207960,购物服务;购物相关场所;购物相关场所,B0FFFX7WV6
102,LaBatite,湖北省,武汉市,东西湖区,LABatite,东西湖区永旺梦乐城A120,30.649443,114.237888,购物服务;购物相关场所;购物相关场所,B0FFGTASRB
103,LaBatite,湖北省,武汉市,汉阳区,La Batite,汉阳区二环线与龙阳湖北路交叉口西北100米,30.558762,114.207960,购物服务;购物相关场所;购物相关场所,B0FFFX7WV6
104,LaBatite,湖北省,武汉市,东西湖区,LABatite,东西湖区永旺梦乐城A120,30.649443,114.237888,购物服务;购物相关场所;购物相关场所,B0FFGTASRB
105,LaBatite,湖北省,武汉市,汉阳区,La Batite,汉阳区二环线与龙阳湖北路交叉口西北100米,30.558762,114.207960,购物服务;购物相关场所;购物相关场所,B0FFFX7WV6
106,LaBatite,湖北省,武汉市,东西湖区,LABatite,东西湖区永旺梦乐城A120,30.649443,114.237888,购物服务;购物相关场所;购物相关场所,B0FFGTASRB
107,LaBatite,湖北省,武汉市,汉阳区,La Batite,汉阳区二环线与龙阳湖北路交叉口西北100米,30.558762,114.207960,购物服务;购物相关场所;购物相关场所,B0FFFX7WV6
108,LaBatite,湖北省,武汉市,东西湖区,LABatite,东西湖区永旺梦乐城A120,30.649443,114.237888,购物服务;购物相关场所;购物相关场所,B0FFGTASRB
109,LaBatite,湖北省,武汉市,汉阳区,La Batite,汉阳区二环线与龙阳湖北路交叉口西北100米,30.558762,114.207960,购物服务;购物相关场所;购物相关场所,B0FFFX7WV6
110,LaBatite,湖北省,武汉市,东西湖区,LABatite,东西湖区永旺梦乐城A120,30.649443,114.237888,购物服务;购物相关场所;购物相关场所,B0FFGTASRB
111,LaBatite,湖北省,武汉市,汉阳区,La Batite,汉阳区二环线与龙阳湖北路交叉口西北100米,30.558762,114.207960,购物服务;购物相关场所;购物相关场所,B0FFFX7WV6
112,LaBatite,湖北省,武汉市,东西湖区,LABatite,东西湖区永旺梦乐城A120,30.649443,114.237888,购物服务;购物相关场所;购物相关场所,B0FFGTASRB
113,LaBatite,湖北省,武汉市,汉阳区,La Batite,汉阳区二环线与龙阳湖北路交叉口西北100米,30.558762,114.207960,购物服务;购物相关场所;购物相关场所,B0FFFX7WV6
114,LaBatite,湖北省,武汉市,东西湖区,LABatite,东西湖区永旺梦乐城A120,30.649443,114.237888,购物服务;购物相关场所;购物相关场所,B0FFGTASRB
115,LaBatite,湖北省,武汉市,汉阳区,La Batite,汉阳区二环线与龙阳湖北路交叉口西北100米,30.558762,114.207960,购物服务;购物相关场所;购物相关场所,B0FFFX7WV6
116,LaBatite,湖北省,武汉市,东西湖区,LABatite,东西湖区永旺梦乐城A120,30.649443,114.237888,购物服务;购物相关场所;购物相关场所,B0FFGTASRB
117,LaBatite,湖北省,武汉市,汉阳区,La Batite,汉阳区二环线与龙阳湖北路交叉口西北100米,30.558762,114.207960,购物服务;购物相关场所;购物相关场所,B0FFFX7WV6
118,LaBatite,湖北省,武汉市,东西湖区,LABatite,东西湖区永旺梦乐城A120,30.649443,114.237888,购物服务;购物相关场所;购物相关场所,B0FFGTASRB
119,LaBatite,湖北省,武汉市,汉阳区,La Batite,汉阳区二环线与龙阳湖北路交叉口西北100米,30.558762,114.207960,购物服务;购物相关场所;购物相关场所,B0FFFX7WV6
120,LaBatite,湖北省,武汉市,东西湖区,LABatite,东西湖区永旺梦乐城A120,30.649443,114.237888,购物服务;购物相关场所;购物相关场所,B0FFGTASRB
121,LaBatite,湖北省,武汉市,汉阳区,La Batite,汉阳区二环线与龙阳湖北路交叉口西北100米,30.558762,114.207960,购物服务;购物相关场所;购物相关场所,B0FFFX7WV6
122,LaBatite,湖北省,武汉市,东西湖区,LABatite,东西湖区永旺梦乐城A120,30.649443,114.237888,购物服务;购物相关场所;购物相关场所,B0FFGTASRB
123,LaBatite,湖北省,武汉市,汉阳区,La Batite,汉阳区二环线与龙阳湖北路交叉口西北100米,30.558762,114.207960,购物服务;购物相关场所;购物相关场所,B0FFFX7WV6
124,LaBatite,湖北省,武汉市,东西湖区,LABatite,东西湖区永旺梦乐城A120,30.649443,114.237888,购物服务;购物相关场所;购物相关场所,B0FFGTASRB
125,LaBatite,湖北省,武汉市,汉阳区,La Batite,汉阳区二环线与龙阳湖北路交叉口西北100米,30.558762,114.207960,购物服务;购物相关场所;购物相关场所,B0FFFX7WV6
126,LaBatite,湖北省,武汉市,东西湖区,LABatite,东西湖区永旺梦乐城A120,30.649443,114.237888,购物服务;购物相关场所;购物相关场所,B0FFGTASRB
127,LaBatite,湖北省,武汉市,汉阳区,La Batite,汉阳区二环线与龙阳湖北路交叉口西北100米,30.558762,114.207960,购物服务;购物相关场所;购物相关场所,B0FFFX7WV6
128,LaBatite,湖北省,武汉市,东西湖区,LABatite,东西湖区永旺梦乐城A120,30.649443,114.237888,购物服务;购物相关场所;购物相关场所,B0FFGTASRB
129,LaBatite,湖北省,武汉市,汉阳区,La Batite,汉阳区二环线与龙阳湖北路交叉口西北100米,30.558762,114.207960,购物服务;购物相关场所;购物相关场所,B0FFFX7WV6
130,LaBatite,湖北省,武汉市,东西湖区,LABatite,东西湖区永旺梦乐城A120,30.649443,114.237888,购物服务;购物相关场所;购物相关场所,B0FFGTASRB
131,LaBatite,湖北省,武汉市,汉阳区,La Batite,汉阳区二环线与龙阳湖北路交叉口西北100米,30.558762,114.207960,购物服务;购物相关场所;购物相关场所,B0FFFX7WV6
132,LaBatite,湖北省,武汉市,东西湖区,LABatite,东西湖区永旺梦乐城A120,30.649443,114.237888,购物服务;购物相关场所;购物相关场所,B0FFGTASRB
133,LaBatite,湖北省,武汉市,汉阳区,La Batite,汉阳区二环线与龙阳湖北路交叉口西北100米,30.558762,114.207960,购物服务;购物相关场所;购物相关场所,B0FFFX7WV6
134,LaBatite,湖北省,武汉市,东西湖区,LABatite,东西湖区永旺梦乐城A120,30.649443,114.237888,购物服务;购物相关场所;购物相关场所,B0FFGTASRB
135,LaBatite,湖北省,武汉市,汉阳区,La Batite,汉阳区二环线与龙阳湖北路交叉口西北100米,30.558762,114.207960,购物服务;购物相关场所;购物相关场所,B0FFFX7WV6
136,LaBatite,湖北省,武汉市,东西湖区,LABatite,东西湖区永旺梦乐城A120,30.649443,114.237888,购物服务;购物相关场所;购物相关场所,B0FFGTASRB
137,LaBatite,湖北省,武汉市,汉阳区,La Batite,汉阳区二环线与龙阳湖北路交叉口西北100米,30.558762,114.207960,购物服务;购物相关场所;购物相关场所,B0FFFX7WV6
138,LaBatite,湖北省,武汉市,东西湖区,LABatite,东西湖区永旺梦乐城A120,30.649443,114.237888,购物服务;购物相关场所;购物相关场所,B0FFGTASRB
139,LaBatite,湖北省,武汉市,汉阳区,La Batite,汉阳区二环线与龙阳湖北路交叉口西北100米,30.558762,114.207960,购物服务;购物相关场所;购物相关场所,B0FFFX7WV6
140,LaBatite,湖北省,武汉市,东西湖区,LABatite,东西湖区永旺梦乐城A120,30.649443,114.237888,购物服务;购物相关场所;购物相关场所,B0FFGTASRB
141,LaBatite,湖北省,武汉市,汉阳区,La Batite,汉阳区二环线与龙阳湖北路交叉口西北100米,30.558762,114.207960,购物服务;购物相关场所;购物相关场所,B0FFFX7WV6
142,LaBatite,湖北省,武汉市,东西湖区,LABatite,东西湖区永旺梦乐城A120,30.649443,114.237888,购物服务;购物相关场所;购物相关场所,B0FFGTASRB
143,LaBatite,湖北省,武汉市,汉阳区,La Batite,汉阳区二环线与龙阳湖北路交叉口西北100米,30.558762,114.207960,购物服务;购物相关场所;购物相关场所,B0FFFX7WV6
144,LaBatite,湖北省,武汉市,东西湖区,LABatite,东西湖区永旺梦乐城A120,30.649443,114.237888,购物服务;购物相关场所;购物相关场所,B0FFGTASRB
145,LaBatite,湖北省,武汉市,汉阳区,La Batite,汉阳区二环线与龙阳湖北路交叉口西北100米,30.558762,114.207960,购物服务;购物相关场所;购物相关场所,B0FFFX7WV6
146,LaBatite,湖北省,武汉市,东西湖区,LABatite,东西湖区永旺梦乐城A120,30.649443,114.237888,购物服务;购物相关场所;购物相关场所,B0FFGTASRB
147,LaBatite,湖北省,武汉市,汉阳区,La Batite,汉阳区二环线与龙阳湖北路交叉口西北100米,30.558762,114.207960,购物服务;购物相关场所;购物相关场所,B0FFFX7WV6
148,LaBatite,湖北省,武汉市,东西湖区,LABatite,东西湖区永旺梦乐城A120,30.649443,114.237888,购物服务;购物相关场所;购物相关场所,B0FFGTASRB
149,LaBatite,湖北省,武汉市,汉阳区,La Batite,汉阳区二环线与龙阳湖北路交叉口西北100米,30.558762,114.207960,购物服务;购物相关场所;购物相关场所,B0FFFX7WV6
150,LaBatite,湖北省,武汉市,东西湖区,LABatite,东西湖区永旺梦乐城A120,30.649443,114.237888,购物服务;购物相关场所;购物相关场所,B0FFGTASRB
151,LaBatite,湖北省,武汉市,汉阳区,La Batite,汉阳区二环线与龙阳湖北路交叉口西北100米,30.558762,114.207960,购物服务;购物相关场所;购物相关场所,B0FFFX7WV6
152,LaBatite,湖北省,武汉市,东西湖区,LABatite,东西湖区永旺梦乐城A120,30.649443,114.237888,购物服务;购物相关场所;购物相关场所,B0FFGTASRB
153,LaBatite,湖北省,武汉市,汉阳区,La Batite,汉阳区二环线与龙阳湖北路交叉口西北100米,30.558762,114.207960,购物服务;购物相关场所;购物相关场所,B0FFFX7WV6
154,LaBatite,湖北省,武汉市,东西湖区,LABatite,东西湖区永旺梦乐城A120,30.649443,114.237888,购物服务;购物相关场所;购物相关场所,B0FFGTASRB
155,LaBatite,湖北省,武汉市,汉阳区,La Batite,汉阳区二环线与龙阳湖北路交叉口西北100米,30.558762,114.207960,购物服务;购物相关场所;购物相关场所,B0FFFX7WV6
156,LaBatite,湖北省,武汉市,东西湖区,LABatite,东西湖区永旺梦乐城A120,30.649443,114.237888,购物服务;购物相关场所;购物相关场所,B0FFGTASRB
157,LaBatite,湖北省,武汉市,汉阳区,La Batite,汉阳区二环线与龙阳湖北路交叉口西北100米,30.558762,114.207960,购物服务;购物相关场所;购物相关场所,B0FFFX7WV6
158,LaBatite,湖北省,武汉市,东西湖区,LABatite,东西湖区永旺梦乐城A120,30.649443,114.237888,购物服务;购物相关场所;购物相关场所,B0FFGTASRB
159,LaBatite,湖北省,武汉市,汉阳区,La Batite,汉阳区二环线与龙阳湖北路交叉口西北100米,30.558762,114.207960,购物服务;购物相关场所;购物相关场所,B0FFFX7WV6
160,LaBatite,湖北省,武汉市,东西湖区,LABatite,东西湖区永旺梦乐城A120,30.649443,114.237888,购物服务;购物相关场所;购物相关场所,B0FFGTASRB
161,LaBatite,湖北省,武汉市,汉阳区,La Batite,汉阳区二环线与龙阳湖北路交叉口西北100米,30.558762,114.207960,购物服务;购物相关场所;购物相关场所,B0FFFX7WV6
162,LaBatite,湖北省,武汉市,东西湖区,LABatite,东西湖区永旺梦乐城A120,30.649443,114.237888,购物服务;购物相关场所;购物相关场所,B0FFGTASRB
163,LaBatite,湖北省,武汉市,汉阳区,La Batite,汉阳区二环线与龙阳湖北路交叉口西北100米,30.558762,114.207960,购物服务;购物相关场所;购物相关场所,B0FFFX7WV6
164,LaBatite,湖北省,武汉市,东西湖区,LABatite,东西湖区永旺梦乐城A120,30.649443,114.237888,购物服务;购物相关场所;购物相关场所,B0FFGTASRB
165,LaBatite,湖北省,武汉市,汉阳区,La Batite,汉阳区二环线与龙阳湖北路交叉口西北100米,30.558762,114.207960,购物服务;购物相关场所;购物相关场所,B0FFFX7WV6
166,LaBatite,湖北省,武汉市,东西湖区,LABatite,东西湖区永旺梦乐城A120,30.649443,114.237888,购物服务;购物相关场所;购物相关场所,B0FFGTASRB
167,LaBatite,湖北省,武汉市,汉阳区,La Batite,汉阳区二环线与龙阳湖北路交叉口西北100米,30.558762,114.207960,购物服务;购物相关场所;购物相关场所,B0FFFX7WV6
168,LaBatite,湖北省,武汉市,东西湖区,LABatite,东西湖区永旺梦乐城A120,30.649443,114.237888,购物服务;购物相关场所;购物相关场所,B0FFGTASRB
169,LaBatite,湖北省,武汉市,汉阳区,La Batite,汉阳区二环线与龙阳湖北路交叉口西北100米,30.558762,114.207960,购物服务;购物相关场所;购物相关场所,B0FFFX7WV6
170,LaBatite,湖北省,武汉市,东西湖区,LABatite,东西湖区永旺梦乐城A120,30.649443,114.237888,购物服务;购物相关场所;购物相关场所,B0FFGTASRB
171,LaBatite,湖北省,武汉市,汉阳区,La Batite,汉阳区二环线与龙阳湖北路交叉口西北100米,30.558762,114.207960,购物服务;购物相关场所;购物相关场所,B0FFFX7WV6
172,LaBatite,湖北省,武汉市,东西湖区,LABatite,东西湖区永旺梦乐城A120,30.649443,114.237888,购物服务;购物相关场所;购物相关场所,B0FFGTASRB
173,LaBatite,湖北省,武汉市,汉阳区,La Batite,汉阳区二环线与龙阳湖北路交叉口西北100米,30.558762,114.207960,购物服务;购物相关场所;购物相关场所,B0FFFX7WV6
174,LaBatite,湖北省,武汉市,东西湖区,LABatite,东西湖区永旺梦乐城A120,30.649443,114.237888,购物服务;购物相关场所;购物相关场所,B0FFGTASRB
175,LaBatite,湖北省,武汉市,汉阳区,La Batite,汉阳区二环线与龙阳湖北路交叉口西北100米,30.558762,114.207960,购物服务;购物相关场所;购物相关场所,B0FFFX7WV6
176,LaBatite,湖北省,武汉市,东西湖区,LABatite,东西湖区永旺梦乐城A120,30.649443,114.237888,购物服务;购物相关场所;购物相关场所,B0FFGTASRB
177,LaBatite,湖北省,武汉市,汉阳区,La Batite,汉阳区二环线与龙阳湖北路交叉口西北100米,30.558762,114.207960,购物服务;购物相关场所;购物相关场所,B0FFFX7WV6
178,LaBatite,湖北省,武汉市,东西湖区,LABatite,东西湖区永旺梦乐城A120,30.649443,114.237888,购物服务;购物相关场所;购物相关场所,B0FFGTASRB
179,LaBatite,湖北省,武汉市,汉阳区,La Batite,汉阳区二环线与龙阳湖北路交叉口西北100米,30.558762,114.207960,购物服务;购物相关场所;购物相关场所,B0FFFX7WV6
180,LaBatite,湖北省,武汉市,东西湖区,LABatite,东西湖区永旺梦乐城A120,30.649443,114.237888,购物服务;购物相关场所;购物相关场所,B0FFGTASRB
181,LaBatite,湖北省,武汉市,汉阳区,La Batite,汉阳区二环线与龙阳湖北路交叉口西北100米,30.558762,114.207960,购物服务;购物相关场所;购物相关场所,B0FFFX7WV6
182,LaBatite,湖北省,武汉市,东西湖区,LABatite,东西湖区永旺梦乐城A120,30.649443,114.237888,购物服务;购物相关场所;购物相关场所,B0FFGTASRB
183,LaBatite,湖北省,武汉市,汉阳区,La Batite,汉阳区二环线与龙阳湖北路交叉口西北100米,30.558762,114.207960,购物服务;购物相关场所;购物相关场所,B0FFFX7WV6
184,LaBatite,湖北省,武汉市,东西湖区,LABatite,东西湖区永旺梦乐城A120,30.649443,114.237888,购物服务;购物相关场所;购物相关场所,B0FFGTASRB
185,LaBatite,湖北省,武汉市,汉阳区,La Batite,汉阳区二环线与龙阳湖北路交叉口西北100米,30.558762,114.207960,购物服务;购物相关场所;购物相关场所,B0FFFX7WV6
186,LaBatite,湖北省,武汉市,东西湖区,LABatite,东西湖区永旺梦乐城A120,30.649443,114.237888,购物服务;购物相关场所;购物相关场所,B0FFGTASRB
187,LaBatite,湖北省,武汉市,汉阳区,La Batite,汉阳区二环线与龙阳湖北路交叉口西北100米,30.558762,114.207960,购物服务;购物相关场所;购物相关场所,B0FFFX7WV6
188,LaBatite,湖北省,武汉市,东西湖区,LABatite,东西湖区永旺梦乐城A120,30.649443,114.237888,购物服务;购物相关场所;购物相关场所,B0FFGTASRB
189,LaBatite,湖北省,武汉市,汉阳区,La Batite,汉阳区二环线与龙阳湖北路交叉口西北100米,30.558762,114.207960,购物服务;购物相关场所;购物相关场所,B0FFFX7WV6
190,LaBatite,湖北省,武汉市,东西湖区,LABatite,东西湖区永旺梦乐城A120,30.649443,114.237888,购物服务;购物相关场所;购物相关场所,B0FFGTASRB
191,LaBatite,湖北省,武汉市,汉阳区,La Batite,汉阳区二环线与龙阳湖北路交叉口西北100米,30.558762,114.207960,购物服务;购物相关场所;购物相关场所,B0FFFX7WV6
192,LaBatite,湖北省,武汉市,东西湖区,LABatite,东西湖区永旺梦乐城A120,30.649443,114.237888,购物服务;购物相关场所;购物相关场所,B0FFGTASRB
193,LaBatite,湖北省,武汉市,汉阳区,La Batite,汉阳区二环线与龙阳湖北路交叉口西北100米,30.558762,114.207960,购物服务;购物相关场所;购物相关场所,B0FFFX7WV6
194,LaBatite,湖北省,武汉市,东西湖区,LABatite,东西湖区永旺梦乐城A120,30.649443,114.237888,购物服务;购物相关场所;购物相关场所,B0FFGTASRB
195,LaBatite,湖北省,武汉市,汉阳区,La Batite,汉阳区二环线与龙阳湖北路交叉口西北100米,30.558762,114.207960,购物服务;购物相关场所;购物相关场所,B0FFFX7WV6
196,LaBatite,湖北省,武汉市,东西湖区,LABatite,东西湖区永旺梦乐城A120,30.649443,114.237888,购物服务;购物相关场所;购物相关场所,B0FFGTASRB
197,LaBatite,湖北省,武汉市,汉阳区,La Batite,汉阳区二环线与龙阳湖北路交叉口西北100米,30.558762,114.207960,购物服务;购物相关场所;购物相关场所,B0FFFX7WV6
198,LaBatite,湖北省,武汉市,东西湖区,LABatite,东西湖区永旺梦乐城A120,30.649443,114.237888,购物服务;购物相关场所;购物相关场所,B0FFGTASRB
199,LaBatite,湖北省,武汉市,汉阳区,La Batite,汉阳区二环线与龙阳湖北路交叉口西北100米,30.558762,114.207960,购物服务;购物相关场所;购物相关场所,B0FFFX7WV6
200,LaBatite,湖北省,武汉市,东西湖区,LABatite,东西湖区永旺梦乐城A120,30.649443,114.237888,购物服务;购物相关场所;购物相关场所,B0FFGTASRB
201,LaBatite,湖北省,武汉市,汉阳区,La Batite,汉阳区二环线与龙阳湖北路交叉口西北100米,30.558762,114.207960,购物服务;购物相关场所;购物相关场所,B0FFFX7WV6
202,LaBatite,湖北省,武汉市,东西湖区,LABatite,东西湖区永旺梦乐城A120,30.649443,114.237888,购物服务;购物相关场所;购物相关场所,B0FFGTASRB
203,LaBatite,湖北省,武汉市,汉阳区,La Batite,汉阳区二环线与龙阳湖北路交叉口西北100米,30.558762,114.207960,购物服务;购物相关场所;购物相关场所,B0FFFX7WV6
204,LaBatite,湖北省,武汉市,东西湖区,LABatite,东西湖区永旺梦乐城A120,30.649443,114.237888,购物服务;购物相关场所;购物相关场所,B0FFGTASRB
205,LaBatite,湖北省,武汉市,汉阳区,La Batite,汉阳区二环线与龙阳湖北路交叉口西北100米,30.558762,114.207960,购物服务;购物相关场所;购物相关场所,B0FFFX7WV6
206,LaBatite,湖北省,武汉市,东西湖区,LABatite,东西湖区永旺梦乐城A120,30.649443,114.237888,购物服务;购物相关场所;购物相关场所,B0FFGTASRB
207,LaBatite,湖北省,武汉市,汉阳区,La Batite,汉阳区二环线与龙阳湖北路交叉口西北100米,30.558762,114.207960,购物服务;购物相关场所;购物相关场所,B0FFFX7WV6
208,LaBatite,湖北省,武汉市,东西湖区,LABatite,东西湖区永旺梦乐城A120,30.649443,114.237888,购物服务;购物相关场所;购物相关场所,B0FFGTASRB
209,LaBatite,湖北省,武汉市,汉阳区,La Batite,汉阳区二环线与龙阳湖北路交叉口西北100米,30.558762,114.207960,购物服务;购物相关场所;购物相关场所,B0FFFX7WV6
210,LaBatite,湖北省,武汉市,东西湖区,LABatite,东西湖区永旺梦乐城A120,30.649443,114.237888,购物服务;购物相关场所;购物相关场所,B0FFGTASRB
211,LaBatite,湖北省,武汉市,汉阳区,La Batite,汉阳区二环线与龙阳湖北路交叉口西北100米,30.558762,114.207960,购物服务;购物相关场所;购物相关场所,B0FFFX7WV6
212,LaBatite,湖北省,武汉市,东西湖区,LABatite,东西湖区永旺梦乐城A120,30.649443,114.237888,购物服务;购物相关场所;购物相关场所,B0FFGTASRB
213,LaBatite,湖北省,武汉市,汉阳区,La Batite,汉阳区二环线与龙阳湖北路交叉口西北100米,30.558762,114.207960,购物服务;购物相关场所;购物相关场所,B0FFFX7WV6
214,LaBatite,湖北省,武汉市,东西湖区,LABatite,东西湖区永旺梦乐城A120,30.649443,114.237888,购物服务;购物相关场所;购物相关场所,B0FFGTASRB
215,LaBatite,湖北省,武汉市,汉阳区,La Batite,汉阳区二环线与龙阳湖北路交叉口西北100米,30.558762,114.207960,购物服务;购物相关场所;购物相关场所,B0FFFX7WV6
216,LaBatite,湖北省,武汉市,东西湖区,LABatite,东西湖区永旺梦乐城A120,30.649443,114.237888,购物服务;购物相关场所;购物相关场所,B0FFGTASRB
217,LaBatite,湖北省,武汉市,汉阳区,La Batite,汉阳区二环线与龙阳湖北路交叉口西北100米,30.558762,114.207960,购物服务;购物相关场所;购物相关场所,B0FFFX7WV6
218,LaBatite,湖北省,武汉市,东西湖区,LABatite,东西湖区永旺梦乐城A120,30.649443,114.237888,购物服务;购物相关场所;购物相关场所,B0FFGTASRB
219,LaBatite,湖北省,武汉市,汉阳区,La Batite,汉阳区二环线与龙阳湖北路交叉口西北100米,30.558762,114.207960,购物服务;购物相关场所;购物相关场所,B0FFFX7WV6
220,LaBatite,湖北省,武汉市,东西湖区,LABatite,东西湖区永旺梦乐城A120,30.649443,114.237888,购物服务;购物相关场所;购物相关场所,B0FFGTASRB
221,LaBatite,湖北省,武汉市,汉阳区,La Batite,汉阳区二环线与龙阳湖北路交叉口西北100米,30.558762,114.207960,购物服务;购物相关场所;购物相关场所,B0FFFX7WV6
222,LaBatite,湖北省,武汉市,东西湖区,LABatite,东西湖区永旺梦乐城A120,30.649443,114.237888,购物服务;购物相关场所;购物相关场所,B0FFGTASRB
223,LaBatite,湖北省,武汉市,汉阳区,La Batite,汉阳区二环线与龙阳湖北路交叉口西北100米,30.558762,114.207960,购物服务;购物相关场所;购物相关场所,B0FFFX7WV6
224,LaBatite,湖北省,武汉市,东西湖区,LABatite,东西湖区永旺梦乐城A120,30.649443,114.237888,购物服务;购物相关场所;购物相关场所,B0FFGTASRB
225,LaBatite,湖北省,武汉市,汉阳区,La Batite,汉阳区二环线与龙阳湖北路交叉口西北100米,30.558762,114.207960,购物服务;购物相关场所;购物相关场所,B0FFFX7WV6
226,LaBatite,湖北省,武汉市,东西湖区,LABatite,东西湖区永旺梦乐城A120,30.649443,114.237888,购物服务;购物相关场所;购物相关场所,B0FFGTASRB
227,LaBatite,湖北省,武汉市,汉阳区,La Batite,汉阳区二环线与龙阳湖北路交叉口西北100米,30.558762,114.207960,购物服务;购物相关场所;购物相关场所,B0FFFX7WV6
228,LaBatite,湖北省,武汉市,东西湖区,LABatite,东西湖区永旺梦乐城A120,30.649443,114.237888,购物服务;购物相关场所;购物相关场所,B0FFGTASRB
229,LaBatite,湖北省,武汉市,汉阳区,La Batite,汉阳区二环线与龙阳湖北路交叉口西北100米,30.558762,114.207960,购物服务;购物相关场所;购物相关场所,B0FFFX7WV6
230,LaBatite,湖北省,武汉市,东西湖区,LABatite,东西湖区永旺梦乐城A120,30.649443,114.237888,购物服务;购物相关场所;购物相关场所,B0FFGTASRB
231,LaBatite,湖北省,武汉市,汉阳区,La Batite,汉阳区二环线与龙阳湖北路交叉口西北100米,30.558762,114.207960,购物服务;购物相关场所;购物相关场所,B0FFFX7WV6
232,LaBatite,湖北省,武汉市,东西湖区,LABatite,东西湖区永旺梦乐城A120,30.649443,114.237888,购物服务;购物相关场所;购物相关场所,B0FFGTASRB
233,LaBatite,湖北省,武汉市,汉阳区,La Batite,汉阳区二环线与龙阳湖北路交叉口西北100米,30.558762,114.207960,购物服务;购物相关场所;购物相关场所,B0FFFX7WV6
234,LaBatite,湖北省,武汉市,东西湖区,LABatite,东西湖区永旺梦乐城A120,30.649443,114.237888,购物服务;购物相关场所;购物相关场所,B0FFGTASRB
235,LaBatite,湖北省,武汉市,汉阳区,La Batite,汉阳区二环线与龙阳湖北路交叉口西北100米,30.558762,114.207960,购物服务;购物相关场所;购物相关场所,B0FFFX7WV6
236,LaBatite,湖北省,武汉市,东西湖区,LABatite,东西湖区永旺梦乐城A120,30.649443,114.237888,购物服务;购物相关场所;购物相关场所,B0FFGTASRB
237,LaBatite,湖北省,武汉市,汉阳区,La Batite,汉阳区二环线与龙阳湖北路交叉口西北100米,30.558762,114.207960,购物服务;购物相关场所;购物相关场所,B0FFFX7WV6
238,LaBatite,湖北省,武汉市,东西湖区,LABatite,东西湖区永旺梦乐城A120,30.649443,114.237888,购物服务;购物相关场所;购物相关场所,B0FFGTASRB
239,LaBatite,湖北省,武汉市,汉阳区,La Batite,汉阳区二环线与龙阳湖北路交叉口西北100米,30.558762,114.207960,购物服务;购物相关场所;购物相关场所,B0FFFX7WV6
240,LaBatite,湖北省,武汉市,东西湖区,LABatite,东西湖区永旺梦乐城A120,30.649443,114.237888,购物服务;购物相关场所;购物相关场所,B0FFGTASRB
241,LaBatite,湖北省,武汉市,汉阳区,La Batite,汉阳区二环线与龙阳湖北路交叉口西北100米,30.558762,114.207960,购物服务;购物相关场所;购物相关场所,B0FFFX7WV6
242,LaBatite,湖北省,武汉市,东西湖区,LABatite,东西湖区永旺梦乐城A120,30.649443,114.237888,购物服务;购物相关场所;购物相关场所,B0FFGTASRB
243,LaBatite,湖北省,武汉市,汉阳区,La Batite,汉阳区二环线与龙阳湖北路交叉口西北100米,30.558762,114.207960,购物服务;购物相关场所;购物相关场所,B0FFFX7WV6
244,LaBatite,湖北省,武汉市,东西湖区,LABatite,东西湖区永旺梦乐城A120,30.649443,114.237888,购物服务;购物相关场所;购物相关场所,B0FFGTASRB
245,LaBatite,湖北省,武汉市,汉阳区,La Batite,汉阳区二环线与龙阳湖北路交叉口西北100米,30.558762,114.207960,购物服务;购物相关场所;购物相关场所,B0FFFX7WV6
246,LaBatite,湖北省,武汉市,东西湖区,LABatite,东西湖区永旺梦乐城A120,30.649443,114.237888,购物服务;购物相关场所;购物相关场所,B0FFGTASRB
247,LaBatite,湖北省,武汉市,汉阳区,La Batite,汉阳区二环线与龙阳湖北路交叉口西北100米,30.558762,114.207960,购物服务;购物相关场所;购物相关场所,B0FFFX7WV6
248,LaBatite,湖北省,武汉市,东西湖区,LABatite,东西湖区永旺梦乐城A120,30.649443,114.237888,购物服务;购物相关场所;购物相关场所,B0FFGTASRB
249,LaBatite,湖北省,武汉市,汉阳区,La Batite,汉阳区二环线与龙阳湖北路交叉口西北100米,30.558762,114.207960,购物服务;购物相关场所;购物相关场所,B0FFFX7WV6
250,LaBatite,湖北省,武汉市,东西湖区,LABatite,东西湖区永旺梦乐城A120,30.649443,114.237888,购物服务;购物相关场所;购物相关场所,B0FFGTASRB
251,LaBatite,湖北省,武汉市,汉阳区,La Batite,汉阳区二环线与龙阳湖北路交叉口西北100米,30.558762,114.207960,购物服务;购物相关场所;购物相关场所,B0FFFX7WV6
252,LaBatite,湖北省,武汉市,东西湖区,LABatite,东西湖区永旺梦乐城A120,30.649443,114.237888,购物服务;购物相关场所;购物相关场所,B0FFGTASRB
253,LaBatite,湖北省,武汉市,汉阳区,La Batite,汉阳区二环线与龙阳湖北路交叉口西北100米,30.558762,114.207960,购物服务;购物相关场所;购物相关场所,B0FFFX7WV6
254,LaBatite,湖北省,武汉市,东西湖区,LABatite,东西湖区永旺梦乐城A120,30.649443,114.237888,购物服务;购物相关场所;购物相关场所,B0FFGTASRB
255,LaBatite,湖北省,武汉市,汉阳区,La Batite,汉阳区二环线与龙阳湖北路交叉口西北100米,30.558762,114.207960,购物服务;购物相关场所;购物相关场所,B0FFFX7WV6
256,LaBatite,湖北省,武汉市,东西湖区,LABatite,东西湖区永旺梦乐城A120,30.649443,114.237888,购物服务;购物相关场所;购物相关场所,B0FFGTASRB
257,LaBatite,湖北省,武汉市,汉阳区,La Batite,汉阳区二环线与龙阳湖北路交叉口西北100米,30.558762,114.207960,购物服务;购物相关场所;购物相关场所,B0FFFX7WV6
258,LaBatite,湖北省,武汉市,东西湖区,LABatite,东西湖区永旺梦乐城A120,30.649443,114.237888,购物服务;购物相关场所;购物相关场所,B0FFGTASRB
259,LaBatite,湖北省,武汉市,汉阳区,La Batite,汉阳区二环线与龙阳湖北路交叉口西北100米,30.558762,114.207960,购物服务;购物相关场所;购物相关场所,B0FFFX7WV6
260,LaBatite,湖北省,武汉市,东西湖区,LABatite,东西湖区永旺梦乐城A120,30.649443,114.237888,购物服务;购物相关场所;购物相关场所,B0FFGTASRB
261,LaBatite,湖北省,武汉市,汉阳区,La Batite,汉阳区二环线与龙阳湖北路交叉口西北100米,30.558762,114.207960,购物服务;购物相关场所;购物相关场所,B0FFFX7WV6
262,LaBatite,湖北省,武汉市,东西湖区,LABatite,东西湖区永旺梦乐城A120,30.649443,114.237888,购物服务;购物相关场所;购物相关场所,B0FFGTASRB
263,LaBatite,湖北省,武汉市,汉阳区,La Batite,汉阳区二环线与龙阳湖北路交叉口西北100米,30.558762,114.207960,购物服务;购物相关场所;购物相关场所,B0FFFX7WV6
264,LaBatite,湖北省,武汉市,东西湖区,LABatite,东西湖区永旺梦乐城A120,30.649443,114.237888,购物服务;购物相关场所;购物相关场所,B0FFGTASRB
265,LaBatite,湖北省,武汉市,汉阳区,La Batite,汉阳区二环线与龙阳湖北路交叉口西北100米,30.558762,114.207960,购物服务;购物相关场所;购物相关场所,B0FFFX7WV6
266,LaBatite,湖北省,武汉市,东西湖区,LABatite,东西湖区永旺梦乐城A120,30.649443,114.237888,购物服务;购物相关场所;购物相关场所,B0FFGTASRB
267,LaBatite,湖北省,武汉市,汉阳区,La Batite,汉阳区二环线与龙阳湖北路交叉口西北100米,30.558762,114.207960,购物服务;购物相关场所;购物相关场所,B0FFFX7WV6
268,LaBatite,湖北省,武汉市,东西湖区,LABatite,东西湖区永旺梦乐城A120,30.649443,114.237888,购物服务;购物相关场所;购物相关场所,B0FFGTASRB
269,LaBatite,湖北省,武汉市,汉阳区,La Batite,汉阳区二环线与龙阳湖北路交叉口西北100米,30.558762,114.207960,购物服务;购物相关场所;购物相关场所,B0FFFX7WV6
270,LaBatite,湖北省,武汉市,东西湖区,LABatite,东西湖区永旺梦乐城A120,30.649443,114.237888,购物服务;购物相关场所;购物相关场所,B0FFGTASRB
271,LaBatite,湖北省,武汉市,汉阳区,La Batite,汉阳区二环线与龙阳湖北路交叉口西北100米,30.558762,114.207960,购物服务;购物相关场所;购物相关场所,B0FFFX7WV6
272,LaBatite,湖北省,武汉市,东西湖区,LABatite,东西湖区永旺梦乐城A120,30.649443,114.237888,购物服务;购物相关场所;购物相关场所,B0FFGTASRB
273,LaBatite,湖北省,武汉市,汉阳区,La Batite,汉阳区二环线与龙阳湖北路交叉口西北100米,30.558762,114.207960,购物服务;购物相关场所;购物相关场所,B0FFFX7WV6
274,LaBatite,湖北省,武汉市,东西湖区,LABatite,东西湖区永旺梦乐城A120,30.649443,114.237888,购物服务;购物相关场所;购物相关场所,B0FFGTASRB
275,LaBatite,湖北省,武汉市,汉阳区,La Batite,汉阳区二环线与龙阳湖北路交叉口西北100米,30.558762,114.207960,购物服务;购物相关场所;购物相关场所,B0FFFX7WV6
276,LaBatite,湖北省,武汉市,东西湖区,LABatite,东西湖区永旺梦乐城A120,30.649443,114.237888,购物服务;购物相关场所;购物相关场所,B0FFGTASRB
277,LaBatite,湖北省,武汉市,汉阳区,La Batite,汉阳区二环线与龙阳湖北路交叉口西北100米,30.558762,114.207960,购物服务;购物相关场所;购物相关场所,B0FFFX7WV6
278,LaBatite,湖北省,武汉市,东西湖区,LABatite,东西湖区永旺梦乐城A120,30.649443,114.237888,购物服务;购物相关场所;购物相关场所,B0FFGTASRB
279,LaBatite,湖北省,武汉市,汉阳区,La Batite,汉阳区二环线与龙阳湖北路交叉口西北100米,30.558762,114.207960,购物服务;购物相关场所;购物相关场所,B0FFFX7WV6
280,LaBatite,湖北省,武汉市,东西湖区,LABatite,东西湖区永旺梦乐城A120,30.649443,114.237888,购物服务;购物相关场所;购物相关场所,B0FFGTASRB
281,LaBatite,湖北省,武汉市,汉阳区,La Batite,汉阳区二环线与龙阳湖北路交叉口西北100米,30.558762,114.207960,购物服务;购物相关场所;购物相关场所,B0FFFX7WV6
282,LaBatite,湖北省,武汉市,东西湖区,LABatite,东西湖区永旺梦乐城A120,30.649443,114.237888,购物服务;购物相关场所;购物相关场所,B0FFGTASRB
283,LaBatite,湖北省,武汉市,汉阳区,La Batite,汉阳区二环线与龙阳湖北路交叉口西北100米,30.558762,114.207960,购物服务;购物相关场所;购物相关场所,B0FFFX7WV6
284,LaBatite,湖北省,武汉市,东西湖区,LABatite,东西湖区永旺梦乐城A120,30.649443,114.237888,购物服务;购物相关场所;购物相关场所,B0FFGTASRB
285,LaBatite,湖北省,武汉市,汉阳区,La Batite,汉阳区二环线与龙阳湖北路交叉口西北100米,30.558762,114.207960,购物服务;购物相关场所;购物相关场所,B0FFFX7WV6
286,LaBatite,湖北省,武汉市,东西湖区,LABatite,东西湖区永旺梦乐城A120,30.649443,114.237888,购物服务;购物相关场所;购物相关场所,B0FFGTASRB
287,LaBatite,湖北省,武汉市,汉阳区,La Batite,汉阳区二环线与龙阳湖北路交叉口西北100米,30.558762,114.207960,购物服务;购物相关场所;购物相关场所,B0FFFX7WV6
288,LaBatite,湖北省,武汉市,东西湖区,LABatite,东西湖区永旺梦乐城A120,30.649443,114.237888,购物服务;购物相关场所;购物相关场所,B0FFGTASRB
289,LaBatite,湖北省,武汉市,汉阳区,La Batite,汉阳区二环线与龙阳湖北路交叉口西北100米,30.558762,114.207960,购物服务;购物相关场所;购物相关场所,B0FFFX7WV6
290,LaBatite,湖北省,武汉市,东西湖区,LABatite,东西湖区永旺梦乐城A120,30.649443,114.237888,购物服务;购物相关场所;购物相关场所,B0FFGTASRB
291,LaBatite,湖北省,武汉市,汉阳区,La Batite,汉阳区二环线与龙阳湖北路交叉口西北100米,30.558762,114.207960,购物服务;购物相关场所;购物相关场所,B0FFFX7WV6
292,LaBatite,湖北省,武汉市,东西湖区,LABatite,东西湖区永旺梦乐城A120,30.649443,114.237888,购物服务;购物相关场所;购物相关场所,B0FFGTASRB
293,LaBatite,湖北省,武汉市,汉阳区,La Batite,汉阳区二环线与龙阳湖北路交叉口西北100米,30.558762,114.207960,购物服务;购物相关场所;购物相关场所,B0FFFX7WV6
294,LaBatite,湖北省,武汉市,东西湖区,LABatite,东西湖区永旺梦乐城A120,30.649443,114.237888,购物服务;购物相关场所;购物相关场所,B0FFGTASRB
295,LaBatite,湖北省,武汉市,汉阳区,La Batite,汉阳区二环线与龙阳湖北路交叉口西北100米,30.558762,114.207960,购物服务;购物相关场所;购物相关场所,B0FFFX7WV6
296,LaBatite,湖北省,武汉市,东西湖区,LABatite,东西湖区永旺梦乐城A120,30.649443,114.237888,购物服务;购物相关场所;购物相关场所,B0FFGTASRB
297,LaBatite,湖北省,武汉市,汉阳区,La Batite,汉阳区二环线与龙阳湖北路交叉口西北100米,30.558762,114.207960,购物服务;购物相关场所;购物相关场所,B0FFFX7WV6
298,LaBatite,湖北省,武汉市,东西湖区,LABatite,东西湖区永旺梦乐城A120,30.649443,114.237888,购物服务;购物相关场所;购物相关场所,B0FFGTASRB
299,LaBatite,湖北省,武汉市,汉阳区,La Batite,汉阳区二环线与龙阳湖北路交叉口西北100米,30.558762,114.207960,购物服务;购物相关场所;购物相关场所,B0FFFX7WV6
300,LaBatite,湖北省,武汉市,东西湖区,LABatite,东西湖区永旺梦乐城A120,30.649443,114.237888,购物服务;购物相关场所;购物相关场所,B0FFGTASRB
301,LaBatite,湖北省,武汉市,汉阳区,La Batite,汉阳区二环线与龙阳湖北路交叉口西北100米,30.558762,114.207960,购物服务;购物相关场所;购物相关场所,B0FFFX7WV6
302,LaBatite,湖北省,武汉市,东西湖区,LABatite,东西湖区永旺梦乐城A120,30.649443,114.237888,购物服务;购物相关场所;购物相关场所,B0FFGTASRB
303,LaBatite,湖北省,武汉市,汉阳区,La Batite,汉阳区二环线与龙阳湖北路交叉口西北100米,30.558762,114.207960,购物服务;购物相关场所;购物相关场所,B0FFFX7WV6
304,LaBatite,湖北省,武汉市,东西湖区,LABatite,东西湖区永旺梦乐城A120,30.649443,114.237888,购物服务;购物相关场所;购物相关场所,B0FFGTASRB
305,LaBatite,湖北省,武汉市,汉阳区,La Batite,汉阳区二环线与龙阳湖北路交叉口西北100米,30.558762,114.207960,购物服务;购物相关场所;购物相关场所,B0FFFX7WV6
306,LaBatite,湖北省,武汉市,东西湖区,LABatite,东西湖区永旺梦乐城A120,30.649443,114.237888,购物服务;购物相关场所;购物相关场所,B0FFGTASRB
307,LaBatite,湖北省,武汉市,汉阳区,La Batite,汉阳区二环线与龙阳湖北路交叉口西北100米,30.558762,114.207960,购物服务;购物相关场所;购物相关场所,B0FFFX7WV6
308,LaBatite,湖北省,武汉市,东西湖区,LABatite,东西湖区永旺梦乐城A120,30.649443,114.237888,购物服务;购物相关场所;购物相关场所,B0FFGTASRB
309,LaBatite,湖北省,武汉市,汉阳区,La Batite,汉阳区二环线与龙阳湖北路交叉口西北100米,30.558762,114.207960,购物服务;购物相关场所;购物相关场所,B0FFFX7WV6
310,LaBatite,湖北省,武汉市,东西湖区,LABatite,东西湖区永旺梦乐城A120,30.649443,114.237888,购物服务;购物相关场所;购物相关场所,B0FFGTASRB
311,LaBatite,湖北省,武汉市,汉阳区,La Batite,汉阳区二环线与龙阳湖北路交叉口西北100米,30.558762,114.207960,购物服务;购物相关场所;购物相关场所,B0FFFX7WV6
312,LaBatite,湖北省,武汉市,东西湖区,LABatite,东西湖区永旺梦乐城A120,30.649443,114.237888,购物服务;购物相关场所;购物相关场所,B0FFGTASRB
313,LaBatite,湖北省,武汉市,汉阳区,La Batite,汉阳区二环线与龙阳湖北路交叉口西北100米,30.558762,114.207960,购物服务;购物相关场所;购物相关场所,B0FFFX7WV6
314,LaBatite,湖北省,武汉市,东西湖区,LABatite,东西湖区永旺梦乐城A120,30.649443,114.237888,购物服务;购物相关场所;购物相关场所,B0FFGTASRB
315,LaBatite,湖北省,武汉市,汉阳区,La Batite,汉阳区二环线与龙阳湖北路交叉口西北100米,30.558762,114.207960,购物服务;购物相关场所;购物相关场所,B0FFFX7WV6
316,LaBatite,湖北省,武汉市,东西湖区,LABatite,东西湖区永旺梦乐城A120,30.649443,114.237888,购物服务;购物相关场所;购物相关场所,B0FFGTASRB
317,LaBatite,湖北省,武汉市,汉阳区,La Batite,汉阳区二环线与龙阳湖北路交叉口西北100米,30.558762,114.207960,购物服务;购物相关场所;购物相关场所,B0FFFX7WV6
318,LaBatite,湖北省,武汉市,东西湖区,LABatite,东西湖区永旺梦乐城A120,30.649443,114.237888,购物服务;购物相关场所;购物相关场所,B0FFGTASRB
319,LaBatite,湖北省,武汉市,汉阳区,La Batite,汉阳区二环线与龙阳湖北路交叉口西北100米,30.558762,114.207960,购物服务;购物相关场所;购物相关场所,B0FFFX7WV6
320,LaBatite,湖北省,武汉市,东西湖区,LABatite,东西湖区永旺梦乐城A120,30.649443,114.237888,购物服务;购物相关场所;购物相关场所,B0FFGTASRB
321,LaBatite,湖北省,武汉市,汉阳区,La Batite,汉阳区二环线与龙阳湖北路交叉口西北100米,30.558762,114.207960,购物服务;购物相关场所;购物相关场所,B0FFFX7WV6
322,LaBatite,湖北省,武汉市,东西湖区,LABatite,东西湖区永旺梦乐城A120,30.649443,114.237888,购物服务;购物相关场所;购物相关场所,B0FFGTASRB
323,LaBatite,湖北省,武汉市,汉阳区,La Batite,汉阳区二环线与龙阳湖北路交叉口西北100米,30.558762,114.207960,购物服务;购物相关场所;购物相关场所,B0FFFX7WV6
324,LaBatite,湖北省,武汉市,东西湖区,LABatite,东西湖区永旺梦乐城A120,30.649443,114.237888,购物服务;购物相关场所;购物相关场所,B0FFGTASRB
325,LaBatite,湖北省,武汉市,汉阳区,La Batite,汉阳区二环线与龙阳湖北路交叉口西北100米,30.558762,114.207960,购物服务;购物相关场所;购物相关场所,B0FFFX7WV6
326,LaBatite,湖北省,武汉市,东西湖区,LABatite,东西湖区永旺梦乐城A120,30.649443,114.237888,购物服务;购物相关场所;购物相关场所,B0FFGTASRB
327,LaBatite,湖北省,武汉市,汉阳区,La Batite,汉阳区二环线与龙阳湖北路交叉口西北100米,30.558762,114.207960,购物服务;购物相关场所;购物相关场所,B0FFFX7WV6
328,LaBatite,湖北省,武汉市,东西湖区,LABatite,东西湖区永旺梦乐城A120,30.649443,114.237888,购物服务;购物相关场所;购物相关场所,B0FFGTASRB
329,LaBatite,湖北省,武汉市,汉阳区,La Batite,汉阳区二环线与龙阳湖北路交叉口西北100米,30.558762,114.207960,购物服务;购物相关场所;购物相关场所,B0FFFX7WV6
330,LaBatite,湖北省,武汉市,东西湖区,LABatite,东西湖区永旺梦乐城A120,30.649443,114.237888,购物服务;购物相关场所;购物相关场所,B0FFGTASRB
331,LaBatite,湖北省,武汉市,汉阳区,La Batite,汉阳区二环线与龙阳湖北路交叉口西北100米,30.558762,114.207960,购物服务;购物相关场所;购物相关场所,B0FFFX7WV6
332,LaBatite,湖北省,武汉市,东西湖区,LABatite,东西湖区永旺梦乐城A120,30.649443,114.237888,购物服务;购物相关场所;购物相关场所,B0FFGTASRB
333,LaBatite,湖北省,武汉市,汉阳区,La Batite,汉阳区二环线与龙阳湖北路交叉口西北100米,30.558762,114.207960,购物服务;购物相关场所;购物相关场所,B0FFFX7WV6
334,LaBatite,湖北省,武汉市,东西湖区,LABatite,东西湖区永旺梦乐城A120,30.649443,114.237888,购物服务;购物相关场所;购物相关场所,B0FFGTASRB
335,LaBatite,湖北省,武汉市,汉阳区,La Batite,汉阳区二环线与龙阳湖北路交叉口西北100米,30.558762,114.207960,购物服务;购物相关场所;购物相关场所,B0FFFX7WV6
336,LaBatite,湖北省,武汉市,东西湖区,LABatite,东西湖区永旺梦乐城A120,30.649443,114.237888,购物服务;购物相关场所;购物相关场所,B0FFGTASRB
337,LaBatite,湖北省,武汉市,汉阳区,La Batite,汉阳区二环线与龙阳湖北路交叉口西北100米,30.558762,114.207960,购物服务;购物相关场所;购物相关场所,B0FFFX7WV6
338,LaBatite,湖北省,武汉市,东西湖区,LABatite,东西湖区永旺梦乐城A120,30.649443,114.237888,购物服务;购物相关场所;购物相关场所,B0FFGTASRB
339,LaBatite,湖北省,武汉市,汉阳区,La Batite,汉阳区二环线与龙阳湖北路交叉口西北100米,30.558762,114.207960,购物服务;购物相关场所;购物相关场所,B0FFFX7WV6
340,LaBatite,湖北省,武汉市,东西湖区,LABatite,东西湖区永旺梦乐城A120,30.649443,114.237888,购物服务;购物相关场所;购物相关场所,B0FFGTASRB
341,LaBatite,湖北省,武汉市,汉阳区,La Batite,汉阳区二环线与龙阳湖北路交叉口西北100米,30.558762,114.207960,购物服务;购物相关场所;购物相关场所,B0FFFX7WV6
342,LaBatite,湖北省,武汉市,东西湖区,LABatite,东西湖区永旺梦乐城A120,30.649443,114.237888,购物服务;购物相关场所;购物相关场所,B0FFGTASRB
343,LaBatite,湖北省,武汉市,汉阳区,La Batite,汉阳区二环线与龙阳湖北路交叉口西北100米,30.558762,114.207960,购物服务;购物相关场所;购物相关场所,B0FFFX7WV6
344,LaBatite,湖北省,武汉市,东西湖区,LABatite,东西湖区永旺梦乐城A120,30.649443,114.237888,购物服务;购物相关场所;购物相关场所,B0FFGTASRB
345,LaBatite,湖北省,武汉市,汉阳区,La Batite,汉阳区二环线与龙阳湖北路交叉口西北100米,30.558762,114.207960,购物服务;购物相关场所;购物相关场所,B0FFFX7WV6
346,LaBatite,湖北省,武汉市,东西湖区,LABatite,东西湖区永旺梦乐城A120,30.649443,114.237888,购物服务;购物相关场所;购物相关场所,B0FFGTASRB
347,LaBatite,湖北省,武汉市,汉阳区,La Batite,汉阳区二环线与龙阳湖北路交叉口西北100米,30.558762,114.207960,购物服务;购物相关场所;购物相关场所,B0FFFX7WV6
348,LaBatite,湖北省,武汉市,东西湖区,LABatite,东西湖区永旺梦乐城A120,30.649443,114.237888,购物服务;购物相关场所;购物相关场所,B0FFGTASRB
349,LaBatite,湖北省,武汉市,汉阳区,La Batite,汉阳区二环线与龙阳湖北路交叉口西北100米,30.558762,114.207960,购物服务;购物相关场所;购物相关场所,B0FFFX7WV6
350,LaBatite,湖北省,武汉市,东西湖区,LABatite,东西湖区永旺梦乐城A120,30.649443,114.237888,购物服务;购物相关场所;购物相关场所,B0FFGTASRB
351,LaBatite,湖北省,武汉市,汉阳区,La Batite,汉阳区二环线与龙阳湖北路交叉口西北100米,30.558762,114.207960,购物服务;购物相关场所;购物相关场所,B0FFFX7WV6
352,LaBatite,湖北省,武汉市,东西湖区,LABatite,东西湖区永旺梦乐城A120,30.649443,114.237888,购物服务;购物相关场所;购物相关场所,B0FFGTASRB
353,LaBatite,湖北省,武汉市,汉阳区,La Batite,汉阳区二环线与龙阳湖北路交叉口西北100米,30.558762,114.207960,购物服务;购物相关场所;购物相关场所,B0FFFX7WV6
354,LaBatite,湖北省,武汉市,东西湖区,LABatite,东西湖区永旺梦乐城A120,30.649443,114.237888,购物服务;购物相关场所;购物相关场所,B0FFGTASRB
355,LaBatite,湖北省,武汉市,汉阳区,La Batite,汉阳区二环线与龙阳湖北路交叉口西北100米,30.558762,114.207960,购物服务;购物相关场所;购物相关场所,B0FFFX7WV6
356,LaBatite,湖北省,武汉市,东西湖区,LABatite,东西湖区永旺梦乐城A120,30.649443,114.237888,购物服务;购物相关场所;购物相关场所,B0FFGTASRB
357,LaBatite,湖北省,武汉市,汉阳区,La Batite,汉阳区二环线与龙阳湖北路交叉口西北100米,30.558762,114.207960,购物服务;购物相关场所;购物相关场所,B0FFFX7WV6
358,LaBatite,湖北省,武汉市,东西湖区,LABatite,东西湖区永旺梦乐城A120,30.649443,114.237888,购物服务;购物相关场所;购物相关场所,B0FFGTASRB
359,LaBatite,湖北省,武汉市,汉阳区,La Batite,汉阳区二环线与龙阳湖北路交叉口西北100米,30.558762,114.207960,购物服务;购物相关场所;购物相关场所,B0FFFX7WV6
360,LaBatite,湖北省,武汉市,东西湖区,LABatite,东西湖区永旺梦乐城A120,30.649443,114.237888,购物服务;购物相关场所;购物相关场所,B0FFGTASRB
361,LaBatite,湖北省,武汉市,汉阳区,La Batite,汉阳区二环线与龙阳湖北路交叉口西北100米,30.558762,114.207960,购物服务;购物相关场所;购物相关场所,B0FFFX7WV6
362,LaBatite,湖北省,武汉市,东西湖区,LABatite,东西湖区永旺梦乐城A120,30.649443,114.237888,购物服务;购物相关场所;购物相关场所,B0FFGTASRB
363,LaBatite,湖北省,武汉市,汉阳区,La Batite,汉阳区二环线与龙阳湖北路交叉口西北100米,30.558762,114.207960,购物服务;购物相关场所;购物相关场所,B0FFFX7WV6
364,LaBatite,湖北省,武汉市,东西湖区,LABatite,东西湖区永旺梦乐城A120,30.649443,114.237888,购物服务;购物相关场所;购物相关场所,B0FFGTASRB
365,LaBatite,湖北省,武汉市,汉阳区,La Batite,汉阳区二环线与龙阳湖北路交叉口西北100米,30.558762,114.207960,购物服务;购物相关场所;购物相关场所,B0FFFX7WV6
366,LaBatite,湖北省,武汉市,东西湖区,LABatite,东西湖区永旺梦乐城A120,30.649443,114.237888,购物服务;购物相关场所;购物相关场所,B0FFGTASRB
367,LaBatite,湖北省,武汉市,汉阳区,La Batite,汉阳区二环线与龙阳湖北路交叉口西北100米,30.558762,114.207960,购物服务;购物相关场所;购物相关场所,B0FFFX7WV6
368,LaBatite,湖北省,武汉市,东西湖区,LABatite,东西湖区永旺梦乐城A120,30.649443,114.237888,购物服务;购物相关场所;购物相关场所,B0FFGTASRB
369,LaBatite,湖北省,武汉市,汉阳区,La Batite,汉阳区二环线与龙阳湖北路交叉口西北100米,30.558762,114.207960,购物服务;购物相关场所;购物相关场所,B0FFFX7WV6
370,LaBatite,湖北省,武汉市,东西湖区,LABatite,东西湖区永旺梦乐城A120,30.649443,114.237888,购物服务;购物相关场所;购物相关场所,B0FFGTASRB
371,LaBatite,湖北省,武汉市,汉阳区,La Batite,汉阳区二环线与龙阳湖北路交叉口西北100米,30.558762,114.207960,购物服务;购物相关场所;购物相关场所,B0FFFX7WV6
372,LaBatite,湖北省,武汉市,东西湖区,LABatite,东西湖区永旺梦乐城A120,30.649443,114.237888,购物服务;购物相关场所;购物相关场所,B0FFGTASRB
373,LaBatite,湖北省,武汉市,汉阳区,La Batite,汉阳区二环线与龙阳湖北路交叉口西北100米,30.558762,114.207960,购物服务;购物相关场所;购物相关场所,B0FFFX7WV6
374,LaBatite,湖北省,武汉市,东西湖区,LABatite,东西湖区永旺梦乐城A120,30.649443,114.237888,购物服务;购物相关场所;购物相关场所,B0FFGTASRB
375,LaBatite,湖北省,武汉市,汉阳区,La Batite,汉阳区二环线与龙阳湖北路交叉口西北100米,30.558762,114.207960,购物服务;购物相关场所;购物相关场所,B0FFFX7WV6
376,LaBatite,湖北省,武汉市,东西湖区,LABatite,东西湖区永旺梦乐城A120,30.649443,114.237888,购物服务;购物相关场所;购物相关场所,B0FFGTASRB
377,LaBatite,湖北省,武汉市,汉阳区,La Batite,汉阳区二环线与龙阳湖北路交叉口西北100米,30.558762,114.207960,购物服务;购物相关场所;购物相关场所,B0FFFX7WV6
378,LaBatite,湖北省,武汉市,东西湖区,LABatite,东西湖区永旺梦乐城A120,30.649443,114.237888,购物服务;购物相关场所;购物相关场所,B0FFGTASRB
379,LaBatite,湖北省,武汉市,汉阳区,La Batite,汉阳区二环线与龙阳湖北路交叉口西北100米,30.558762,114.207960,购物服务;购物相关场所;购物相关场所,B0FFFX7WV6
380,LaBatite,湖北省,武汉市,东西湖区,LABatite,东西湖区永旺梦乐城A120,30.649443,114.237888,购物服务;购物相关场所;购物相关场所,B0FFGTASRB
381,LaBatite,湖北省,武汉市,汉阳区,La Batite,汉阳区二环线与龙阳湖北路交叉口西北100米,30.558762,114.207960,购物服务;购物相关场所;购物相关场所,B0FFFX7WV6
382,LaBatite,湖北省,武汉市,东西湖区,LABatite,东西湖区永旺梦乐城A120,30.649443,114.237888,购物服务;购物相关场所;购物相关场所,B0FFGTASRB
383,LaBatite,湖北省,武汉市,汉阳区,La Batite,汉阳区二环线与龙阳湖北路交叉口西北100米,30.558762,114.207960,购物服务;购物相关场所;购物相关场所,B0FFFX7WV6
384,LaBatite,湖北省,武汉市,东西湖区,LABatite,东西湖区永旺梦乐城A120,30.649443,114.237888,购物服务;购物相关场所;购物相关场所,B0FFGTASRB
385,LaBatite,湖北省,武汉市,汉阳区,La Batite,汉阳区二环线与龙阳湖北路交叉口西北100米,30.558762,114.207960,购物服务;购物相关场所;购物相关场所,B0FFFX7WV6
386,LaBatite,湖北省,武汉市,东西湖区,LABatite,东西湖区永旺梦乐城A120,30.649443,114.237888,购物服务;购物相关场所;购物相关场所,B0FFGTASRB
387,LaBatite,湖北省,武汉市,汉阳区,La Batite,汉阳区二环线与龙阳湖北路交叉口西北100米,30.558762,114.207960,购物服务;购物相关场所;购物相关场所,B0FFFX7WV6
388,LaBatite,湖北省,武汉市,东西湖区,LABatite,东西湖区永旺梦乐城A120,30.649443,114.237888,购物服务;购物相关场所;购物相关场所,B0FFGTASRB
389,LaBatite,湖北省,武汉市,汉阳区,La Batite,汉阳区二环线与龙阳湖北路交叉口西北100米,30.558762,114.207960,购物服务;购物相关场所;购物相关场所,B0FFFX7WV6
390,LaBatite,湖北省,武汉市,东西湖区,LABatite,东西湖区永旺梦乐城A120,30.649443,114.237888,购物服务;购物相关场所;购物相关场所,B0FFGTASRB
391,LaBatite,湖北省,武汉市,汉阳区,La Batite,汉阳区二环线与龙阳湖北路交叉口西北100米,30.558762,114.207960,购物服务;购物相关场所;购物相关场所,B0FFFX7WV6
392,LaBatite,湖北省,武汉市,东西湖区,LABatite,东西湖区永旺梦乐城A120,30.649443,114.237888,购物服务;购物相关场所;购物相关场所,B0FFGTASRB
393,LaBatite,湖北省,武汉市,汉阳区,La Batite,汉阳区二环线与龙阳湖北路交叉口西北100米,30.558762,114.207960,购物服务;购物相关场所;购物相关场所,B0FFFX7WV6
394,LaBatite,湖北省,武汉市,东西湖区,LABatite,东西湖区永旺梦乐城A120,30.649443,114.237888,购物服务;购物相关场所;购物相关场所,B0FFGTASRB
395,LaBatite,湖北省,武汉市,汉阳区,La Batite,汉阳区二环线与龙阳湖北路交叉口西北100米,30.558762,114.207960,购物服务;购物相关场所;购物相关场所,B0FFFX7WV6
396,LaBatite,湖北省,武汉市,东西湖区,LABatite,东西湖区永旺梦乐城A120,30.649443,114.237888,购物服务;购物相关场所;购物相关场所,B0FFGTASRB
397,LaBatite,湖北省,武汉市,汉阳区,La Batite,汉阳区二环线与龙阳湖北路交叉口西北100米,30.558762,114.207960,购物服务;购物相关场所;购物相关场所,B0FFFX7WV6
398,LaBatite,湖北省,武汉市,东西湖区,LABatite,东西湖区永旺梦乐城A120,30.649443,114.237888,购物服务;购物相关场所;购物相关场所,B0FFGTASRB
399,LaBatite,湖北省,武汉市,汉阳区,La Batite,汉阳区二环线与龙阳湖北路交叉口西北100米,30.558762,114.207960,购物服务;购物相关场所;购物相关场所,B0FFFX7WV6
400,LaBatite,湖北省,武汉市,东西湖区,LABatite,东西湖区永旺梦乐城A120,30.649443,114.237888,购物服务;购物相关场所;购物相关场所,B0FFGTASRB
401,LaBatite,湖北省,武汉市,汉阳区,La Batite,汉阳区二环线与龙阳湖北路交叉口西北100米,30.558762,114.207960,购物服务;购物相关场所;购物相关场所,B0FFFX7WV6
402,LaBatite,湖北省,武汉市,东西湖区,LABatite,东西湖区永旺梦乐城A120,30.649443,114.237888,购物服务;购物相关场所;购物相关场所,B0FFGTASRB
403,LaBatite,湖北省,武汉市,汉阳区,La Batite,汉阳区二环线与龙阳湖北路交叉口西北100米,30.558762,114.207960,购物服务;购物相关场所;购物相关场所,B0FFFX7WV6
404,LaBatite,湖北省,武汉市,东西湖区,LABatite,东西湖区永旺梦乐城A120,30.649443,114.237888,购物服务;购物相关场所;购物相关场所,B0FFGTASRB
405,LaBatite,湖北省,武汉市,汉阳区,La Batite,汉阳区二环线与龙阳湖北路交叉口西北100米,30.558762,114.207960,购物服务;购物相关场所;购物相关场所,B0FFFX7WV6
406,LaBatite,湖北省,武汉市,东西湖区,LABatite,东西湖区永旺梦乐城A120,30.649443,114.237888,购物服务;购物相关场所;购物相关场所,B0FFGTASRB
407,LaBatite,湖北省,武汉市,汉阳区,La Batite,汉阳区二环线与龙阳湖北路交叉口西北100米,30.558762,114.207960,购物服务;购物相关场所;购物相关场所,B0FFFX7WV6
408,LaBatite,湖北省,武汉市,东西湖区,LABatite,东西湖区永旺梦乐城A120,30.649443,114.237888,购物服务;购物相关场所;购物相关场所,B0FFGTASRB
409,LaBatite,湖北省,武汉市,汉阳区,La Batite,汉阳区二环线与龙阳湖北路交叉口西北100米,30.558762,114.207960,购物服务;购物相关场所;购物相关场所,B0FFFX7WV6
410,LaBatite,湖北省,武汉市,东西湖区,LABatite,东西湖区永旺梦乐城A120,30.649443,114.237888,购物服务;购物相关场所;购物相关场所,B0FFGTASRB
411,LaBatite,湖北省,武汉市,汉阳区,La Batite,汉阳区二环线与龙阳湖北路交叉口西北100米,30.558762,114.207960,购物服务;购物相关场所;购物相关场所,B0FFFX7WV6
412,LaBatite,湖北省,武汉市,东西湖区,LABatite,东西湖区永旺梦乐城A120,30.649443,114.237888,购物服务;购物相关场所;购物相关场所,B0FFGTASRB
413,LaBatite,湖北省,武汉市,汉阳区,La Batite,汉阳区二环线与龙阳湖北路交叉口西北100米,30.558762,114.207960,购物服务;购物相关场所;购物相关场所,B0FFFX7WV6
414,LaBatite,湖北省,武汉市,东西湖区,LABatite,东西湖区永旺梦乐城A120,30.649443,114.237888,购物服务;购物相关场所;购物相关场所,B0FFGTASRB
415,LaBatite,湖北省,武汉市,汉阳区,La Batite,汉阳区二环线与龙阳湖北路交叉口西北100米,30.558762,114.207960,购物服务;购物相关场所;购物相关场所,B0FFFX7WV6
416,LaBatite,湖北省,武汉市,东西湖区,LABatite,东西湖区永旺梦乐城A120,30.649443,114.237888,购物服务;购物相关场所;购物相关场所,B0FFGTASRB
417,LaBatite,湖北省,武汉市,汉阳区,La Batite,汉阳区二环线与龙阳湖北路交叉口西北100米,30.558762,114.207960,购物服务;购物相关场所;购物相关场所,B0FFFX7WV6
418,LaBatite,湖北省,武汉市,东西湖区,LABatite,东西湖区永旺梦乐城A120,30.649443,114.237888,购物服务;购物相关场所;购物相关场所,B0FFGTASRB
419,LaBatite,湖北省,武汉市,汉阳区,La Batite,汉阳区二环线与龙阳湖北路交叉口西北100米,30.558762,114.207960,购物服务;购物相关场所;购物相关场所,B0FFFX7WV6
420,LaBatite,湖北省,武汉市,东西湖区,LABatite,东西湖区永旺梦乐城A120,30.649443,114.237888,购物服务;购物相关场所;购物相关场所,B0FFGTASRB
421,LaBatite,湖北省,武汉市,汉阳区,La Batite,汉阳区二环线与龙阳湖北路交叉口西北100米,30.558762,114.207960,购物服务;购物相关场所;购物相关场所,B0FFFX7WV6
422,LaBatite,湖北省,武汉市,东西湖区,LABatite,东西湖区永旺梦乐城A120,30.649443,114.237888,购物服务;购物相关场所;购物相关场所,B0FFGTASRB
423,LaBatite,湖北省,武汉市,汉阳区,La Batite,汉阳区二环线与龙阳湖北路交叉口西北100米,30.558762,114.207960,购物服务;购物相关场所;购物相关场所,B0FFFX7WV6
424,LaBatite,湖北省,武汉市,东西湖区,LABatite,东西湖区永旺梦乐城A120,30.649443,114.237888,购物服务;购物相关场所;购物相关场所,B0FFGTASRB
425,LaBatite,湖北省,武汉市,汉阳区,La Batite,汉阳区二环线与龙阳湖北路交叉口西北100米,30.558762,114.207960,购物服务;购物相关场所;购物相关场所,B0FFFX7WV6
426,LaBatite,湖北省,武汉市,东西湖区,LABatite,东西湖区永旺梦乐城A120,30.649443,114.237888,购物服务;购物相关场所;购物相关场所,B0FFGTASRB
427,LaBatite,湖北省,武汉市,汉阳区,La Batite,汉阳区二环线与龙阳湖北路交叉口西北100米,30.558762,114.207960,购物服务;购物相关场所;购物相关场所,B0FFFX7WV6
428,LaBatite,湖北省,武汉市,东西湖区,LABatite,东西湖区永旺梦乐城A120,30.649443,114.237888,购物服务;购物相关场所;购物相关场所,B0FFGTASRB
429,LaBatite,湖北省,武汉市,汉阳区,La Batite,汉阳区二环线与龙阳湖北路交叉口西北100米,30.558762,114.207960,购物服务;购物相关场所;购物相关场所,B0FFFX7WV6
430,LaBatite,湖北省,武汉市,东西湖区,LABatite,东西湖区永旺梦乐城A120,30.649443,114.237888,购物服务;购物相关场所;购物相关场所,B0FFGTASRB
431,LaBatite,湖北省,武汉市,汉阳区,La Batite,汉阳区二环线与龙阳湖北路交叉口西北100米,30.558762,114.207960,购物服务;购物相关场所;购物相关场所,B0FFFX7WV6
432,LaBatite,湖北省,武汉市,东西湖区,LABatite,东西湖区永旺梦乐城A120,30.649443,114.237888,购物服务;购物相关场所;购物相关场所,B0FFGTASRB
433,LaBatite,湖北省,武汉市,汉阳区,La Batite,汉阳区二环线与龙阳湖北路交叉口西北100米,30.558762,114.207960,购物服务;购物相关场所;购物相关场所,B0FFFX7WV6
434,LaBatite,湖北省,武汉市,东西湖区,LABatite,东西湖区永旺梦乐城A120,30.649443,114.237888,购物服务;购物相关场所;购物相关场所,B0FFGTASRB
435,LaBatite,湖北省,武汉市,汉阳区,La Batite,汉阳区二环线与龙阳湖北路交叉口西北100米,30.558762,114.207960,购物服务;购物相关场所;购物相关场所,B0FFFX7WV6
436,LaBatite,湖北省,武汉市,东西湖区,LABatite,东西湖区永旺梦乐城A120,30.649443,114.237888,购物服务;购物相关场所;购物相关场所,B0FFGTASRB
437,LaBatite,湖北省,武汉市,汉阳区,La Batite,汉阳区二环线与龙阳湖北路交叉口西北100米,30.558762,114.207960,购物服务;购物相关场所;购物相关场所,B0FFFX7WV6
438,LaBatite,湖北省,武汉市,东西湖区,LABatite,东西湖区永旺梦乐城A120,30.649443,114.237888,购物服务;购物相关场所;购物相关场所,B0FFGTASRB
439,LaBatite,湖北省,武汉市,汉阳区,La Batite,汉阳区二环线与龙阳湖北路交叉口西北100米,30.558762,114.207960,购物服务;购物相关场所;购物相关场所,B0FFFX7WV6
440,LaBatite,湖北省,武汉市,东西湖区,LABatite,东西湖区永旺梦乐城A120,30.649443,114.237888,购物服务;购物相关场所;购物相关场所,B0FFGTASRB
441,LaBatite,湖北省,武汉市,汉阳区,La Batite,汉阳区二环线与龙阳湖北路交叉口西北100米,30.558762,114.207960,购物服务;购物相关场所;购物相关场所,B0FFFX7WV6
442,LaBatite,湖北省,武汉市,东西湖区,LABatite,东西湖区永旺梦乐城A120,30.649443,114.237888,购物服务;购物相关场所;购物相关场所,B0FFGTASRB
443,LaBatite,湖北省,武汉市,汉阳区,La Batite,汉阳区二环线与龙阳湖北路交叉口西北100米,30.558762,114.207960,购物服务;购物相关场所;购物相关场所,B0FFFX7WV6
444,LaBatite,湖北省,武汉市,东西湖区,LABatite,东西湖区永旺梦乐城A120,30.649443,114.237888,购物服务;购物相关场所;购物相关场所,B0FFGTASRB
445,LaBatite,湖北省,武汉市,汉阳区,La Batite,汉阳区二环线与龙阳湖北路交叉口西北100米,30.558762,114.207960,购物服务;购物相关场所;购物相关场所,B0FFFX7WV6
446,LaBatite,湖北省,武汉市,东西湖区,LABatite,东西湖区永旺梦乐城A120,30.649443,114.237888,购物服务;购物相关场所;购物相关场所,B0FFGTASRB
447,LaBatite,湖北省,武汉市,汉阳区,La Batite,汉阳区二环线与龙阳湖北路交叉口西北100米,30.558762,114.207960,购物服务;购物相关场所;购物相关场所,B0FFFX7WV6
448,LaBatite,湖北省,武汉市,东西湖区,LABatite,东西湖区永旺梦乐城A120,30.649443,114.237888,购物服务;购物相关场所;购物相关场所,B0FFGTASRB
449,LaBatite,湖北省,武汉市,汉阳区,La Batite,汉阳区二环线与龙阳湖北路交叉口西北100米,30.558762,114.207960,购物服务;购物相关场所;购物相关场所,B0FFFX7WV6
450,LaBatite,湖北省,武汉市,东西湖区,LABatite,东西湖区永旺梦乐城A120,30.649443,114.237888,购物服务;购物相关场所;购物相关场所,B0FFGTASRB
451,LaBatite,湖北省,武汉市,汉阳区,La Batite,汉阳区二环线与龙阳湖北路交叉口西北100米,30.558762,114.207960,购物服务;购物相关场所;购物相关场所,B0FFFX7WV6
452,LaBatite,湖北省,武汉市,东西湖区,LABatite,东西湖区永旺梦乐城A120,30.649443,114.237888,购物服务;购物相关场所;购物相关场所,B0FFGTASRB
453,LaBatite,湖北省,武汉市,汉阳区,La Batite,汉阳区二环线与龙阳湖北路交叉口西北100米,30.558762,114.207960,购物服务;购物相关场所;购物相关场所,B0FFFX7WV6
454,LaBatite,湖北省,武汉市,东西湖区,LABatite,东西湖区永旺梦乐城A120,30.649443,114.237888,购物服务;购物相关场所;购物相关场所,B0FFGTASRB
455,LaBatite,湖北省,武汉市,汉阳区,La Batite,汉阳区二环线与龙阳湖北路交叉口西北100米,30.558762,114.207960,购物服务;购物相关场所;购物相关场所,B0FFFX7WV6
456,LaBatite,湖北省,武汉市,东西湖区,LABatite,东西湖区永旺梦乐城A120,30.649443,114.237888,购物服务;购物相关场所;购物相关场所,B0FFGTASRB
457,LaBatite,湖北省,武汉市,汉阳区,La Batite,汉阳区二环线与龙阳湖北路交叉口西北100米,30.558762,114.207960,购物服务;购物相关场所;购物相关场所,B0FFFX7WV6
458,LaBatite,湖北省,武汉市,东西湖区,LABatite,东西湖区永旺梦乐城A120,30.649443,114.237888,购物服务;购物相关场所;购物相关场所,B0FFGTASRB
459,LaBatite,湖北省,武汉市,汉阳区,La Batite,汉阳区二环线与龙阳湖北路交叉口西北100米,30.558762,114.207960,购物服务;购物相关场所;购物相关场所,B0FFFX7WV6
460,LaBatite,湖北省,武汉市,东西湖区,LABatite,东西湖区永旺梦乐城A120,30.649443,114.237888,购物服务;购物相关场所;购物相关场所,B0FFGTASRB
461,LaBatite,湖北省,武汉市,汉阳区,La Batite,汉阳区二环线与龙阳湖北路交叉口西北100米,30.558762,114.207960,购物服务;购物相关场所;购物相关场所,B0FFFX7WV6
462,LaBatite,湖北省,武汉市,东西湖区,LABatite,东西湖区永旺梦乐城A120,30.649443,114.237888,购物服务;购物相关场所;购物相关场所,B0FFGTASRB
463,LaBatite,湖北省,武汉市,汉阳区,La Batite,汉阳区二环线与龙阳湖北路交叉口西北100米,30.558762,114.207960,购物服务;购物相关场所;购物相关场所,B0FFFX7WV6
464,LaBatite,湖北省,武汉市,东西湖区,LABatite,东西湖区永旺梦乐城A120,30.649443,114.237888,购物服务;购物相关场所;购物相关场所,B0FFGTASRB
465,LaBatite,湖北省,武汉市,汉阳区,La Batite,汉阳区二环线与龙阳湖北路交叉口西北100米,30.558762,114.207960,购物服务;购物相关场所;购物相关场所,B0FFFX7WV6
466,LaBatite,湖北省,武汉市,东西湖区,LABatite,东西湖区永旺梦乐城A120,30.649443,114.237888,购物服务;购物相关场所;购物相关场所,B0FFGTASRB
467,LaBatite,湖北省,武汉市,汉阳区,La Batite,汉阳区二环线与龙阳湖北路交叉口西北100米,30.558762,114.207960,购物服务;购物相关场所;购物相关场所,B0FFFX7WV6
468,LaBatite,湖北省,武汉市,东西湖区,LABatite,东西湖区永旺梦乐城A120,30.649443,114.237888,购物服务;购物相关场所;购物相关场所,B0FFGTASRB
469,LaBatite,湖北省,武汉市,汉阳区,La Batite,汉阳区二环线与龙阳湖北路交叉口西北100米,30.558762,114.207960,购物服务;购物相关场所;购物相关场所,B0FFFX7WV6
470,LaBatite,湖北省,武汉市,东西湖区,LABatite,东西湖区永旺梦乐城A120,30.649443,114.237888,购物服务;购物相关场所;购物相关场所,B0FFGTASRB
471,LaBatite,湖北省,武汉市,汉阳区,La Batite,汉阳区二环线与龙阳湖北路交叉口西北100米,30.558762,114.207960,购物服务;购物相关场所;购物相关场所,B0FFFX7WV6
472,LaBatite,湖北省,武汉市,东西湖区,LABatite,东西湖区永旺梦乐城A120,30.649443,114.237888,购物服务;购物相关场所;购物相关场所,B0FFGTASRB
473,LaBatite,湖北省,武汉市,汉阳区,La Batite,汉阳区二环线与龙阳湖北路交叉口西北100米,30.558762,114.207960,购物服务;购物相关场所;购物相关场所,B0FFFX7WV6
474,LaBatite,湖北省,武汉市,东西湖区,LABatite,东西湖区永旺梦乐城A120,30.649443,114.237888,购物服务;购物相关场所;购物相关场所,B0FFGTASRB
475,LaBatite,湖北省,武汉市,汉阳区,La Batite,汉阳区二环线与龙阳湖北路交叉口西北100米,30.558762,114.207960,购物服务;购物相关场所;购物相关场所,B0FFFX7WV6
476,LaBatite,湖北省,武汉市,东西湖区,LABatite,东西湖区永旺梦乐城A120,30.649443,114.237888,购物服务;购物相关场所;购物相关场所,B0FFGTASRB
477,LaBatite,湖北省,武汉市,汉阳区,La Batite,汉阳区二环线与龙阳湖北路交叉口西北100米,30.558762,114.207960,购物服务;购物相关场所;购物相关场所,B0FFFX7WV6
478,LaBatite,湖北省,武汉市,东西湖区,LABatite,东西湖区永旺梦乐城A120,30.649443,114.237888,购物服务;购物相关场所;购物相关场所,B0FFGTASRB
479,LaBatite,湖北省,武汉市,汉阳区,La Batite,汉阳区二环线与龙阳湖北路交叉口西北100米,30.558762,114.207960,购物服务;购物相关场所;购物相关场所,B0FFFX7WV6
480,LaBatite,湖北省,武汉市,东西湖区,LABatite,东西湖区永旺梦乐城A120,30.649443,114.237888,购物服务;购物相关场所;购物相关场所,B0FFGTASRB
481,LaBatite,湖北省,武汉市,汉阳区,La Batite,汉阳区二环线与龙阳湖北路交叉口西北100米,30.558762,114.207960,购物服务;购物相关场所;购物相关场所,B0FFFX7WV6
482,LaBatite,湖北省,武汉市,东西湖区,LABatite,东西湖区永旺梦乐城A120,30.649443,114.237888,购物服务;购物相关场所;购物相关场所,B0FFGTASRB
483,LaBatite,湖北省,武汉市,汉阳区,La Batite,汉阳区二环线与龙阳湖北路交叉口西北100米,30.558762,114.207960,购物服务;购物相关场所;购物相关场所,B0FFFX7WV6
484,LaBatite,湖北省,武汉市,东西湖区,LABatite,东西湖区永旺梦乐城A120,30.649443,114.237888,购物服务;购物相关场所;购物相关场所,B0FFGTASRB
485,LaBatite,湖北省,武汉市,汉阳区,La Batite,汉阳区二环线与龙阳湖北路交叉口西北100米,30.558762,114.207960,购物服务;购物相关场所;购物相关场所,B0FFFX7WV6
486,LaBatite,湖北省,武汉市,东西湖区,LABatite,东西湖区永旺梦乐城A120,30.649443,114.237888,购物服务;购物相关场所;购物相关场所,B0FFGTASRB
487,LaBatite,湖北省,武汉市,汉阳区,La Batite,汉阳区二环线与龙阳湖北路交叉口西北100米,30.558762,114.207960,购物服务;购物相关场所;购物相关场所,B0FFFX7WV6
488,LaBatite,湖北省,武汉市,东西湖区,LABatite,东西湖区永旺梦乐城A120,30.649443,114.237888,购物服务;购物相关场所;购物相关场所,B0FFGTASRB
489,LaBatite,湖北省,武汉市,汉阳区,La Batite,汉阳区二环线与龙阳湖北路交叉口西北100米,30.558762,114.207960,购物服务;购物相关场所;购物相关场所,B0FFFX7WV6
490,LaBatite,湖北省,武汉市,东西湖区,LABatite,东西湖区永旺梦乐城A120,30.649443,114.237888,购物服务;购物相关场所;购物相关场所,B0FFGTASRB
491,LaBatite,湖北省,武汉市,汉阳区,La Batite,汉阳区二环线与龙阳湖北路交叉口西北100米,30.558762,114.207960,购物服务;购物相关场所;购物相关场所,B0FFFX7WV6
492,LaBatite,湖北省,武汉市,东西湖区,LABatite,东西湖区永旺梦乐城A120,30.649443,114.237888,购物服务;购物相关场所;购物相关场所,B0FFGTASRB
493,LaBatite,湖北省,武汉市,汉阳区,La Batite,汉阳区二环线与龙阳湖北路交叉口西北100米,30.558762,114.207960,购物服务;购物相关场所;购物相关场所,B0FFFX7WV6
494,LaBatite,湖北省,武汉市,东西湖区,LABatite,东西湖区永旺梦乐城A120,30.649443,114.237888,购物服务;购物相关场所;购物相关场所,B0FFGTASRB
495,LaBatite,湖北省,武汉市,汉阳区,La Batite,汉阳区二环线与龙阳湖北路交叉口西北100米,30.558762,114.207960,购物服务;购物相关场所;购物相关场所,B0FFFX7WV6
496,LaBatite,湖北省,武汉市,东西湖区,LABatite,东西湖区永旺梦乐城A120,30.649443,114.237888,购物服务;购物相关场所;购物相关场所,B0FFGTASRB
497,LaBatite,湖北省,武汉市,汉阳区,La Batite,汉阳区二环线与龙阳湖北路交叉口西北100米,30.558762,114.207960,购物服务;购物相关场所;购物相关场所,B0FFFX7WV6
498,LaBatite,湖北省,武汉市,东西湖区,LABatite,东西湖区永旺梦乐城A120,30.649443,114.237888,购物服务;购物相关场所;购物相关场所,B0FFGTASRB
499,LaBatite,湖北省,武汉市,汉阳区,La Batite,汉阳区二环线与龙阳湖北路交叉口西北100米,30.558762,114.207960,购物服务;购物相关场所;购物相关场所,B0FFFX7WV6
500,LaBatite,湖北省,武汉市,东西湖区,LABatite,东西湖区永旺梦乐城A120,30.649443,114.237888,购物服务;购物相关场所;购物相关场所,B0FFGTASRB
501,LaBatite,湖北省,武汉市,汉阳区,La Batite,汉阳区二环线与龙阳湖北路交叉口西北100米,30.558762,114.207960,购物服务;购物相关场所;购物相关场所,B0FFFX7WV6
502,LaBatite,湖北省,武汉市,东西湖区,LABatite,东西湖区永旺梦乐城A120,30.649443,114.237888,购物服务;购物相关场所;购物相关场所,B0FFGTASRB
503,LaBatite,湖北省,武汉市,汉阳区,La Batite,汉阳区二环线与龙阳湖北路交叉口西北100米,30.558762,114.207960,购物服务;购物相关场所;购物相关场所,B0FFFX7WV6
504,LaBatite,湖北省,武汉市,东西湖区,LABatite,东西湖区永旺梦乐城A120,30.649443,114.237888,购物服务;购物相关场所;购物相关场所,B0FFGTASRB
505,LaBatite,湖北省,武汉市,汉阳区,La Batite,汉阳区二环线与龙阳湖北路交叉口西北100米,30.558762,114.207960,购物服务;购物相关场所;购物相关场所,B0FFFX7WV6
506,LaBatite,湖北省,武汉市,东西湖区,LABatite,东西湖区永旺梦乐城A120,30.649443,114.237888,购物服务;购物相关场所;购物相关场所,B0FFGTASRB
507,LaBatite,湖北省,武汉市,汉阳区,La Batite,汉阳区二环线与龙阳湖北路交叉口西北100米,30.558762,114.207960,购物服务;购物相关场所;购物相关场所,B0FFFX7WV6
508,LaBatite,湖北省,武汉市,东西湖区,LABatite,东西湖区永旺梦乐城A120,30.649443,114.237888,购物服务;购物相关场所;购物相关场所,B0FFGTASRB
509,LaBatite,湖北省,武汉市,汉阳区,La Batite,汉阳区二环线与龙阳湖北路交叉口西北100米,30.558762,114.207960,购物服务;购物相关场所;购物相关场所,B0FFFX7WV6
510,LaBatite,湖北省,武汉市,东西湖区,LABatite,东西湖区永旺梦乐城A120,30.649443,114.237888,购物服务;购物相关场所;购物相关场所,B0FFGTASRB
511,LaBatite,湖北省,武汉市,汉阳区,La Batite,汉阳区二环线与龙阳湖北路交叉口西北100米,30.558762,114.207960,购物服务;购物相关场所;购物相关场所,B0FFFX7WV6
512,LaBatite,湖北省,武汉市,东西湖区,LABatite,东西湖区永旺梦乐城A120,30.649443,114.237888,购物服务;购物相关场所;购物相关场所,B0FFGTASRB
513,LaBatite,湖北省,武汉市,汉阳区,La Batite,汉阳区二环线与龙阳湖北路交叉口西北100米,30.558762,114.207960,购物服务;购物相关场所;购物相关场所,B0FFFX7WV6
514,LaBatite,湖北省,武汉市,东西湖区,LABatite,东西湖区永旺梦乐城A120,30.649443,114.237888,购物服务;购物相关场所;购物相关场所,B0FFGTASRB
515,LaBatite,湖北省,武汉市,汉阳区,La Batite,汉阳区二环线与龙阳湖北路交叉口西北100米,30.558762,114.207960,购物服务;购物相关场所;购物相关场所,B0FFFX7WV6
516,LaBatite,湖北省,武汉市,东西湖区,LABatite,东西湖区永旺梦乐城A120,30.649443,114.237888,购物服务;购物相关场所;购物相关场所,B0FFGTASRB
517,LaBatite,湖北省,武汉市,汉阳区,La Batite,汉阳区二环线与龙阳湖北路交叉口西北100米,30.558762,114.207960,购物服务;购物相关场所;购物相关场所,B0FFFX7WV6
518,LaBatite,湖北省,武汉市,东西湖区,LABatite,东西湖区永旺梦乐城A120,30.649443,114.237888,购物服务;购物相关场所;购物相关场所,B0FFGTASRB
519,LaBatite,湖北省,武汉市,汉阳区,La Batite,汉阳区二环线与龙阳湖北路交叉口西北100米,30.558762,114.207960,购物服务;购物相关场所;购物相关场所,B0FFFX7WV6
520,LaBatite,湖北省,武汉市,东西湖区,LABatite,东西湖区永旺梦乐城A120,30.649443,114.237888,购物服务;购物相关场所;购物相关场所,B0FFGTASRB
521,LaBatite,湖北省,武汉市,汉阳区,La Batite,汉阳区二环线与龙阳湖北路交叉口西北100米,30.558762,114.207960,购物服务;购物相关场所;购物相关场所,B0FFFX7WV6
522,LaBatite,湖北省,武汉市,东西湖区,LABatite,东西湖区永旺梦乐城A120,30.649443,114.237888,购物服务;购物相关场所;购物相关场所,B0FFGTASRB
523,LaBatite,湖北省,武汉市,汉阳区,La Batite,汉阳区二环线与龙阳湖北路交叉口西北100米,30.558762,114.207960,购物服务;购物相关场所;购物相关场所,B0FFFX7WV6
524,LaBatite,湖北省,武汉市,东西湖区,LABatite,东西湖区永旺梦乐城A120,30.649443,114.237888,购物服务;购物相关场所;购物相关场所,B0FFGTASRB
525,LaBatite,湖北省,武汉市,汉阳区,La Batite,汉阳区二环线与龙阳湖北路交叉口西北100米,30.558762,114.207960,购物服务;购物相关场所;购物相关场所,B0FFFX7WV6
526,LaBatite,湖北省,武汉市,东西湖区,LABatite,东西湖区永旺梦乐城A120,30.649443,114.237888,购物服务;购物相关场所;购物相关场所,B0FFGTASRB
527,LaBatite,湖北省,武汉市,汉阳区,La Batite,汉阳区二环线与龙阳湖北路交叉口西北100米,30.558762,114.207960,购物服务;购物相关场所;购物相关场所,B0FFFX7WV6
528,LaBatite,湖北省,武汉市,东西湖区,LABatite,东西湖区永旺梦乐城A120,30.649443,114.237888,购物服务;购物相关场所;购物相关场所,B0FFGTASRB
529,LaBatite,湖北省,武汉市,汉阳区,La Batite,汉阳区二环线与龙阳湖北路交叉口西北100米,30.558762,114.207960,购物服务;购物相关场所;购物相关场所,B0FFFX7WV6
530,LaBatite,湖北省,武汉市,东西湖区,LABatite,东西湖区永旺梦乐城A120,30.649443,114.237888,购物服务;购物相关场所;购物相关场所,B0FFGTASRB
531,LaBatite,湖北省,武汉市,汉阳区,La Batite,汉阳区二环线与龙阳湖北路交叉口西北100米,30.558762,114.207960,购物服务;购物相关场所;购物相关场所,B0FFFX7WV6
532,LaBatite,湖北省,武汉市,东西湖区,LABatite,东西湖区永旺梦乐城A120,30.649443,114.237888,购物服务;购物相关场所;购物相关场所,B0FFGTASRB
533,LaBatite,湖北省,武汉市,汉阳区,La Batite,汉阳区二环线与龙阳湖北路交叉口西北100米,30.558762,114.207960,购物服务;购物相关场所;购物相关场所,B0FFFX7WV6
534,LaBatite,湖北省,武汉市,东西湖区,LABatite,东西湖区永旺梦乐城A120,30.649443,114.237888,购物服务;购物相关场所;购物相关场所,B0FFGTASRB
535,LaBatite,湖北省,武汉市,汉阳区,La Batite,汉阳区二环线与龙阳湖北路交叉口西北100米,30.558762,114.207960,购物服务;购物相关场所;购物相关场所,B0FFFX7WV6
536,LaBatite,湖北省,武汉市,东西湖区,LABatite,东西湖区永旺梦乐城A120,30.649443,114.237888,购物服务;购物相关场所;购物相关场所,B0FFGTASRB
537,LaBatite,湖北省,武汉市,汉阳区,La Batite,汉阳区二环线与龙阳湖北路交叉口西北100米,30.558762,114.207960,购物服务;购物相关场所;购物相关场所,B0FFFX7WV6
538,LaBatite,湖北省,武汉市,东西湖区,LABatite,东西湖区永旺梦乐城A120,30.649443,114.237888,购物服务;购物相关场所;购物相关场所,B0FFGTASRB
539,LaBatite,湖北省,武汉市,汉阳区,La Batite,汉阳区二环线与龙阳湖北路交叉口西北100米,30.558762,114.207960,购物服务;购物相关场所;购物相关场所,B0FFFX7WV6
540,LaBatite,湖北省,武汉市,东西湖区,LABatite,东西湖区永旺梦乐城A120,30.649443,114.237888,购物服务;购物相关场所;购物相关场所,B0FFGTASRB
541,LaBatite,湖北省,武汉市,汉阳区,La Batite,汉阳区二环线与龙阳湖北路交叉口西北100米,30.558762,114.207960,购物服务;购物相关场所;购物相关场所,B0FFFX7WV6
542,LaBatite,湖北省,武汉市,东西湖区,LABatite,东西湖区永旺梦乐城A120,30.649443,114.237888,购物服务;购物相关场所;购物相关场所,B0FFGTASRB
543,LaBatite,湖北省,武汉市,汉阳区,La Batite,汉阳区二环线与龙阳湖北路交叉口西北100米,30.558762,114.207960,购物服务;购物相关场所;购物相关场所,B0FFFX7WV6
544,LaBatite,湖北省,武汉市,东西湖区,LABatite,东西湖区永旺梦乐城A120,30.649443,114.237888,购物服务;购物相关场所;购物相关场所,B0FFGTASRB
545,LaBatite,湖北省,武汉市,汉阳区,La Batite,汉阳区二环线与龙阳湖北路交叉口西北100米,30.558762,114.207960,购物服务;购物相关场所;购物相关场所,B0FFFX7WV6
546,LaBatite,湖北省,武汉市,东西湖区,LABatite,东西湖区永旺梦乐城A120,30.649443,114.237888,购物服务;购物相关场所;购物相关场所,B0FFGTASRB
547,LaBatite,湖北省,武汉市,汉阳区,La Batite,汉阳区二环线与龙阳湖北路交叉口西北100米,30.558762,114.207960,购物服务;购物相关场所;购物相关场所,B0FFFX7WV6
548,LaBatite,辽宁省,抚顺市,顺城区,La Batite(印象新城购物中心),顺城区新城东路与盛城街交叉口印象新城购物中心F1层,41.881522,123.953500,购物服务;购物相关场所;购物相关场所,B0FFI2YYFM
549,LaBatite,辽宁省,抚顺市,顺城区,La Batite(印象新城购物中心),顺城区新城东路与盛城街交叉口印象新城购物中心F1层,41.881522,123.953500,购物服务;购物相关场所;购物相关场所,B0FFI2YYFM
550,LaBatite,湖北省,武汉市,东西湖区,LABatite,东西湖区永旺梦乐城A120,30.649443,114.237888,购物服务;购物相关场所;购物相关场所,B0FFGTASRB
551,LaBatite,湖北省,武汉市,汉阳区,La Batite,汉阳区二环线与龙阳湖北路交叉口西北100米,30.558762,114.207960,购物服务;购物相关场所;购物相关场所,B0FFFX7WV6
552,LaBatite,湖北省,武汉市,东西湖区,LABatite,东西湖区永旺梦乐城A120,30.649443,114.237888,购物服务;购物相关场所;购物相关场所,B0FFGTASRB
553,LaBatite,湖北省,武汉市,汉阳区,La Batite,汉阳区二环线与龙阳湖北路交叉口西北100米,30.558762,114.207960,购物服务;购物相关场所;购物相关场所,B0FFFX7WV6
554,LaBatite,湖北省,武汉市,东西湖区,LABatite,东西湖区永旺梦乐城A120,30.649443,114.237888,购物服务;购物相关场所;购物相关场所,B0FFGTASRB
555,LaBatite,湖北省,武汉市,汉阳区,La Batite,汉阳区二环线与龙阳湖北路交叉口西北100米,30.558762,114.207960,购物服务;购物相关场所;购物相关场所,B0FFFX7WV6
556,LaBatite,湖北省,武汉市,东西湖区,LABatite,东西湖区永旺梦乐城A120,30.649443,114.237888,购物服务;购物相关场所;购物相关场所,B0FFGTASRB
557,LaBatite,湖北省,武汉市,汉阳区,La Batite,汉阳区二环线与龙阳湖北路交叉口西北100米,30.558762,114.207960,购物服务;购物相关场所;购物相关场所,B0FFFX7WV6
558,LaBatite,湖北省,武汉市,东西湖区,LABatite,东西湖区永旺梦乐城A120,30.649443,114.237888,购物服务;购物相关场所;购物相关场所,B0FFGTASRB
559,LaBatite,湖北省,武汉市,汉阳区,La Batite,汉阳区二环线与龙阳湖北路交叉口西北100米,30.558762,114.207960,购物服务;购物相关场所;购物相关场所,B0FFFX7WV6
560,LaBatite,湖北省,武汉市,东西湖区,LABatite,东西湖区永旺梦乐城A120,30.649443,114.237888,购物服务;购物相关场所;购物相关场所,B0FFGTASRB
561,LaBatite,湖北省,武汉市,汉阳区,La Batite,汉阳区二环线与龙阳湖北路交叉口西北100米,30.558762,114.207960,购物服务;购物相关场所;购物相关场所,B0FFFX7WV6
562,LaBatite,湖北省,武汉市,东西湖区,LABatite,东西湖区永旺梦乐城A120,30.649443,114.237888,购物服务;购物相关场所;购物相关场所,B0FFGTASRB
563,LaBatite,湖北省,武汉市,汉阳区,La Batite,汉阳区二环线与龙阳湖北路交叉口西北100米,30.558762,114.207960,购物服务;购物相关场所;购物相关场所,B0FFFX7WV6
564,LaBatite,湖北省,武汉市,东西湖区,LABatite,东西湖区永旺梦乐城A120,30.649443,114.237888,购物服务;购物相关场所;购物相关场所,B0FFGTASRB
565,LaBatite,湖北省,武汉市,汉阳区,La Batite,汉阳区二环线与龙阳湖北路交叉口西北100米,30.558762,114.207960,购物服务;购物相关场所;购物相关场所,B0FFFX7WV6
566,LaBatite,湖北省,武汉市,东西湖区,LABatite,东西湖区永旺梦乐城A120,30.649443,114.237888,购物服务;购物相关场所;购物相关场所,B0FFGTASRB
567,LaBatite,湖北省,武汉市,汉阳区,La Batite,汉阳区二环线与龙阳湖北路交叉口西北100米,30.558762,114.207960,购物服务;购物相关场所;购物相关场所,B0FFFX7WV6
568,LaBatite,湖北省,武汉市,东西湖区,LABatite,东西湖区永旺梦乐城A120,30.649443,114.237888,购物服务;购物相关场所;购物相关场所,B0FFGTASRB
569,LaBatite,湖北省,武汉市,汉阳区,La Batite,汉阳区二环线与龙阳湖北路交叉口西北100米,30.558762,114.207960,购物服务;购物相关场所;购物相关场所,B0FFFX7WV6
570,LaBatite,湖北省,武汉市,东西湖区,LABatite,东西湖区永旺梦乐城A120,30.649443,114.237888,购物服务;购物相关场所;购物相关场所,B0FFGTASRB
571,LaBatite,湖北省,武汉市,汉阳区,La Batite,汉阳区二环线与龙阳湖北路交叉口西北100米,30.558762,114.207960,购物服务;购物相关场所;购物相关场所,B0FFFX7WV6
572,LaBatite,湖北省,武汉市,东西湖区,LABatite,东西湖区永旺梦乐城A120,30.649443,114.237888,购物服务;购物相关场所;购物相关场所,B0FFGTASRB
573,LaBatite,湖北省,武汉市,汉阳区,La Batite,汉阳区二环线与龙阳湖北路交叉口西北100米,30.558762,114.207960,购物服务;购物相关场所;购物相关场所,B0FFFX7WV6
574,LaBatite,湖北省,武汉市,东西湖区,LABatite,东西湖区永旺梦乐城A120,30.649443,114.237888,购物服务;购物相关场所;购物相关场所,B0FFGTASRB
575,LaBatite,湖北省,武汉市,汉阳区,La Batite,汉阳区二环线与龙阳湖北路交叉口西北100米,30.558762,114.207960,购物服务;购物相关场所;购物相关场所,B0FFFX7WV6
576,LaBatite,湖北省,武汉市,东西湖区,LABatite,东西湖区永旺梦乐城A120,30.649443,114.237888,购物服务;购物相关场所;购物相关场所,B0FFGTASRB
577,LaBatite,湖北省,武汉市,汉阳区,La Batite,汉阳区二环线与龙阳湖北路交叉口西北100米,30.558762,114.207960,购物服务;购物相关场所;购物相关场所,B0FFFX7WV6
578,LaBatite,湖北省,武汉市,东西湖区,LABatite,东西湖区永旺梦乐城A120,30.649443,114.237888,购物服务;购物相关场所;购物相关场所,B0FFGTASRB
579,LaBatite,湖北省,武汉市,汉阳区,La Batite,汉阳区二环线与龙阳湖北路交叉口西北100米,30.558762,114.207960,购物服务;购物相关场所;购物相关场所,B0FFFX7WV6
580,LaBatite,湖北省,武汉市,东西湖区,LABatite,东西湖区永旺梦乐城A120,30.649443,114.237888,购物服务;购物相关场所;购物相关场所,B0FFGTASRB
581,LaBatite,湖北省,武汉市,汉阳区,La Batite,汉阳区二环线与龙阳湖北路交叉口西北100米,30.558762,114.207960,购物服务;购物相关场所;购物相关场所,B0FFFX7WV6
582,LaBatite,湖北省,武汉市,东西湖区,LABatite,东西湖区永旺梦乐城A120,30.649443,114.237888,购物服务;购物相关场所;购物相关场所,B0FFGTASRB
583,LaBatite,湖北省,武汉市,汉阳区,La Batite,汉阳区二环线与龙阳湖北路交叉口西北100米,30.558762,114.207960,购物服务;购物相关场所;购物相关场所,B0FFFX7WV6
584,LaBatite,湖北省,武汉市,东西湖区,LABatite,东西湖区永旺梦乐城A120,30.649443,114.237888,购物服务;购物相关场所;购物相关场所,B0FFGTASRB
585,LaBatite,湖北省,武汉市,汉阳区,La Batite,汉阳区二环线与龙阳湖北路交叉口西北100米,30.558762,114.207960,购物服务;购物相关场所;购物相关场所,B0FFFX7WV6
586,LaBatite,湖北省,武汉市,东西湖区,LABatite,东西湖区永旺梦乐城A120,30.649443,114.237888,购物服务;购物相关场所;购物相关场所,B0FFGTASRB
587,LaBatite,湖北省,武汉市,汉阳区,La Batite,汉阳区二环线与龙阳湖北路交叉口西北100米,30.558762,114.207960,购物服务;购物相关场所;购物相关场所,B0FFFX7WV6
588,LaBatite,湖北省,武汉市,东西湖区,LABatite,东西湖区永旺梦乐城A120,30.649443,114.237888,购物服务;购物相关场所;购物相关场所,B0FFGTASRB
589,LaBatite,湖北省,武汉市,汉阳区,La Batite,汉阳区二环线与龙阳湖北路交叉口西北100米,30.558762,114.207960,购物服务;购物相关场所;购物相关场所,B0FFFX7WV6
590,LaBatite,湖北省,武汉市,东西湖区,LABatite,东西湖区永旺梦乐城A120,30.649443,114.237888,购物服务;购物相关场所;购物相关场所,B0FFGTASRB
591,LaBatite,湖北省,武汉市,汉阳区,La Batite,汉阳区二环线与龙阳湖北路交叉口西北100米,30.558762,114.207960,购物服务;购物相关场所;购物相关场所,B0FFFX7WV6
592,LaBatite,湖北省,武汉市,东西湖区,LABatite,东西湖区永旺梦乐城A120,30.649443,114.237888,购物服务;购物相关场所;购物相关场所,B0FFGTASRB
593,LaBatite,湖北省,武汉市,汉阳区,La Batite,汉阳区二环线与龙阳湖北路交叉口西北100米,30.558762,114.207960,购物服务;购物相关场所;购物相关场所,B0FFFX7WV6
594,LaBatite,湖北省,武汉市,东西湖区,LABatite,东西湖区永旺梦乐城A120,30.649443,114.237888,购物服务;购物相关场所;购物相关场所,B0FFGTASRB
595,LaBatite,湖北省,武汉市,汉阳区,La Batite,汉阳区二环线与龙阳湖北路交叉口西北100米,30.558762,114.207960,购物服务;购物相关场所;购物相关场所,B0FFFX7WV6
596,LaBatite,湖北省,武汉市,东西湖区,LABatite,东西湖区永旺梦乐城A120,30.649443,114.237888,购物服务;购物相关场所;购物相关场所,B0FFGTASRB
597,LaBatite,湖北省,武汉市,汉阳区,La Batite,汉阳区二环线与龙阳湖北路交叉口西北100米,30.558762,114.207960,购物服务;购物相关场所;购物相关场所,B0FFFX7WV6
598,LaBatite,湖北省,武汉市,东西湖区,LABatite,东西湖区永旺梦乐城A120,30.649443,114.237888,购物服务;购物相关场所;购物相关场所,B0FFGTASRB
599,LaBatite,湖北省,武汉市,汉阳区,La Batite,汉阳区二环线与龙阳湖北路交叉口西北100米,30.558762,114.207960,购物服务;购物相关场所;购物相关场所,B0FFFX7WV6
600,LaBatite,湖北省,武汉市,东西湖区,LABatite,东西湖区永旺梦乐城A120,30.649443,114.237888,购物服务;购物相关场所;购物相关场所,B0FFGTASRB
601,LaBatite,湖北省,武汉市,汉阳区,La Batite,汉阳区二环线与龙阳湖北路交叉口西北100米,30.558762,114.207960,购物服务;购物相关场所;购物相关场所,B0FFFX7WV6
602,LaBatite,湖北省,武汉市,东西湖区,LABatite,东西湖区永旺梦乐城A120,30.649443,114.237888,购物服务;购物相关场所;购物相关场所,B0FFGTASRB
603,LaBatite,湖北省,武汉市,汉阳区,La Batite,汉阳区二环线与龙阳湖北路交叉口西北100米,30.558762,114.207960,购物服务;购物相关场所;购物相关场所,B0FFFX7WV6
604,LaBatite,湖北省,武汉市,东西湖区,LABatite,东西湖区永旺梦乐城A120,30.649443,114.237888,购物服务;购物相关场所;购物相关场所,B0FFGTASRB
605,LaBatite,湖北省,武汉市,汉阳区,La Batite,汉阳区二环线与龙阳湖北路交叉口西北100米,30.558762,114.207960,购物服务;购物相关场所;购物相关场所,B0FFFX7WV6
606,LaBatite,湖北省,武汉市,东西湖区,LABatite,东西湖区永旺梦乐城A120,30.649443,114.237888,购物服务;购物相关场所;购物相关场所,B0FFGTASRB
607,LaBatite,湖北省,武汉市,汉阳区,La Batite,汉阳区二环线与龙阳湖北路交叉口西北100米,30.558762,114.207960,购物服务;购物相关场所;购物相关场所,B0FFFX7WV6
608,LaBatite,湖北省,武汉市,东西湖区,LABatite,东西湖区永旺梦乐城A120,30.649443,114.237888,购物服务;购物相关场所;购物相关场所,B0FFGTASRB
609,LaBatite,湖北省,武汉市,汉阳区,La Batite,汉阳区二环线与龙阳湖北路交叉口西北100米,30.558762,114.207960,购物服务;购物相关场所;购物相关场所,B0FFFX7WV6
610,LaBatite,湖北省,武汉市,东西湖区,LABatite,东西湖区永旺梦乐城A120,30.649443,114.237888,购物服务;购物相关场所;购物相关场所,B0FFGTASRB
611,LaBatite,湖北省,武汉市,汉阳区,La Batite,汉阳区二环线与龙阳湖北路交叉口西北100米,30.558762,114.207960,购物服务;购物相关场所;购物相关场所,B0FFFX7WV6
612,LaBatite,湖北省,武汉市,东西湖区,LABatite,东西湖区永旺梦乐城A120,30.649443,114.237888,购物服务;购物相关场所;购物相关场所,B0FFGTASRB
613,LaBatite,湖北省,武汉市,汉阳区,La Batite,汉阳区二环线与龙阳湖北路交叉口西北100米,30.558762,114.207960,购物服务;购物相关场所;购物相关场所,B0FFFX7WV6
614,LaBatite,湖北省,武汉市,东西湖区,LABatite,东西湖区永旺梦乐城A120,30.649443,114.237888,购物服务;购物相关场所;购物相关场所,B0FFGTASRB
615,LaBatite,湖北省,武汉市,汉阳区,La Batite,汉阳区二环线与龙阳湖北路交叉口西北100米,30.558762,114.207960,购物服务;购物相关场所;购物相关场所,B0FFFX7WV6
616,LaBatite,湖北省,武汉市,东西湖区,LABatite,东西湖区永旺梦乐城A120,30.649443,114.237888,购物服务;购物相关场所;购物相关场所,B0FFGTASRB
617,LaBatite,湖北省,武汉市,汉阳区,La Batite,汉阳区二环线与龙阳湖北路交叉口西北100米,30.558762,114.207960,购物服务;购物相关场所;购物相关场所,B0FFFX7WV6
618,LaBatite,湖北省,武汉市,东西湖区,LABatite,东西湖区永旺梦乐城A120,30.649443,114.237888,购物服务;购物相关场所;购物相关场所,B0FFGTASRB
619,LaBatite,湖北省,武汉市,汉阳区,La Batite,汉阳区二环线与龙阳湖北路交叉口西北100米,30.558762,114.207960,购物服务;购物相关场所;购物相关场所,B0FFFX7WV6
620,LaBatite,湖北省,武汉市,东西湖区,LABatite,东西湖区永旺梦乐城A120,30.649443,114.237888,购物服务;购物相关场所;购物相关场所,B0FFGTASRB
621,LaBatite,湖北省,武汉市,汉阳区,La Batite,汉阳区二环线与龙阳湖北路交叉口西北100米,30.558762,114.207960,购物服务;购物相关场所;购物相关场所,B0FFFX7WV6
622,LaBatite,湖北省,武汉市,东西湖区,LABatite,东西湖区永旺梦乐城A120,30.649443,114.237888,购物服务;购物相关场所;购物相关场所,B0FFGTASRB
623,LaBatite,湖北省,武汉市,汉阳区,La Batite,汉阳区二环线与龙阳湖北路交叉口西北100米,30.558762,114.207960,购物服务;购物相关场所;购物相关场所,B0FFFX7WV6
624,LaBatite,湖北省,武汉市,东西湖区,LABatite,东西湖区永旺梦乐城A120,30.649443,114.237888,购物服务;购物相关场所;购物相关场所,B0FFGTASRB
625,LaBatite,湖北省,武汉市,汉阳区,La Batite,汉阳区二环线与龙阳湖北路交叉口西北100米,30.558762,114.207960,购物服务;购物相关场所;购物相关场所,B0FFFX7WV6
626,LaBatite,湖北省,武汉市,东西湖区,LABatite,东西湖区永旺梦乐城A120,30.649443,114.237888,购物服务;购物相关场所;购物相关场所,B0FFGTASRB
627,LaBatite,湖北省,武汉市,汉阳区,La Batite,汉阳区二环线与龙阳湖北路交叉口西北100米,30.558762,114.207960,购物服务;购物相关场所;购物相关场所,B0FFFX7WV6
628,LaBatite,湖北省,武汉市,东西湖区,LABatite,东西湖区永旺梦乐城A120,30.649443,114.237888,购物服务;购物相关场所;购物相关场所,B0FFGTASRB
629,LaBatite,湖北省,武汉市,汉阳区,La Batite,汉阳区二环线与龙阳湖北路交叉口西北100米,30.558762,114.207960,购物服务;购物相关场所;购物相关场所,B0FFFX7WV6
630,LaBatite,湖北省,武汉市,东西湖区,LABatite,东西湖区永旺梦乐城A120,30.649443,114.237888,购物服务;购物相关场所;购物相关场所,B0FFGTASRB
631,LaBatite,湖北省,武汉市,汉阳区,La Batite,汉阳区二环线与龙阳湖北路交叉口西北100米,30.558762,114.207960,购物服务;购物相关场所;购物相关场所,B0FFFX7WV6
632,LaBatite,湖北省,武汉市,东西湖区,LABatite,东西湖区永旺梦乐城A120,30.649443,114.237888,购物服务;购物相关场所;购物相关场所,B0FFGTASRB
633,LaBatite,湖北省,武汉市,汉阳区,La Batite,汉阳区二环线与龙阳湖北路交叉口西北100米,30.558762,114.207960,购物服务;购物相关场所;购物相关场所,B0FFFX7WV6
634,LaBatite,湖北省,武汉市,东西湖区,LABatite,东西湖区永旺梦乐城A120,30.649443,114.237888,购物服务;购物相关场所;购物相关场所,B0FFGTASRB
635,LaBatite,湖北省,武汉市,汉阳区,La Batite,汉阳区二环线与龙阳湖北路交叉口西北100米,30.558762,114.207960,购物服务;购物相关场所;购物相关场所,B0FFFX7WV6
636,LaBatite,湖北省,武汉市,东西湖区,LABatite,东西湖区永旺梦乐城A120,30.649443,114.237888,购物服务;购物相关场所;购物相关场所,B0FFGTASRB
637,LaBatite,湖北省,武汉市,汉阳区,La Batite,汉阳区二环线与龙阳湖北路交叉口西北100米,30.558762,114.207960,购物服务;购物相关场所;购物相关场所,B0FFFX7WV6
638,LaBatite,湖北省,武汉市,东西湖区,LABatite,东西湖区永旺梦乐城A120,30.649443,114.237888,购物服务;购物相关场所;购物相关场所,B0FFGTASRB
639,LaBatite,湖北省,武汉市,汉阳区,La Batite,汉阳区二环线与龙阳湖北路交叉口西北100米,30.558762,114.207960,购物服务;购物相关场所;购物相关场所,B0FFFX7WV6
640,LaBatite,湖北省,武汉市,东西湖区,LABatite,东西湖区永旺梦乐城A120,30.649443,114.237888,购物服务;购物相关场所;购物相关场所,B0FFGTASRB
641,LaBatite,湖北省,武汉市,汉阳区,La Batite,汉阳区二环线与龙阳湖北路交叉口西北100米,30.558762,114.207960,购物服务;购物相关场所;购物相关场所,B0FFFX7WV6
642,LaBatite,湖北省,武汉市,东西湖区,LABatite,东西湖区永旺梦乐城A120,30.649443,114.237888,购物服务;购物相关场所;购物相关场所,B0FFGTASRB
643,LaBatite,湖北省,武汉市,汉阳区,La Batite,汉阳区二环线与龙阳湖北路交叉口西北100米,30.558762,114.207960,购物服务;购物相关场所;购物相关场所,B0FFFX7WV6
644,LaBatite,湖北省,武汉市,东西湖区,LABatite,东西湖区永旺梦乐城A120,30.649443,114.237888,购物服务;购物相关场所;购物相关场所,B0FFGTASRB
645,LaBatite,湖北省,武汉市,汉阳区,La Batite,汉阳区二环线与龙阳湖北路交叉口西北100米,30.558762,114.207960,购物服务;购物相关场所;购物相关场所,B0FFFX7WV6
646,LaBatite,湖北省,武汉市,东西湖区,LABatite,东西湖区永旺梦乐城A120,30.649443,114.237888,购物服务;购物相关场所;购物相关场所,B0FFGTASRB
647,LaBatite,湖北省,武汉市,汉阳区,La Batite,汉阳区二环线与龙阳湖北路交叉口西北100米,30.558762,114.207960,购物服务;购物相关场所;购物相关场所,B0FFFX7WV6
648,LaBatite,湖北省,武汉市,东西湖区,LABatite,东西湖区永旺梦乐城A120,30.649443,114.237888,购物服务;购物相关场所;购物相关场所,B0FFGTASRB
649,LaBatite,湖北省,武汉市,汉阳区,La Batite,汉阳区二环线与龙阳湖北路交叉口西北100米,30.558762,114.207960,购物服务;购物相关场所;购物相关场所,B0FFFX7WV6
650,LaBatite,湖北省,武汉市,东西湖区,LABatite,东西湖区永旺梦乐城A120,30.649443,114.237888,购物服务;购物相关场所;购物相关场所,B0FFGTASRB
651,LaBatite,湖北省,武汉市,汉阳区,La Batite,汉阳区二环线与龙阳湖北路交叉口西北100米,30.558762,114.207960,购物服务;购物相关场所;购物相关场所,B0FFFX7WV6
652,LaBatite,湖北省,武汉市,东西湖区,LABatite,东西湖区永旺梦乐城A120,30.649443,114.237888,购物服务;购物相关场所;购物相关场所,B0FFGTASRB
653,LaBatite,湖北省,武汉市,汉阳区,La Batite,汉阳区二环线与龙阳湖北路交叉口西北100米,30.558762,114.207960,购物服务;购物相关场所;购物相关场所,B0FFFX7WV6
654,LaBatite,湖北省,武汉市,东西湖区,LABatite,东西湖区永旺梦乐城A120,30.649443,114.237888,购物服务;购物相关场所;购物相关场所,B0FFGTASRB
655,LaBatite,湖北省,武汉市,汉阳区,La Batite,汉阳区二环线与龙阳湖北路交叉口西北100米,30.558762,114.207960,购物服务;购物相关场所;购物相关场所,B0FFFX7WV6
656,LaBatite,湖北省,武汉市,东西湖区,LABatite,东西湖区永旺梦乐城A120,30.649443,114.237888,购物服务;购物相关场所;购物相关场所,B0FFGTASRB
657,LaBatite,湖北省,武汉市,汉阳区,La Batite,汉阳区二环线与龙阳湖北路交叉口西北100米,30.558762,114.207960,购物服务;购物相关场所;购物相关场所,B0FFFX7WV6
658,LaBatite,湖北省,武汉市,东西湖区,LABatite,东西湖区永旺梦乐城A120,30.649443,114.237888,购物服务;购物相关场所;购物相关场所,B0FFGTASRB
659,LaBatite,湖北省,武汉市,汉阳区,La Batite,汉阳区二环线与龙阳湖北路交叉口西北100米,30.558762,114.207960,购物服务;购物相关场所;购物相关场所,B0FFFX7WV6
660,LaBatite,湖北省,武汉市,东西湖区,LABatite,东西湖区永旺梦乐城A120,30.649443,114.237888,购物服务;购物相关场所;购物相关场所,B0FFGTASRB
661,LaBatite,湖北省,武汉市,汉阳区,La Batite,汉阳区二环线与龙阳湖北路交叉口西北100米,30.558762,114.207960,购物服务;购物相关场所;购物相关场所,B0FFFX7WV6
662,LaBatite,湖北省,武汉市,东西湖区,LABatite,东西湖区永旺梦乐城A120,30.649443,114.237888,购物服务;购物相关场所;购物相关场所,B0FFGTASRB
663,LaBatite,湖北省,武汉市,汉阳区,La Batite,汉阳区二环线与龙阳湖北路交叉口西北100米,30.558762,114.207960,购物服务;购物相关场所;购物相关场所,B0FFFX7WV6
664,LaBatite,湖北省,武汉市,东西湖区,LABatite,东西湖区永旺梦乐城A120,30.649443,114.237888,购物服务;购物相关场所;购物相关场所,B0FFGTASRB
665,LaBatite,湖北省,武汉市,汉阳区,La Batite,汉阳区二环线与龙阳湖北路交叉口西北100米,30.558762,114.207960,购物服务;购物相关场所;购物相关场所,B0FFFX7WV6
666,LaBatite,湖北省,武汉市,东西湖区,LABatite,东西湖区永旺梦乐城A120,30.649443,114.237888,购物服务;购物相关场所;购物相关场所,B0FFGTASRB
667,LaBatite,湖北省,武汉市,汉阳区,La Batite,汉阳区二环线与龙阳湖北路交叉口西北100米,30.558762,114.207960,购物服务;购物相关场所;购物相关场所,B0FFFX7WV6
668,LaBatite,湖北省,武汉市,东西湖区,LABatite,东西湖区永旺梦乐城A120,30.649443,114.237888,购物服务;购物相关场所;购物相关场所,B0FFGTASRB
669,LaBatite,湖北省,武汉市,汉阳区,La Batite,汉阳区二环线与龙阳湖北路交叉口西北100米,30.558762,114.207960,购物服务;购物相关场所;购物相关场所,B0FFFX7WV6
670,LaBatite,湖北省,武汉市,东西湖区,LABatite,东西湖区永旺梦乐城A120,30.649443,114.237888,购物服务;购物相关场所;购物相关场所,B0FFGTASRB
671,LaBatite,湖北省,武汉市,汉阳区,La Batite,汉阳区二环线与龙阳湖北路交叉口西北100米,30.558762,114.207960,购物服务;购物相关场所;购物相关场所,B0FFFX7WV6
672,LaBatite,湖北省,武汉市,东西湖区,LABatite,东西湖区永旺梦乐城A120,30.649443,114.237888,购物服务;购物相关场所;购物相关场所,B0FFGTASRB
673,LaBatite,湖北省,武汉市,汉阳区,La Batite,汉阳区二环线与龙阳湖北路交叉口西北100米,30.558762,114.207960,购物服务;购物相关场所;购物相关场所,B0FFFX7WV6
674,LaBatite,湖北省,武汉市,东西湖区,LABatite,东西湖区永旺梦乐城A120,30.649443,114.237888,购物服务;购物相关场所;购物相关场所,B0FFGTASRB
675,LaBatite,湖北省,武汉市,汉阳区,La Batite,汉阳区二环线与龙阳湖北路交叉口西北100米,30.558762,114.207960,购物服务;购物相关场所;购物相关场所,B0FFFX7WV6
676,LaBatite,湖北省,武汉市,东西湖区,LABatite,东西湖区永旺梦乐城A120,30.649443,114.237888,购物服务;购物相关场所;购物相关场所,B0FFGTASRB
677,LaBatite,湖北省,武汉市,汉阳区,La Batite,汉阳区二环线与龙阳湖北路交叉口西北100米,30.558762,114.207960,购物服务;购物相关场所;购物相关场所,B0FFFX7WV6
678,LaBatite,湖北省,武汉市,东西湖区,LABatite,东西湖区永旺梦乐城A120,30.649443,114.237888,购物服务;购物相关场所;购物相关场所,B0FFGTASRB
679,LaBatite,湖北省,武汉市,汉阳区,La Batite,汉阳区二环线与龙阳湖北路交叉口西北100米,30.558762,114.207960,购物服务;购物相关场所;购物相关场所,B0FFFX7WV6
680,LaBatite,湖北省,武汉市,东西湖区,LABatite,东西湖区永旺梦乐城A120,30.649443,114.237888,购物服务;购物相关场所;购物相关场所,B0FFGTASRB
681,LaBatite,湖北省,武汉市,汉阳区,La Batite,汉阳区二环线与龙阳湖北路交叉口西北100米,30.558762,114.207960,购物服务;购物相关场所;购物相关场所,B0FFFX7WV6
682,LaBatite,湖北省,武汉市,东西湖区,LABatite,东西湖区永旺梦乐城A120,30.649443,114.237888,购物服务;购物相关场所;购物相关场所,B0FFGTASRB
683,LaBatite,湖北省,武汉市,汉阳区,La Batite,汉阳区二环线与龙阳湖北路交叉口西北100米,30.558762,114.207960,购物服务;购物相关场所;购物相关场所,B0FFFX7WV6
684,LaBatite,湖北省,武汉市,东西湖区,LABatite,东西湖区永旺梦乐城A120,30.649443,114.237888,购物服务;购物相关场所;购物相关场所,B0FFGTASRB
685,LaBatite,湖北省,武汉市,汉阳区,La Batite,汉阳区二环线与龙阳湖北路交叉口西北100米,30.558762,114.207960,购物服务;购物相关场所;购物相关场所,B0FFFX7WV6
686,LaBatite,湖北省,武汉市,东西湖区,LABatite,东西湖区永旺梦乐城A120,30.649443,114.237888,购物服务;购物相关场所;购物相关场所,B0FFGTASRB
687,LaBatite,湖北省,武汉市,汉阳区,La Batite,汉阳区二环线与龙阳湖北路交叉口西北100米,30.558762,114.207960,购物服务;购物相关场所;购物相关场所,B0FFFX7WV6
688,LaBatite,湖北省,武汉市,东西湖区,LABatite,东西湖区永旺梦乐城A120,30.649443,114.237888,购物服务;购物相关场所;购物相关场所,B0FFGTASRB
689,LaBatite,湖北省,武汉市,汉阳区,La Batite,汉阳区二环线与龙阳湖北路交叉口西北100米,30.558762,114.207960,购物服务;购物相关场所;购物相关场所,B0FFFX7WV6
690,LaBatite,湖北省,武汉市,东西湖区,LABatite,东西湖区永旺梦乐城A120,30.649443,114.237888,购物服务;购物相关场所;购物相关场所,B0FFGTASRB
691,LaBatite,湖北省,武汉市,汉阳区,La Batite,汉阳区二环线与龙阳湖北路交叉口西北100米,30.558762,114.207960,购物服务;购物相关场所;购物相关场所,B0FFFX7WV6
692,LaBatite,湖北省,武汉市,东西湖区,LABatite,东西湖区永旺梦乐城A120,30.649443,114.237888,购物服务;购物相关场所;购物相关场所,B0FFGTASRB
693,LaBatite,湖北省,武汉市,汉阳区,La Batite,汉阳区二环线与龙阳湖北路交叉口西北100米,30.558762,114.207960,购物服务;购物相关场所;购物相关场所,B0FFFX7WV6
694,LaBatite,湖北省,武汉市,东西湖区,LABatite,东西湖区永旺梦乐城A120,30.649443,114.237888,购物服务;购物相关场所;购物相关场所,B0FFGTASRB
695,LaBatite,湖北省,武汉市,汉阳区,La Batite,汉阳区二环线与龙阳湖北路交叉口西北100米,30.558762,114.207960,购物服务;购物相关场所;购物相关场所,B0FFFX7WV6
696,LaBatite,湖北省,武汉市,东西湖区,LABatite,东西湖区永旺梦乐城A120,30.649443,114.237888,购物服务;购物相关场所;购物相关场所,B0FFGTASRB
697,LaBatite,湖北省,武汉市,汉阳区,La Batite,汉阳区二环线与龙阳湖北路交叉口西北100米,30.558762,114.207960,购物服务;购物相关场所;购物相关场所,B0FFFX7WV6
698,LaBatite,湖北省,武汉市,东西湖区,LABatite,东西湖区永旺梦乐城A120,30.649443,114.237888,购物服务;购物相关场所;购物相关场所,B0FFGTASRB
699,LaBatite,湖北省,武汉市,汉阳区,La Batite,汉阳区二环线与龙阳湖北路交叉口西北100米,30.558762,114.207960,购物服务;购物相关场所;购物相关场所,B0FFFX7WV6
700,LaBatite,湖北省,武汉市,东西湖区,LABatite,东西湖区永旺梦乐城A120,30.649443,114.237888,购物服务;购物相关场所;购物相关场所,B0FFGTASRB
701,LaBatite,湖北省,武汉市,汉阳区,La Batite,汉阳区二环线与龙阳湖北路交叉口西北100米,30.558762,114.207960,购物服务;购物相关场所;购物相关场所,B0FFFX7WV6
702,LaBatite,湖北省,武汉市,东西湖区,LABatite,东西湖区永旺梦乐城A120,30.649443,114.237888,购物服务;购物相关场所;购物相关场所,B0FFGTASRB
703,LaBatite,湖北省,武汉市,汉阳区,La Batite,汉阳区二环线与龙阳湖北路交叉口西北100米,30.558762,114.207960,购物服务;购物相关场所;购物相关场所,B0FFFX7WV6
704,LaBatite,湖北省,武汉市,东西湖区,LABatite,东西湖区永旺梦乐城A120,30.649443,114.237888,购物服务;购物相关场所;购物相关场所,B0FFGTASRB
705,LaBatite,湖北省,武汉市,汉阳区,La Batite,汉阳区二环线与龙阳湖北路交叉口西北100米,30.558762,114.207960,购物服务;购物相关场所;购物相关场所,B0FFFX7WV6
706,LaBatite,湖北省,武汉市,东西湖区,LABatite,东西湖区永旺梦乐城A120,30.649443,114.237888,购物服务;购物相关场所;购物相关场所,B0FFGTASRB
707,LaBatite,湖北省,武汉市,汉阳区,La Batite,汉阳区二环线与龙阳湖北路交叉口西北100米,30.558762,114.207960,购物服务;购物相关场所;购物相关场所,B0FFFX7WV6
708,LaBatite,湖北省,武汉市,东西湖区,LABatite,东西湖区永旺梦乐城A120,30.649443,114.237888,购物服务;购物相关场所;购物相关场所,B0FFGTASRB
709,LaBatite,湖北省,武汉市,汉阳区,La Batite,汉阳区二环线与龙阳湖北路交叉口西北100米,30.558762,114.207960,购物服务;购物相关场所;购物相关场所,B0FFFX7WV6
710,LaBatite,湖北省,武汉市,东西湖区,LABatite,东西湖区永旺梦乐城A120,30.649443,114.237888,购物服务;购物相关场所;购物相关场所,B0FFGTASRB
711,LaBatite,湖北省,武汉市,汉阳区,La Batite,汉阳区二环线与龙阳湖北路交叉口西北100米,30.558762,114.207960,购物服务;购物相关场所;购物相关场所,B0FFFX7WV6
712,LaBatite,湖北省,武汉市,东西湖区,LABatite,东西湖区永旺梦乐城A120,30.649443,114.237888,购物服务;购物相关场所;购物相关场所,B0FFGTASRB
713,LaBatite,湖北省,武汉市,汉阳区,La Batite,汉阳区二环线与龙阳湖北路交叉口西北100米,30.558762,114.207960,购物服务;购物相关场所;购物相关场所,B0FFFX7WV6
714,LaBatite,湖北省,武汉市,东西湖区,LABatite,东西湖区永旺梦乐城A120,30.649443,114.237888,购物服务;购物相关场所;购物相关场所,B0FFGTASRB
715,LaBatite,湖北省,武汉市,汉阳区,La Batite,汉阳区二环线与龙阳湖北路交叉口西北100米,30.558762,114.207960,购物服务;购物相关场所;购物相关场所,B0FFFX7WV6
716,LaBatite,湖北省,武汉市,东西湖区,LABatite,东西湖区永旺梦乐城A120,30.649443,114.237888,购物服务;购物相关场所;购物相关场所,B0FFGTASRB
717,LaBatite,湖北省,武汉市,汉阳区,La Batite,汉阳区二环线与龙阳湖北路交叉口西北100米,30.558762,114.207960,购物服务;购物相关场所;购物相关场所,B0FFFX7WV6
718,LaBatite,湖北省,武汉市,东西湖区,LABatite,东西湖区永旺梦乐城A120,30.649443,114.237888,购物服务;购物相关场所;购物相关场所,B0FFGTASRB
719,LaBatite,湖北省,武汉市,汉阳区,La Batite,汉阳区二环线与龙阳湖北路交叉口西北100米,30.558762,114.207960,购物服务;购物相关场所;购物相关场所,B0FFFX7WV6
720,LaBatite,湖北省,武汉市,东西湖区,LABatite,东西湖区永旺梦乐城A120,30.649443,114.237888,购物服务;购物相关场所;购物相关场所,B0FFGTASRB
721,LaBatite,湖北省,武汉市,汉阳区,La Batite,汉阳区二环线与龙阳湖北路交叉口西北100米,30.558762,114.207960,购物服务;购物相关场所;购物相关场所,B0FFFX7WV6
722,LaBatite,湖北省,武汉市,东西湖区,LABatite,东西湖区永旺梦乐城A120,30.649443,114.237888,购物服务;购物相关场所;购物相关场所,B0FFGTASRB
723,LaBatite,湖北省,武汉市,汉阳区,La Batite,汉阳区二环线与龙阳湖北路交叉口西北100米,30.558762,114.207960,购物服务;购物相关场所;购物相关场所,B0FFFX7WV6
724,LaBatite,湖北省,武汉市,东西湖区,LABatite,东西湖区永旺梦乐城A120,30.649443,114.237888,购物服务;购物相关场所;购物相关场所,B0FFGTASRB
725,LaBatite,湖北省,武汉市,汉阳区,La Batite,汉阳区二环线与龙阳湖北路交叉口西北100米,30.558762,114.207960,购物服务;购物相关场所;购物相关场所,B0FFFX7WV6
726,LaBatite,湖北省,武汉市,东西湖区,LABatite,东西湖区永旺梦乐城A120,30.649443,114.237888,购物服务;购物相关场所;购物相关场所,B0FFGTASRB
727,LaBatite,湖北省,武汉市,汉阳区,La Batite,汉阳区二环线与龙阳湖北路交叉口西北100米,30.558762,114.207960,购物服务;购物相关场所;购物相关场所,B0FFFX7WV6
728,LaBatite,湖北省,武汉市,东西湖区,LABatite,东西湖区永旺梦乐城A120,30.649443,114.237888,购物服务;购物相关场所;购物相关场所,B0FFGTASRB
729,LaBatite,湖北省,武汉市,汉阳区,La Batite,汉阳区二环线与龙阳湖北路交叉口西北100米,30.558762,114.207960,购物服务;购物相关场所;购物相关场所,B0FFFX7WV6
730,LaBatite,湖北省,武汉市,东西湖区,LABatite,东西湖区永旺梦乐城A120,30.649443,114.237888,购物服务;购物相关场所;购物相关场所,B0FFGTASRB
731,LaBatite,湖北省,武汉市,汉阳区,La Batite,汉阳区二环线与龙阳湖北路交叉口西北100米,30.558762,114.207960,购物服务;购物相关场所;购物相关场所,B0FFFX7WV6
732,LaBatite,湖北省,武汉市,东西湖区,LABatite,东西湖区永旺梦乐城A120,30.649443,114.237888,购物服务;购物相关场所;购物相关场所,B0FFGTASRB
733,LaBatite,湖北省,武汉市,汉阳区,La Batite,汉阳区二环线与龙阳湖北路交叉口西北100米,30.558762,114.207960,购物服务;购物相关场所;购物相关场所,B0FFFX7WV6
734,LaBatite,湖北省,武汉市,东西湖区,LABatite,东西湖区永旺梦乐城A120,30.649443,114.237888,购物服务;购物相关场所;购物相关场所,B0FFGTASRB
735,LaBatite,湖北省,武汉市,汉阳区,La Batite,汉阳区二环线与龙阳湖北路交叉口西北100米,30.558762,114.207960,购物服务;购物相关场所;购物相关场所,B0FFFX7WV6
736,LaBatite,湖北省,武汉市,东西湖区,LABatite,东西湖区永旺梦乐城A120,30.649443,114.237888,购物服务;购物相关场所;购物相关场所,B0FFGTASRB
737,LaBatite,湖北省,武汉市,汉阳区,La Batite,汉阳区二环线与龙阳湖北路交叉口西北100米,30.558762,114.207960,购物服务;购物相关场所;购物相关场所,B0FFFX7WV6
738,LaBatite,湖北省,武汉市,东西湖区,LABatite,东西湖区永旺梦乐城A120,30.649443,114.237888,购物服务;购物相关场所;购物相关场所,B0FFGTASRB
739,LaBatite,湖北省,武汉市,汉阳区,La Batite,汉阳区二环线与龙阳湖北路交叉口西北100米,30.558762,114.207960,购物服务;购物相关场所;购物相关场所,B0FFFX7WV6
740,LaBatite,湖北省,武汉市,东西湖区,LABatite,东西湖区永旺梦乐城A120,30.649443,114.237888,购物服务;购物相关场所;购物相关场所,B0FFGTASRB
741,LaBatite,湖北省,武汉市,汉阳区,La Batite,汉阳区二环线与龙阳湖北路交叉口西北100米,30.558762,114.207960,购物服务;购物相关场所;购物相关场所,B0FFFX7WV6
742,LaBatite,湖北省,武汉市,东西湖区,LABatite,东西湖区永旺梦乐城A120,30.649443,114.237888,购物服务;购物相关场所;购物相关场所,B0FFGTASRB
743,LaBatite,湖北省,武汉市,汉阳区,La Batite,汉阳区二环线与龙阳湖北路交叉口西北100米,30.558762,114.207960,购物服务;购物相关场所;购物相关场所,B0FFFX7WV6
744,LaBatite,湖北省,武汉市,东西湖区,LABatite,东西湖区永旺梦乐城A120,30.649443,114.237888,购物服务;购物相关场所;购物相关场所,B0FFGTASRB
745,LaBatite,湖北省,武汉市,汉阳区,La Batite,汉阳区二环线与龙阳湖北路交叉口西北100米,30.558762,114.207960,购物服务;购物相关场所;购物相关场所,B0FFFX7WV6
746,LaBatite,湖北省,武汉市,东西湖区,LABatite,东西湖区永旺梦乐城A120,30.649443,114.237888,购物服务;购物相关场所;购物相关场所,B0FFGTASRB
747,LaBatite,湖北省,武汉市,汉阳区,La Batite,汉阳区二环线与龙阳湖北路交叉口西北100米,30.558762,114.207960,购物服务;购物相关场所;购物相关场所,B0FFFX7WV6
748,LaBatite,湖北省,武汉市,东西湖区,LABatite,东西湖区永旺梦乐城A120,30.649443,114.237888,购物服务;购物相关场所;购物相关场所,B0FFGTASRB
749,LaBatite,湖北省,武汉市,汉阳区,La Batite,汉阳区二环线与龙阳湖北路交叉口西北100米,30.558762,114.207960,购物服务;购物相关场所;购物相关场所,B0FFFX7WV6
750,LaBatite,湖北省,武汉市,东西湖区,LABatite,东西湖区永旺梦乐城A120,30.649443,114.237888,购物服务;购物相关场所;购物相关场所,B0FFGTASRB
751,LaBatite,湖北省,武汉市,汉阳区,La Batite,汉阳区二环线与龙阳湖北路交叉口西北100米,30.558762,114.207960,购物服务;购物相关场所;购物相关场所,B0FFFX7WV6
752,LaBatite,湖北省,武汉市,东西湖区,LABatite,东西湖区永旺梦乐城A120,30.649443,114.237888,购物服务;购物相关场所;购物相关场所,B0FFGTASRB
753,LaBatite,湖北省,武汉市,汉阳区,La Batite,汉阳区二环线与龙阳湖北路交叉口西北100米,30.558762,114.207960,购物服务;购物相关场所;购物相关场所,B0FFFX7WV6
754,LaBatite,湖北省,武汉市,东西湖区,LABatite,东西湖区永旺梦乐城A120,30.649443,114.237888,购物服务;购物相关场所;购物相关场所,B0FFGTASRB
755,LaBatite,湖北省,武汉市,汉阳区,La Batite,汉阳区二环线与龙阳湖北路交叉口西北100米,30.558762,114.207960,购物服务;购物相关场所;购物相关场所,B0FFFX7WV6
756,LaBatite,湖北省,武汉市,东西湖区,LABatite,东西湖区永旺梦乐城A120,30.649443,114.237888,购物服务;购物相关场所;购物相关场所,B0FFGTASRB
757,LaBatite,湖北省,武汉市,汉阳区,La Batite,汉阳区二环线与龙阳湖北路交叉口西北100米,30.558762,114.207960,购物服务;购物相关场所;购物相关场所,B0FFFX7WV6
758,LaBatite,湖北省,武汉市,东西湖区,LABatite,东西湖区永旺梦乐城A120,30.649443,114.237888,购物服务;购物相关场所;购物相关场所,B0FFGTASRB
759,LaBatite,湖北省,武汉市,汉阳区,La Batite,汉阳区二环线与龙阳湖北路交叉口西北100米,30.558762,114.207960,购物服务;购物相关场所;购物相关场所,B0FFFX7WV6
760,LaBatite,湖北省,武汉市,东西湖区,LABatite,东西湖区永旺梦乐城A120,30.649443,114.237888,购物服务;购物相关场所;购物相关场所,B0FFGTASRB
761,LaBatite,湖北省,武汉市,汉阳区,La Batite,汉阳区二环线与龙阳湖北路交叉口西北100米,30.558762,114.207960,购物服务;购物相关场所;购物相关场所,B0FFFX7WV6
762,LaBatite,湖北省,武汉市,东西湖区,LABatite,东西湖区永旺梦乐城A120,30.649443,114.237888,购物服务;购物相关场所;购物相关场所,B0FFGTASRB
763,LaBatite,湖北省,武汉市,汉阳区,La Batite,汉阳区二环线与龙阳湖北路交叉口西北100米,30.558762,114.207960,购物服务;购物相关场所;购物相关场所,B0FFFX7WV6
764,LaBatite,湖北省,武汉市,东西湖区,LABatite,东西湖区永旺梦乐城A120,30.649443,114.237888,购物服务;购物相关场所;购物相关场所,B0FFGTASRB
765,LaBatite,湖北省,武汉市,汉阳区,La Batite,汉阳区二环线与龙阳湖北路交叉口西北100米,30.558762,114.207960,购物服务;购物相关场所;购物相关场所,B0FFFX7WV6
766,LaBatite,湖北省,武汉市,东西湖区,LABatite,东西湖区永旺梦乐城A120,30.649443,114.237888,购物服务;购物相关场所;购物相关场所,B0FFGTASRB
767,LaBatite,湖北省,武汉市,汉阳区,La Batite,汉阳区二环线与龙阳湖北路交叉口西北100米,30.558762,114.207960,购物服务;购物相关场所;购物相关场所,B0FFFX7WV6
768,LaBatite,湖北省,武汉市,东西湖区,LABatite,东西湖区永旺梦乐城A120,30.649443,114.237888,购物服务;购物相关场所;购物相关场所,B0FFGTASRB
769,LaBatite,湖北省,武汉市,汉阳区,La Batite,汉阳区二环线与龙阳湖北路交叉口西北100米,30.558762,114.207960,购物服务;购物相关场所;购物相关场所,B0FFFX7WV6
770,LaBatite,湖北省,武汉市,东西湖区,LABatite,东西湖区永旺梦乐城A120,30.649443,114.237888,购物服务;购物相关场所;购物相关场所,B0FFGTASRB
771,LaBatite,湖北省,武汉市,汉阳区,La Batite,汉阳区二环线与龙阳湖北路交叉口西北100米,30.558762,114.207960,购物服务;购物相关场所;购物相关场所,B0FFFX7WV6
772,LaBatite,湖北省,武汉市,东西湖区,LABatite,东西湖区永旺梦乐城A120,30.649443,114.237888,购物服务;购物相关场所;购物相关场所,B0FFGTASRB
773,LaBatite,湖北省,武汉市,汉阳区,La Batite,汉阳区二环线与龙阳湖北路交叉口西北100米,30.558762,114.207960,购物服务;购物相关场所;购物相关场所,B0FFFX7WV6
774,LaBatite,湖北省,武汉市,东西湖区,LABatite,东西湖区永旺梦乐城A120,30.649443,114.237888,购物服务;购物相关场所;购物相关场所,B0FFGTASRB
775,LaBatite,湖北省,武汉市,汉阳区,La Batite,汉阳区二环线与龙阳湖北路交叉口西北100米,30.558762,114.207960,购物服务;购物相关场所;购物相关场所,B0FFFX7WV6
776,LaBatite,湖北省,武汉市,东西湖区,LABatite,东西湖区永旺梦乐城A120,30.649443,114.237888,购物服务;购物相关场所;购物相关场所,B0FFGTASRB
777,LaBatite,湖北省,武汉市,汉阳区,La Batite,汉阳区二环线与龙阳湖北路交叉口西北100米,30.558762,114.207960,购物服务;购物相关场所;购物相关场所,B0FFFX7WV6
778,LaBatite,湖北省,武汉市,东西湖区,LABatite,东西湖区永旺梦乐城A120,30.649443,114.237888,购物服务;购物相关场所;购物相关场所,B0FFGTASRB
779,LaBatite,湖北省,武汉市,汉阳区,La Batite,汉阳区二环线与龙阳湖北路交叉口西北100米,30.558762,114.207960,购物服务;购物相关场所;购物相关场所,B0FFFX7WV6
780,LaBatite,湖北省,武汉市,东西湖区,LABatite,东西湖区永旺梦乐城A120,30.649443,114.237888,购物服务;购物相关场所;购物相关场所,B0FFGTASRB
781,LaBatite,湖北省,武汉市,汉阳区,La Batite,汉阳区二环线与龙阳湖北路交叉口西北100米,30.558762,114.207960,购物服务;购物相关场所;购物相关场所,B0FFFX7WV6
782,LaBatite,湖北省,武汉市,东西湖区,LABatite,东西湖区永旺梦乐城A120,30.649443,114.237888,购物服务;购物相关场所;购物相关场所,B0FFGTASRB
783,LaBatite,湖北省,武汉市,汉阳区,La Batite,汉阳区二环线与龙阳湖北路交叉口西北100米,30.558762,114.207960,购物服务;购物相关场所;购物相关场所,B0FFFX7WV6
784,LaBatite,湖北省,武汉市,东西湖区,LABatite,东西湖区永旺梦乐城A120,30.649443,114.237888,购物服务;购物相关场所;购物相关场所,B0FFGTASRB
785,LaBatite,湖北省,武汉市,汉阳区,La Batite,汉阳区二环线与龙阳湖北路交叉口西北100米,30.558762,114.207960,购物服务;购物相关场所;购物相关场所,B0FFFX7WV6
786,LaBatite,湖北省,武汉市,东西湖区,LABatite,东西湖区永旺梦乐城A120,30.649443,114.237888,购物服务;购物相关场所;购物相关场所,B0FFGTASRB
787,LaBatite,湖北省,武汉市,汉阳区,La Batite,汉阳区二环线与龙阳湖北路交叉口西北100米,30.558762,114.207960,购物服务;购物相关场所;购物相关场所,B0FFFX7WV6
788,LaBatite,湖北省,武汉市,东西湖区,LABatite,东西湖区永旺梦乐城A120,30.649443,114.237888,购物服务;购物相关场所;购物相关场所,B0FFGTASRB
789,LaBatite,湖北省,武汉市,汉阳区,La Batite,汉阳区二环线与龙阳湖北路交叉口西北100米,30.558762,114.207960,购物服务;购物相关场所;购物相关场所,B0FFFX7WV6
790,LaBatite,湖北省,武汉市,东西湖区,LABatite,东西湖区永旺梦乐城A120,30.649443,114.237888,购物服务;购物相关场所;购物相关场所,B0FFGTASRB
791,LaBatite,湖北省,武汉市,汉阳区,La Batite,汉阳区二环线与龙阳湖北路交叉口西北100米,30.558762,114.207960,购物服务;购物相关场所;购物相关场所,B0FFFX7WV6
792,LaBatite,湖北省,武汉市,东西湖区,LABatite,东西湖区永旺梦乐城A120,30.649443,114.237888,购物服务;购物相关场所;购物相关场所,B0FFGTASRB
793,LaBatite,湖北省,武汉市,汉阳区,La Batite,汉阳区二环线与龙阳湖北路交叉口西北100米,30.558762,114.207960,购物服务;购物相关场所;购物相关场所,B0FFFX7WV6
794,LaBatite,湖北省,武汉市,东西湖区,LABatite,东西湖区永旺梦乐城A120,30.649443,114.237888,购物服务;购物相关场所;购物相关场所,B0FFGTASRB
795,LaBatite,湖北省,武汉市,汉阳区,La Batite,汉阳区二环线与龙阳湖北路交叉口西北100米,30.558762,114.207960,购物服务;购物相关场所;购物相关场所,B0FFFX7WV6
796,LaBatite,湖北省,武汉市,东西湖区,LABatite,东西湖区永旺梦乐城A120,30.649443,114.237888,购物服务;购物相关场所;购物相关场所,B0FFGTASRB
797,LaBatite,湖北省,武汉市,汉阳区,La Batite,汉阳区二环线与龙阳湖北路交叉口西北100米,30.558762,114.207960,购物服务;购物相关场所;购物相关场所,B0FFFX7WV6
798,LaBatite,湖北省,武汉市,东西湖区,LABatite,东西湖区永旺梦乐城A120,30.649443,114.237888,购物服务;购物相关场所;购物相关场所,B0FFGTASRB
799,LaBatite,湖北省,武汉市,汉阳区,La Batite,汉阳区二环线与龙阳湖北路交叉口西北100米,30.558762,114.207960,购物服务;购物相关场所;购物相关场所,B0FFFX7WV6
800,LaBatite,湖北省,武汉市,东西湖区,LABatite,东西湖区永旺梦乐城A120,30.649443,114.237888,购物服务;购物相关场所;购物相关场所,B0FFGTASRB
801,LaBatite,湖北省,武汉市,汉阳区,La Batite,汉阳区二环线与龙阳湖北路交叉口西北100米,30.558762,114.207960,购物服务;购物相关场所;购物相关场所,B0FFFX7WV6
802,LaBatite,湖北省,武汉市,东西湖区,LABatite,东西湖区永旺梦乐城A120,30.649443,114.237888,购物服务;购物相关场所;购物相关场所,B0FFGTASRB
803,LaBatite,湖北省,武汉市,汉阳区,La Batite,汉阳区二环线与龙阳湖北路交叉口西北100米,30.558762,114.207960,购物服务;购物相关场所;购物相关场所,B0FFFX7WV6
804,LaBatite,湖北省,武汉市,东西湖区,LABatite,东西湖区永旺梦乐城A120,30.649443,114.237888,购物服务;购物相关场所;购物相关场所,B0FFGTASRB
805,LaBatite,湖北省,武汉市,汉阳区,La Batite,汉阳区二环线与龙阳湖北路交叉口西北100米,30.558762,114.207960,购物服务;购物相关场所;购物相关场所,B0FFFX7WV6
806,LaBatite,湖北省,武汉市,东西湖区,LABatite,东西湖区永旺梦乐城A120,30.649443,114.237888,购物服务;购物相关场所;购物相关场所,B0FFGTASRB
807,LaBatite,湖北省,武汉市,汉阳区,La Batite,汉阳区二环线与龙阳湖北路交叉口西北100米,30.558762,114.207960,购物服务;购物相关场所;购物相关场所,B0FFFX7WV6
808,LaBatite,湖北省,武汉市,东西湖区,LABatite,东西湖区永旺梦乐城A120,30.649443,114.237888,购物服务;购物相关场所;购物相关场所,B0FFGTASRB
809,LaBatite,湖北省,武汉市,汉阳区,La Batite,汉阳区二环线与龙阳湖北路交叉口西北100米,30.558762,114.207960,购物服务;购物相关场所;购物相关场所,B0FFFX7WV6
810,LaBatite,湖北省,武汉市,东西湖区,LABatite,东西湖区永旺梦乐城A120,30.649443,114.237888,购物服务;购物相关场所;购物相关场所,B0FFGTASRB
811,LaBatite,湖北省,武汉市,汉阳区,La Batite,汉阳区二环线与龙阳湖北路交叉口西北100米,30.558762,114.207960,购物服务;购物相关场所;购物相关场所,B0FFFX7WV6
812,LaBatite,湖北省,武汉市,东西湖区,LABatite,东西湖区永旺梦乐城A120,30.649443,114.237888,购物服务;购物相关场所;购物相关场所,B0FFGTASRB
813,LaBatite,湖北省,武汉市,汉阳区,La Batite,汉阳区二环线与龙阳湖北路交叉口西北100米,30.558762,114.207960,购物服务;购物相关场所;购物相关场所,B0FFFX7WV6
814,LaBatite,湖北省,武汉市,东西湖区,LABatite,东西湖区永旺梦乐城A120,30.649443,114.237888,购物服务;购物相关场所;购物相关场所,B0FFGTASRB
815,LaBatite,湖北省,武汉市,汉阳区,La Batite,汉阳区二环线与龙阳湖北路交叉口西北100米,30.558762,114.207960,购物服务;购物相关场所;购物相关场所,B0FFFX7WV6
816,LaBatite,湖北省,武汉市,东西湖区,LABatite,东西湖区永旺梦乐城A120,30.649443,114.237888,购物服务;购物相关场所;购物相关场所,B0FFGTASRB
817,LaBatite,湖北省,武汉市,汉阳区,La Batite,汉阳区二环线与龙阳湖北路交叉口西北100米,30.558762,114.207960,购物服务;购物相关场所;购物相关场所,B0FFFX7WV6
818,LaBatite,湖北省,武汉市,东西湖区,LABatite,东西湖区永旺梦乐城A120,30.649443,114.237888,购物服务;购物相关场所;购物相关场所,B0FFGTASRB
819,LaBatite,湖北省,武汉市,汉阳区,La Batite,汉阳区二环线与龙阳湖北路交叉口西北100米,30.558762,114.207960,购物服务;购物相关场所;购物相关场所,B0FFFX7WV6
820,LaBatite,湖北省,武汉市,东西湖区,LABatite,东西湖区永旺梦乐城A120,30.649443,114.237888,购物服务;购物相关场所;购物相关场所,B0FFGTASRB
821,LaBatite,湖北省,武汉市,汉阳区,La Batite,汉阳区二环线与龙阳湖北路交叉口西北100米,30.558762,114.207960,购物服务;购物相关场所;购物相关场所,B0FFFX7WV6
822,LaBatite,湖北省,武汉市,东西湖区,LABatite,东西湖区永旺梦乐城A120,30.649443,114.237888,购物服务;购物相关场所;购物相关场所,B0FFGTASRB
823,LaBatite,湖北省,武汉市,汉阳区,La Batite,汉阳区二环线与龙阳湖北路交叉口西北100米,30.558762,114.207960,购物服务;购物相关场所;购物相关场所,B0FFFX7WV6
824,LaBatite,湖北省,武汉市,东西湖区,LABatite,东西湖区永旺梦乐城A120,30.649443,114.237888,购物服务;购物相关场所;购物相关场所,B0FFGTASRB
825,LaBatite,湖北省,武汉市,汉阳区,La Batite,汉阳区二环线与龙阳湖北路交叉口西北100米,30.558762,114.207960,购物服务;购物相关场所;购物相关场所,B0FFFX7WV6
826,LaBatite,湖北省,武汉市,东西湖区,LABatite,东西湖区永旺梦乐城A120,30.649443,114.237888,购物服务;购物相关场所;购物相关场所,B0FFGTASRB
827,LaBatite,湖北省,武汉市,汉阳区,La Batite,汉阳区二环线与龙阳湖北路交叉口西北100米,30.558762,114.207960,购物服务;购物相关场所;购物相关场所,B0FFFX7WV6
828,LaBatite,湖北省,武汉市,东西湖区,LABatite,东西湖区永旺梦乐城A120,30.649443,114.237888,购物服务;购物相关场所;购物相关场所,B0FFGTASRB
829,LaBatite,湖北省,武汉市,汉阳区,La Batite,汉阳区二环线与龙阳湖北路交叉口西北100米,30.558762,114.207960,购物服务;购物相关场所;购物相关场所,B0FFFX7WV6
830,LaBatite,湖北省,武汉市,东西湖区,LABatite,东西湖区永旺梦乐城A120,30.649443,114.237888,购物服务;购物相关场所;购物相关场所,B0FFGTASRB
831,LaBatite,湖北省,武汉市,汉阳区,La Batite,汉阳区二环线与龙阳湖北路交叉口西北100米,30.558762,114.207960,购物服务;购物相关场所;购物相关场所,B0FFFX7WV6
832,LaBatite,湖北省,武汉市,东西湖区,LABatite,东西湖区永旺梦乐城A120,30.649443,114.237888,购物服务;购物相关场所;购物相关场所,B0FFGTASRB
833,LaBatite,湖北省,武汉市,汉阳区,La Batite,汉阳区二环线与龙阳湖北路交叉口西北100米,30.558762,114.207960,购物服务;购物相关场所;购物相关场所,B0FFFX7WV6
834,LaBatite,湖北省,武汉市,东西湖区,LABatite,东西湖区永旺梦乐城A120,30.649443,114.237888,购物服务;购物相关场所;购物相关场所,B0FFGTASRB
835,LaBatite,湖北省,武汉市,汉阳区,La Batite,汉阳区二环线与龙阳湖北路交叉口西北100米,30.558762,114.207960,购物服务;购物相关场所;购物相关场所,B0FFFX7WV6
836,LaBatite,湖北省,武汉市,东西湖区,LABatite,东西湖区永旺梦乐城A120,30.649443,114.237888,购物服务;购物相关场所;购物相关场所,B0FFGTASRB
837,LaBatite,湖北省,武汉市,汉阳区,La Batite,汉阳区二环线与龙阳湖北路交叉口西北100米,30.558762,114.207960,购物服务;购物相关场所;购物相关场所,B0FFFX7WV6
838,LaBatite,湖北省,武汉市,东西湖区,LABatite,东西湖区永旺梦乐城A120,30.649443,114.237888,购物服务;购物相关场所;购物相关场所,B0FFGTASRB
839,LaBatite,湖北省,武汉市,汉阳区,La Batite,汉阳区二环线与龙阳湖北路交叉口西北100米,30.558762,114.207960,购物服务;购物相关场所;购物相关场所,B0FFFX7WV6
840,LaBatite,湖北省,武汉市,东西湖区,LABatite,东西湖区永旺梦乐城A120,30.649443,114.237888,购物服务;购物相关场所;购物相关场所,B0FFGTASRB
841,LaBatite,湖北省,武汉市,汉阳区,La Batite,汉阳区二环线与龙阳湖北路交叉口西北100米,30.558762,114.207960,购物服务;购物相关场所;购物相关场所,B0FFFX7WV6
842,LaBatite,湖北省,武汉市,东西湖区,LABatite,东西湖区永旺梦乐城A120,30.649443,114.237888,购物服务;购物相关场所;购物相关场所,B0FFGTASRB
843,LaBatite,湖北省,武汉市,汉阳区,La Batite,汉阳区二环线与龙阳湖北路交叉口西北100米,30.558762,114.207960,购物服务;购物相关场所;购物相关场所,B0FFFX7WV6
844,LaBatite,湖北省,武汉市,东西湖区,LABatite,东西湖区永旺梦乐城A120,30.649443,114.237888,购物服务;购物相关场所;购物相关场所,B0FFGTASRB
845,LaBatite,湖北省,武汉市,汉阳区,La Batite,汉阳区二环线与龙阳湖北路交叉口西北100米,30.558762,114.207960,购物服务;购物相关场所;购物相关场所,B0FFFX7WV6
846,LaBatite,湖北省,武汉市,东西湖区,LABatite,东西湖区永旺梦乐城A120,30.649443,114.237888,购物服务;购物相关场所;购物相关场所,B0FFGTASRB
847,LaBatite,湖北省,武汉市,汉阳区,La Batite,汉阳区二环线与龙阳湖北路交叉口西北100米,30.558762,114.207960,购物服务;购物相关场所;购物相关场所,B0FFFX7WV6
848,LaBatite,湖北省,武汉市,东西湖区,LABatite,东西湖区永旺梦乐城A120,30.649443,114.237888,购物服务;购物相关场所;购物相关场所,B0FFGTASRB
849,LaBatite,湖北省,武汉市,汉阳区,La Batite,汉阳区二环线与龙阳湖北路交叉口西北100米,30.558762,114.207960,购物服务;购物相关场所;购物相关场所,B0FFFX7WV6
850,LaBatite,湖北省,武汉市,东西湖区,LABatite,东西湖区永旺梦乐城A120,30.649443,114.237888,购物服务;购物相关场所;购物相关场所,B0FFGTASRB
851,LaBatite,湖北省,武汉市,汉阳区,La Batite,汉阳区二环线与龙阳湖北路交叉口西北100米,30.558762,114.207960,购物服务;购物相关场所;购物相关场所,B0FFFX7WV6
852,LaBatite,湖北省,武汉市,东西湖区,LABatite,东西湖区永旺梦乐城A120,30.649443,114.237888,购物服务;购物相关场所;购物相关场所,B0FFGTASRB
853,LaBatite,湖北省,武汉市,汉阳区,La Batite,汉阳区二环线与龙阳湖北路交叉口西北100米,30.558762,114.207960,购物服务;购物相关场所;购物相关场所,B0FFFX7WV6
854,LaBatite,湖北省,武汉市,东西湖区,LABatite,东西湖区永旺梦乐城A120,30.649443,114.237888,购物服务;购物相关场所;购物相关场所,B0FFGTASRB
855,LaBatite,湖北省,武汉市,汉阳区,La Batite,汉阳区二环线与龙阳湖北路交叉口西北100米,30.558762,114.207960,购物服务;购物相关场所;购物相关场所,B0FFFX7WV6
856,LaBatite,湖北省,武汉市,东西湖区,LABatite,东西湖区永旺梦乐城A120,30.649443,114.237888,购物服务;购物相关场所;购物相关场所,B0FFGTASRB
857,LaBatite,湖北省,武汉市,汉阳区,La Batite,汉阳区二环线与龙阳湖北路交叉口西北100米,30.558762,114.207960,购物服务;购物相关场所;购物相关场所,B0FFFX7WV6
858,LaBatite,湖北省,武汉市,东西湖区,LABatite,东西湖区永旺梦乐城A120,30.649443,114.237888,购物服务;购物相关场所;购物相关场所,B0FFGTASRB
859,LaBatite,湖北省,武汉市,汉阳区,La Batite,汉阳区二环线与龙阳湖北路交叉口西北100米,30.558762,114.207960,购物服务;购物相关场所;购物相关场所,B0FFFX7WV6
860,LaBatite,湖北省,武汉市,东西湖区,LABatite,东西湖区永旺梦乐城A120,30.649443,114.237888,购物服务;购物相关场所;购物相关场所,B0FFGTASRB
861,LaBatite,湖北省,武汉市,汉阳区,La Batite,汉阳区二环线与龙阳湖北路交叉口西北100米,30.558762,114.207960,购物服务;购物相关场所;购物相关场所,B0FFFX7WV6
862,LaBatite,湖北省,武汉市,东西湖区,LABatite,东西湖区永旺梦乐城A120,30.649443,114.237888,购物服务;购物相关场所;购物相关场所,B0FFGTASRB
863,LaBatite,湖北省,武汉市,汉阳区,La Batite,汉阳区二环线与龙阳湖北路交叉口西北100米,30.558762,114.207960,购物服务;购物相关场所;购物相关场所,B0FFFX7WV6
864,LaBatite,湖北省,武汉市,东西湖区,LABatite,东西湖区永旺梦乐城A120,30.649443,114.237888,购物服务;购物相关场所;购物相关场所,B0FFGTASRB
865,LaBatite,湖北省,武汉市,汉阳区,La Batite,汉阳区二环线与龙阳湖北路交叉口西北100米,30.558762,114.207960,购物服务;购物相关场所;购物相关场所,B0FFFX7WV6
866,LaBatite,湖北省,武汉市,东西湖区,LABatite,东西湖区永旺梦乐城A120,30.649443,114.237888,购物服务;购物相关场所;购物相关场所,B0FFGTASRB
867,LaBatite,湖北省,武汉市,汉阳区,La Batite,汉阳区二环线与龙阳湖北路交叉口西北100米,30.558762,114.207960,购物服务;购物相关场所;购物相关场所,B0FFFX7WV6
868,LaBatite,湖北省,武汉市,东西湖区,LABatite,东西湖区永旺梦乐城A120,30.649443,114.237888,购物服务;购物相关场所;购物相关场所,B0FFGTASRB
869,LaBatite,湖北省,武汉市,汉阳区,La Batite,汉阳区二环线与龙阳湖北路交叉口西北100米,30.558762,114.207960,购物服务;购物相关场所;购物相关场所,B0FFFX7WV6
870,LaBatite,湖北省,武汉市,东西湖区,LABatite,东西湖区永旺梦乐城A120,30.649443,114.237888,购物服务;购物相关场所;购物相关场所,B0FFGTASRB
871,LaBatite,湖北省,武汉市,汉阳区,La Batite,汉阳区二环线与龙阳湖北路交叉口西北100米,30.558762,114.207960,购物服务;购物相关场所;购物相关场所,B0FFFX7WV6
872,LaBatite,湖北省,武汉市,东西湖区,LABatite,东西湖区永旺梦乐城A120,30.649443,114.237888,购物服务;购物相关场所;购物相关场所,B0FFGTASRB
873,LaBatite,湖北省,武汉市,汉阳区,La Batite,汉阳区二环线与龙阳湖北路交叉口西北100米,30.558762,114.207960,购物服务;购物相关场所;购物相关场所,B0FFFX7WV6
874,LaBatite,湖北省,武汉市,东西湖区,LABatite,东西湖区永旺梦乐城A120,30.649443,114.237888,购物服务;购物相关场所;购物相关场所,B0FFGTASRB
875,LaBatite,湖北省,武汉市,汉阳区,La Batite,汉阳区二环线与龙阳湖北路交叉口西北100米,30.558762,114.207960,购物服务;购物相关场所;购物相关场所,B0FFFX7WV6
876,LaBatite,湖北省,武汉市,东西湖区,LABatite,东西湖区永旺梦乐城A120,30.649443,114.237888,购物服务;购物相关场所;购物相关场所,B0FFGTASRB
877,LaBatite,湖北省,武汉市,汉阳区,La Batite,汉阳区二环线与龙阳湖北路交叉口西北100米,30.558762,114.207960,购物服务;购物相关场所;购物相关场所,B0FFFX7WV6
878,LaBatite,湖北省,武汉市,东西湖区,LABatite,东西湖区永旺梦乐城A120,30.649443,114.237888,购物服务;购物相关场所;购物相关场所,B0FFGTASRB
879,LaBatite,湖北省,武汉市,汉阳区,La Batite,汉阳区二环线与龙阳湖北路交叉口西北100米,30.558762,114.207960,购物服务;购物相关场所;购物相关场所,B0FFFX7WV6
880,LaBatite,湖北省,武汉市,东西湖区,LABatite,东西湖区永旺梦乐城A120,30.649443,114.237888,购物服务;购物相关场所;购物相关场所,B0FFGTASRB
881,LaBatite,湖北省,武汉市,汉阳区,La Batite,汉阳区二环线与龙阳湖北路交叉口西北100米,30.558762,114.207960,购物服务;购物相关场所;购物相关场所,B0FFFX7WV6
882,LaBatite,湖北省,武汉市,东西湖区,LABatite,东西湖区永旺梦乐城A120,30.649443,114.237888,购物服务;购物相关场所;购物相关场所,B0FFGTASRB
883,LaBatite,湖北省,武汉市,汉阳区,La Batite,汉阳区二环线与龙阳湖北路交叉口西北100米,30.558762,114.207960,购物服务;购物相关场所;购物相关场所,B0FFFX7WV6
884,LaBatite,湖北省,武汉市,东西湖区,LABatite,东西湖区永旺梦乐城A120,30.649443,114.237888,购物服务;购物相关场所;购物相关场所,B0FFGTASRB
885,LaBatite,湖北省,武汉市,汉阳区,La Batite,汉阳区二环线与龙阳湖北路交叉口西北100米,30.558762,114.207960,购物服务;购物相关场所;购物相关场所,B0FFFX7WV6
886,LaBatite,湖北省,武汉市,东西湖区,LABatite,东西湖区永旺梦乐城A120,30.649443,114.237888,购物服务;购物相关场所;购物相关场所,B0FFGTASRB
887,LaBatite,湖北省,武汉市,汉阳区,La Batite,汉阳区二环线与龙阳湖北路交叉口西北100米,30.558762,114.207960,购物服务;购物相关场所;购物相关场所,B0FFFX7WV6
888,LaBatite,湖北省,武汉市,东西湖区,LABatite,东西湖区永旺梦乐城A120,30.649443,114.237888,购物服务;购物相关场所;购物相关场所,B0FFGTASRB
889,LaBatite,湖北省,武汉市,汉阳区,La Batite,汉阳区二环线与龙阳湖北路交叉口西北100米,30.558762,114.207960,购物服务;购物相关场所;购物相关场所,B0FFFX7WV6
890,LaBatite,湖北省,武汉市,东西湖区,LABatite,东西湖区永旺梦乐城A120,30.649443,114.237888,购物服务;购物相关场所;购物相关场所,B0FFGTASRB
891,LaBatite,湖北省,武汉市,汉阳区,La Batite,汉阳区二环线与龙阳湖北路交叉口西北100米,30.558762,114.207960,购物服务;购物相关场所;购物相关场所,B0FFFX7WV6
892,LaBatite,湖北省,武汉市,东西湖区,LABatite,东西湖区永旺梦乐城A120,30.649443,114.237888,购物服务;购物相关场所;购物相关场所,B0FFGTASRB
893,LaBatite,湖北省,武汉市,汉阳区,La Batite,汉阳区二环线与龙阳湖北路交叉口西北100米,30.558762,114.207960,购物服务;购物相关场所;购物相关场所,B0FFFX7WV6
894,LaBatite,湖北省,武汉市,东西湖区,LABatite,东西湖区永旺梦乐城A120,30.649443,114.237888,购物服务;购物相关场所;购物相关场所,B0FFGTASRB
895,LaBatite,湖北省,武汉市,汉阳区,La Batite,汉阳区二环线与龙阳湖北路交叉口西北100米,30.558762,114.207960,购物服务;购物相关场所;购物相关场所,B0FFFX7WV6
896,LaBatite,湖北省,武汉市,东西湖区,LABatite,东西湖区永旺梦乐城A120,30.649443,114.237888,购物服务;购物相关场所;购物相关场所,B0FFGTASRB
897,LaBatite,湖北省,武汉市,汉阳区,La Batite,汉阳区二环线与龙阳湖北路交叉口西北100米,30.558762,114.207960,购物服务;购物相关场所;购物相关场所,B0FFFX7WV6
898,LaBatite,湖北省,武汉市,东西湖区,LABatite,东西湖区永旺梦乐城A120,30.649443,114.237888,购物服务;购物相关场所;购物相关场所,B0FFGTASRB
899,LaBatite,湖北省,武汉市,汉阳区,La Batite,汉阳区二环线与龙阳湖北路交叉口西北100米,30.558762,114.207960,购物服务;购物相关场所;购物相关场所,B0FFFX7WV6
900,LaBatite,湖北省,武汉市,东西湖区,LABatite,东西湖区永旺梦乐城A120,30.649443,114.237888,购物服务;购物相关场所;购物相关场所,B0FFGTASRB
901,LaBatite,湖北省,武汉市,汉阳区,La Batite,汉阳区二环线与龙阳湖北路交叉口西北100米,30.558762,114.207960,购物服务;购物相关场所;购物相关场所,B0FFFX7WV6
902,LaBatite,湖北省,武汉市,东西湖区,LABatite,东西湖区永旺梦乐城A120,30.649443,114.237888,购物服务;购物相关场所;购物相关场所,B0FFGTASRB
903,LaBatite,湖北省,武汉市,汉阳区,La Batite,汉阳区二环线与龙阳湖北路交叉口西北100米,30.558762,114.207960,购物服务;购物相关场所;购物相关场所,B0FFFX7WV6
904,LaBatite,湖北省,武汉市,东西湖区,LABatite,东西湖区永旺梦乐城A120,30.649443,114.237888,购物服务;购物相关场所;购物相关场所,B0FFGTASRB
905,LaBatite,湖北省,武汉市,汉阳区,La Batite,汉阳区二环线与龙阳湖北路交叉口西北100米,30.558762,114.207960,购物服务;购物相关场所;购物相关场所,B0FFFX7WV6
906,LaBatite,湖北省,武汉市,东西湖区,LABatite,东西湖区永旺梦乐城A120,30.649443,114.237888,购物服务;购物相关场所;购物相关场所,B0FFGTASRB
907,LaBatite,湖北省,武汉市,汉阳区,La Batite,汉阳区二环线与龙阳湖北路交叉口西北100米,30.558762,114.207960,购物服务;购物相关场所;购物相关场所,B0FFFX7WV6
908,LaBatite,湖北省,武汉市,东西湖区,LABatite,东西湖区永旺梦乐城A120,30.649443,114.237888,购物服务;购物相关场所;购物相关场所,B0FFGTASRB
909,LaBatite,湖北省,武汉市,汉阳区,La Batite,汉阳区二环线与龙阳湖北路交叉口西北100米,30.558762,114.207960,购物服务;购物相关场所;购物相关场所,B0FFFX7WV6
910,LaBatite,湖北省,武汉市,东西湖区,LABatite,东西湖区永旺梦乐城A120,30.649443,114.237888,购物服务;购物相关场所;购物相关场所,B0FFGTASRB
911,LaBatite,湖北省,武汉市,汉阳区,La Batite,汉阳区二环线与龙阳湖北路交叉口西北100米,30.558762,114.207960,购物服务;购物相关场所;购物相关场所,B0FFFX7WV6
912,LaBatite,湖北省,武汉市,东西湖区,LABatite,东西湖区永旺梦乐城A120,30.649443,114.237888,购物服务;购物相关场所;购物相关场所,B0FFGTASRB
913,LaBatite,湖北省,武汉市,汉阳区,La Batite,汉阳区二环线与龙阳湖北路交叉口西北100米,30.558762,114.207960,购物服务;购物相关场所;购物相关场所,B0FFFX7WV6
914,LaBatite,湖北省,武汉市,东西湖区,LABatite,东西湖区永旺梦乐城A120,30.649443,114.237888,购物服务;购物相关场所;购物相关场所,B0FFGTASRB
915,LaBatite,湖北省,武汉市,汉阳区,La Batite,汉阳区二环线与龙阳湖北路交叉口西北100米,30.558762,114.207960,购物服务;购物相关场所;购物相关场所,B0FFFX7WV6
916,LaBatite,湖北省,武汉市,东西湖区,LABatite,东西湖区永旺梦乐城A120,30.649443,114.237888,购物服务;购物相关场所;购物相关场所,B0FFGTASRB
917,LaBatite,湖北省,武汉市,汉阳区,La Batite,汉阳区二环线与龙阳湖北路交叉口西北100米,30.558762,114.207960,购物服务;购物相关场所;购物相关场所,B0FFFX7WV6
918,LaBatite,湖北省,武汉市,东西湖区,LABatite,东西湖区永旺梦乐城A120,30.649443,114.237888,购物服务;购物相关场所;购物相关场所,B0FFGTASRB
919,LaBatite,湖北省,武汉市,汉阳区,La Batite,汉阳区二环线与龙阳湖北路交叉口西北100米,30.558762,114.207960,购物服务;购物相关场所;购物相关场所,B0FFFX7WV6
920,LaBatite,湖北省,武汉市,东西湖区,LABatite,东西湖区永旺梦乐城A120,30.649443,114.237888,购物服务;购物相关场所;购物相关场所,B0FFGTASRB
921,LaBatite,湖北省,武汉市,汉阳区,La Batite,汉阳区二环线与龙阳湖北路交叉口西北100米,30.558762,114.207960,购物服务;购物相关场所;购物相关场所,B0FFFX7WV6
922,LaBatite,湖北省,武汉市,东西湖区,LABatite,东西湖区永旺梦乐城A120,30.649443,114.237888,购物服务;购物相关场所;购物相关场所,B0FFGTASRB
923,LaBatite,湖北省,武汉市,汉阳区,La Batite,汉阳区二环线与龙阳湖北路交叉口西北100米,30.558762,114.207960,购物服务;购物相关场所;购物相关场所,B0FFFX7WV6
924,LaBatite,湖北省,武汉市,东西湖区,LABatite,东西湖区永旺梦乐城A120,30.649443,114.237888,购物服务;购物相关场所;购物相关场所,B0FFGTASRB
925,LaBatite,湖北省,武汉市,汉阳区,La Batite,汉阳区二环线与龙阳湖北路交叉口西北100米,30.558762,114.207960,购物服务;购物相关场所;购物相关场所,B0FFFX7WV6
926,LaBatite,湖北省,武汉市,东西湖区,LABatite,东西湖区永旺梦乐城A120,30.649443,114.237888,购物服务;购物相关场所;购物相关场所,B0FFGTASRB
927,LaBatite,湖北省,武汉市,汉阳区,La Batite,汉阳区二环线与龙阳湖北路交叉口西北100米,30.558762,114.207960,购物服务;购物相关场所;购物相关场所,B0FFFX7WV6
928,LaBatite,湖北省,武汉市,东西湖区,LABatite,东西湖区永旺梦乐城A120,30.649443,114.237888,购物服务;购物相关场所;购物相关场所,B0FFGTASRB
929,LaBatite,湖北省,武汉市,汉阳区,La Batite,汉阳区二环线与龙阳湖北路交叉口西北100米,30.558762,114.207960,购物服务;购物相关场所;购物相关场所,B0FFFX7WV6
930,LaBatite,湖北省,武汉市,东西湖区,LABatite,东西湖区永旺梦乐城A120,30.649443,114.237888,购物服务;购物相关场所;购物相关场所,B0FFGTASRB
931,LaBatite,湖北省,武汉市,汉阳区,La Batite,汉阳区二环线与龙阳湖北路交叉口西北100米,30.558762,114.207960,购物服务;购物相关场所;购物相关场所,B0FFFX7WV6
932,LaBatite,湖北省,武汉市,东西湖区,LABatite,东西湖区永旺梦乐城A120,30.649443,114.237888,购物服务;购物相关场所;购物相关场所,B0FFGTASRB
933,LaBatite,湖北省,武汉市,汉阳区,La Batite,汉阳区二环线与龙阳湖北路交叉口西北100米,30.558762,114.207960,购物服务;购物相关场所;购物相关场所,B0FFFX7WV6
934,LaBatite,湖北省,武汉市,东西湖区,LABatite,东西湖区永旺梦乐城A120,30.649443,114.237888,购物服务;购物相关场所;购物相关场所,B0FFGTASRB
935,LaBatite,湖北省,武汉市,汉阳区,La Batite,汉阳区二环线与龙阳湖北路交叉口西北100米,30.558762,114.207960,购物服务;购物相关场所;购物相关场所,B0FFFX7WV6
936,LaBatite,湖北省,武汉市,东西湖区,LABatite,东西湖区永旺梦乐城A120,30.649443,114.237888,购物服务;购物相关场所;购物相关场所,B0FFGTASRB
937,LaBatite,湖北省,武汉市,汉阳区,La Batite,汉阳区二环线与龙阳湖北路交叉口西北100米,30.558762,114.207960,购物服务;购物相关场所;购物相关场所,B0FFFX7WV6
938,LaBatite,湖北省,武汉市,东西湖区,LABatite,东西湖区永旺梦乐城A120,30.649443,114.237888,购物服务;购物相关场所;购物相关场所,B0FFGTASRB
939,LaBatite,湖北省,武汉市,汉阳区,La Batite,汉阳区二环线与龙阳湖北路交叉口西北100米,30.558762,114.207960,购物服务;购物相关场所;购物相关场所,B0FFFX7WV6
940,LaBatite,湖北省,武汉市,东西湖区,LABatite,东西湖区永旺梦乐城A120,30.649443,114.237888,购物服务;购物相关场所;购物相关场所,B0FFGTASRB
941,LaBatite,湖北省,武汉市,汉阳区,La Batite,汉阳区二环线与龙阳湖北路交叉口西北100米,30.558762,114.207960,购物服务;购物相关场所;购物相关场所,B0FFFX7WV6
942,LaBatite,湖北省,武汉市,东西湖区,LABatite,东西湖区永旺梦乐城A120,30.649443,114.237888,购物服务;购物相关场所;购物相关场所,B0FFGTASRB
943,LaBatite,湖北省,武汉市,汉阳区,La Batite,汉阳区二环线与龙阳湖北路交叉口西北100米,30.558762,114.207960,购物服务;购物相关场所;购物相关场所,B0FFFX7WV6
944,LaBatite,湖北省,武汉市,东西湖区,LABatite,东西湖区永旺梦乐城A120,30.649443,114.237888,购物服务;购物相关场所;购物相关场所,B0FFGTASRB
945,LaBatite,湖北省,武汉市,汉阳区,La Batite,汉阳区二环线与龙阳湖北路交叉口西北100米,30.558762,114.207960,购物服务;购物相关场所;购物相关场所,B0FFFX7WV6
946,LaBatite,湖北省,武汉市,东西湖区,LABatite,东西湖区永旺梦乐城A120,30.649443,114.237888,购物服务;购物相关场所;购物相关场所,B0FFGTASRB
947,LaBatite,湖北省,武汉市,汉阳区,La Batite,汉阳区二环线与龙阳湖北路交叉口西北100米,30.558762,114.207960,购物服务;购物相关场所;购物相关场所,B0FFFX7WV6
948,LaBatite,湖北省,武汉市,东西湖区,LABatite,东西湖区永旺梦乐城A120,30.649443,114.237888,购物服务;购物相关场所;购物相关场所,B0FFGTASRB
949,LaBatite,湖北省,武汉市,汉阳区,La Batite,汉阳区二环线与龙阳湖北路交叉口西北100米,30.558762,114.207960,购物服务;购物相关场所;购物相关场所,B0FFFX7WV6
950,LaBatite,湖北省,武汉市,东西湖区,LABatite,东西湖区永旺梦乐城A120,30.649443,114.237888,购物服务;购物相关场所;购物相关场所,B0FFGTASRB
951,LaBatite,湖北省,武汉市,汉阳区,La Batite,汉阳区二环线与龙阳湖北路交叉口西北100米,30.558762,114.207960,购物服务;购物相关场所;购物相关场所,B0FFFX7WV6
952,LaBatite,湖北省,武汉市,东西湖区,LABatite,东西湖区永旺梦乐城A120,30.649443,114.237888,购物服务;购物相关场所;购物相关场所,B0FFGTASRB
953,LaBatite,湖北省,武汉市,汉阳区,La Batite,汉阳区二环线与龙阳湖北路交叉口西北100米,30.558762,114.207960,购物服务;购物相关场所;购物相关场所,B0FFFX7WV6
954,LaBatite,湖北省,武汉市,东西湖区,LABatite,东西湖区永旺梦乐城A120,30.649443,114.237888,购物服务;购物相关场所;购物相关场所,B0FFGTASRB
955,LaBatite,湖北省,武汉市,汉阳区,La Batite,汉阳区二环线与龙阳湖北路交叉口西北100米,30.558762,114.207960,购物服务;购物相关场所;购物相关场所,B0FFFX7WV6
956,LaBatite,湖北省,武汉市,东西湖区,LABatite,东西湖区永旺梦乐城A120,30.649443,114.237888,购物服务;购物相关场所;购物相关场所,B0FFGTASRB
957,LaBatite,湖北省,武汉市,汉阳区,La Batite,汉阳区二环线与龙阳湖北路交叉口西北100米,30.558762,114.207960,购物服务;购物相关场所;购物相关场所,B0FFFX7WV6
958,LaBatite,湖北省,武汉市,东西湖区,LABatite,东西湖区永旺梦乐城A120,30.649443,114.237888,购物服务;购物相关场所;购物相关场所,B0FFGTASRB
959,LaBatite,湖北省,武汉市,汉阳区,La Batite,汉阳区二环线与龙阳湖北路交叉口西北100米,30.558762,114.207960,购物服务;购物相关场所;购物相关场所,B0FFFX7WV6
960,LaBatite,湖北省,武汉市,东西湖区,LABatite,东西湖区永旺梦乐城A120,30.649443,114.237888,购物服务;购物相关场所;购物相关场所,B0FFGTASRB
961,LaBatite,湖北省,武汉市,汉阳区,La Batite,汉阳区二环线与龙阳湖北路交叉口西北100米,30.558762,114.207960,购物服务;购物相关场所;购物相关场所,B0FFFX7WV6
962,LaBatite,湖北省,武汉市,东西湖区,LABatite,东西湖区永旺梦乐城A120,30.649443,114.237888,购物服务;购物相关场所;购物相关场所,B0FFGTASRB
963,LaBatite,湖北省,武汉市,汉阳区,La Batite,汉阳区二环线与龙阳湖北路交叉口西北100米,30.558762,114.207960,购物服务;购物相关场所;购物相关场所,B0FFFX7WV6
964,LaBatite,湖北省,武汉市,东西湖区,LABatite,东西湖区永旺梦乐城A120,30.649443,114.237888,购物服务;购物相关场所;购物相关场所,B0FFGTASRB
965,LaBatite,湖北省,武汉市,汉阳区,La Batite,汉阳区二环线与龙阳湖北路交叉口西北100米,30.558762,114.207960,购物服务;购物相关场所;购物相关场所,B0FFFX7WV6
966,LaBatite,湖北省,武汉市,东西湖区,LABatite,东西湖区永旺梦乐城A120,30.649443,114.237888,购物服务;购物相关场所;购物相关场所,B0FFGTASRB
967,LaBatite,湖北省,武汉市,汉阳区,La Batite,汉阳区二环线与龙阳湖北路交叉口西北100米,30.558762,114.207960,购物服务;购物相关场所;购物相关场所,B0FFFX7WV6
968,LaBatite,湖北省,武汉市,东西湖区,LABatite,东西湖区永旺梦乐城A120,30.649443,114.237888,购物服务;购物相关场所;购物相关场所,B0FFGTASRB
969,LaBatite,湖北省,武汉市,汉阳区,La Batite,汉阳区二环线与龙阳湖北路交叉口西北100米,30.558762,114.207960,购物服务;购物相关场所;购物相关场所,B0FFFX7WV6
970,LaBatite,湖北省,武汉市,东西湖区,LABatite,东西湖区永旺梦乐城A120,30.649443,114.237888,购物服务;购物相关场所;购物相关场所,B0FFGTASRB
971,LaBatite,湖北省,武汉市,汉阳区,La Batite,汉阳区二环线与龙阳湖北路交叉口西北100米,30.558762,114.207960,购物服务;购物相关场所;购物相关场所,B0FFFX7WV6
972,LaBatite,湖北省,武汉市,东西湖区,LABatite,东西湖区永旺梦乐城A120,30.649443,114.237888,购物服务;购物相关场所;购物相关场所,B0FFGTASRB
973,LaBatite,湖北省,武汉市,汉阳区,La Batite,汉阳区二环线与龙阳湖北路交叉口西北100米,30.558762,114.207960,购物服务;购物相关场所;购物相关场所,B0FFFX7WV6
974,LaBatite,湖北省,武汉市,东西湖区,LABatite,东西湖区永旺梦乐城A120,30.649443,114.237888,购物服务;购物相关场所;购物相关场所,B0FFGTASRB
975,LaBatite,湖北省,武汉市,汉阳区,La Batite,汉阳区二环线与龙阳湖北路交叉口西北100米,30.558762,114.207960,购物服务;购物相关场所;购物相关场所,B0FFFX7WV6
976,LaBatite,湖北省,武汉市,东西湖区,LABatite,东西湖区永旺梦乐城A120,30.649443,114.237888,购物服务;购物相关场所;购物相关场所,B0FFGTASRB
977,LaBatite,湖北省,武汉市,汉阳区,La Batite,汉阳区二环线与龙阳湖北路交叉口西北100米,30.558762,114.207960,购物服务;购物相关场所;购物相关场所,B0FFFX7WV6
978,LaBatite,湖北省,武汉市,东西湖区,LABatite,东西湖区永旺梦乐城A120,30.649443,114.237888,购物服务;购物相关场所;购物相关场所,B0FFGTASRB
979,LaBatite,湖北省,武汉市,汉阳区,La Batite,汉阳区二环线与龙阳湖北路交叉口西北100米,30.558762,114.207960,购物服务;购物相关场所;购物相关场所,B0FFFX7WV6
980,LaBatite,湖北省,武汉市,东西湖区,LABatite,东西湖区永旺梦乐城A120,30.649443,114.237888,购物服务;购物相关场所;购物相关场所,B0FFGTASRB
981,LaBatite,湖北省,武汉市,汉阳区,La Batite,汉阳区二环线与龙阳湖北路交叉口西北100米,30.558762,114.207960,购物服务;购物相关场所;购物相关场所,B0FFFX7WV6
982,LaBatite,湖北省,武汉市,东西湖区,LABatite,东西湖区永旺梦乐城A120,30.649443,114.237888,购物服务;购物相关场所;购物相关场所,B0FFGTASRB
983,LaBatite,湖北省,武汉市,汉阳区,La Batite,汉阳区二环线与龙阳湖北路交叉口西北100米,30.558762,114.207960,购物服务;购物相关场所;购物相关场所,B0FFFX7WV6
984,LaBatite,湖北省,武汉市,东西湖区,LABatite,东西湖区永旺梦乐城A120,30.649443,114.237888,购物服务;购物相关场所;购物相关场所,B0FFGTASRB
985,LaBatite,湖北省,武汉市,汉阳区,La Batite,汉阳区二环线与龙阳湖北路交叉口西北100米,30.558762,114.207960,购物服务;购物相关场所;购物相关场所,B0FFFX7WV6
986,LaBatite,湖北省,武汉市,东西湖区,LABatite,东西湖区永旺梦乐城A120,30.649443,114.237888,购物服务;购物相关场所;购物相关场所,B0FFGTASRB
987,LaBatite,湖北省,武汉市,汉阳区,La Batite,汉阳区二环线与龙阳湖北路交叉口西北100米,30.558762,114.207960,购物服务;购物相关场所;购物相关场所,B0FFFX7WV6
988,LaBatite,湖北省,武汉市,东西湖区,LABatite,东西湖区永旺梦乐城A120,30.649443,114.237888,购物服务;购物相关场所;购物相关场所,B0FFGTASRB
989,LaBatite,湖北省,武汉市,汉阳区,La Batite,汉阳区二环线与龙阳湖北路交叉口西北100米,30.558762,114.207960,购物服务;购物相关场所;购物相关场所,B0FFFX7WV6
990,LaBatite,湖北省,武汉市,东西湖区,LABatite,东西湖区永旺梦乐城A120,30.649443,114.237888,购物服务;购物相关场所;购物相关场所,B0FFGTASRB
991,LaBatite,湖北省,武汉市,汉阳区,La Batite,汉阳区二环线与龙阳湖北路交叉口西北100米,30.558762,114.207960,购物服务;购物相关场所;购物相关场所,B0FFFX7WV6
992,LaBatite,湖北省,武汉市,东西湖区,LABatite,东西湖区永旺梦乐城A120,30.649443,114.237888,购物服务;购物相关场所;购物相关场所,B0FFGTASRB
993,LaBatite,湖北省,武汉市,汉阳区,La Batite,汉阳区二环线与龙阳湖北路交叉口西北100米,30.558762,114.207960,购物服务;购物相关场所;购物相关场所,B0FFFX7WV6
994,LaBatite,湖北省,武汉市,东西湖区,LABatite,东西湖区永旺梦乐城A120,30.649443,114.237888,购物服务;购物相关场所;购物相关场所,B0FFGTASRB
995,LaBatite,湖北省,武汉市,汉阳区,La Batite,汉阳区二环线与龙阳湖北路交叉口西北100米,30.558762,114.207960,购物服务;购物相关场所;购物相关场所,B0FFFX7WV6
996,LaBatite,湖北省,武汉市,东西湖区,LABatite,东西湖区永旺梦乐城A120,30.649443,114.237888,购物服务;购物相关场所;购物相关场所,B0FFGTASRB
997,LaBatite,湖北省,武汉市,汉阳区,La Batite,汉阳区二环线与龙阳湖北路交叉口西北100米,30.558762,114.207960,购物服务;购物相关场所;购物相关场所,B0FFFX7WV6
998,LaBatite,湖北省,武汉市,东西湖区,LABatite,东西湖区永旺梦乐城A120,30.649443,114.237888,购物服务;购物相关场所;购物相关场所,B0FFGTASRB
999,LaBatite,湖北省,武汉市,汉阳区,La Batite,汉阳区二环线与龙阳湖北路交叉口西北100米,30.558762,114.207960,购物服务;购物相关场所;购物相关场所,B0FFFX7WV6
1000,LaBatite,湖北省,武汉市,东西湖区,LABatite,东西湖区永旺梦乐城A120,30.649443,114.237888,购物服务;购物相关场所;购物相关场所,B0FFGTASRB
1001,LaBatite,湖北省,武汉市,汉阳区,La Batite,汉阳区二环线与龙阳湖北路交叉口西北100米,30.558762,114.207960,购物服务;购物相关场所;购物相关场所,B0FFFX7WV6
1002,LaBatite,湖北省,武汉市,东西湖区,LABatite,东西湖区永旺梦乐城A120,30.649443,114.237888,购物服务;购物相关场所;购物相关场所,B0FFGTASRB
1003,LaBatite,湖北省,武汉市,汉阳区,La Batite,汉阳区二环线与龙阳湖北路交叉口西北100米,30.558762,114.207960,购物服务;购物相关场所;购物相关场所,B0FFFX7WV6
1004,LaBatite,湖北省,武汉市,东西湖区,LABatite,东西湖区永旺梦乐城A120,30.649443,114.237888,购物服务;购物相关场所;购物相关场所,B0FFGTASRB
1005,LaBatite,湖北省,武汉市,汉阳区,La Batite,汉阳区二环线与龙阳湖北路交叉口西北100米,30.558762,114.207960,购物服务;购物相关场所;购物相关场所,B0FFFX7WV6
1006,LaBatite,湖北省,武汉市,东西湖区,LABatite,东西湖区永旺梦乐城A120,30.649443,114.237888,购物服务;购物相关场所;购物相关场所,B0FFGTASRB
1007,LaBatite,湖北省,武汉市,汉阳区,La Batite,汉阳区二环线与龙阳湖北路交叉口西北100米,30.558762,114.207960,购物服务;购物相关场所;购物相关场所,B0FFFX7WV6
1008,LaBatite,湖北省,武汉市,东西湖区,LABatite,东西湖区永旺梦乐城A120,30.649443,114.237888,购物服务;购物相关场所;购物相关场所,B0FFGTASRB
1009,LaBatite,湖北省,武汉市,汉阳区,La Batite,汉阳区二环线与龙阳湖北路交叉口西北100米,30.558762,114.207960,购物服务;购物相关场所;购物相关场所,B0FFFX7WV6
1010,LaBatite,湖北省,武汉市,东西湖区,LABatite,东西湖区永旺梦乐城A120,30.649443,114.237888,购物服务;购物相关场所;购物相关场所,B0FFGTASRB
1011,LaBatite,湖北省,武汉市,汉阳区,La Batite,汉阳区二环线与龙阳湖北路交叉口西北100米,30.558762,114.207960,购物服务;购物相关场所;购物相关场所,B0FFFX7WV6
1012,LaBatite,湖北省,武汉市,东西湖区,LABatite,东西湖区永旺梦乐城A120,30.649443,114.237888,购物服务;购物相关场所;购物相关场所,B0FFGTASRB
1013,LaBatite,湖北省,武汉市,汉阳区,La Batite,汉阳区二环线与龙阳湖北路交叉口西北100米,30.558762,114.207960,购物服务;购物相关场所;购物相关场所,B0FFFX7WV6
1014,LaBatite,湖北省,武汉市,东西湖区,LABatite,东西湖区永旺梦乐城A120,30.649443,114.237888,购物服务;购物相关场所;购物相关场所,B0FFGTASRB
1015,LaBatite,湖北省,武汉市,汉阳区,La Batite,汉阳区二环线与龙阳湖北路交叉口西北100米,30.558762,114.207960,购物服务;购物相关场所;购物相关场所,B0FFFX7WV6
1016,LaBatite,湖北省,武汉市,东西湖区,LABatite,东西湖区永旺梦乐城A120,30.649443,114.237888,购物服务;购物相关场所;购物相关场所,B0FFGTASRB
1017,LaBatite,湖北省,武汉市,汉阳区,La Batite,汉阳区二环线与龙阳湖北路交叉口西北100米,30.558762,114.207960,购物服务;购物相关场所;购物相关场所,B0FFFX7WV6
1018,LaBatite,湖北省,武汉市,东西湖区,LABatite,东西湖区永旺梦乐城A120,30.649443,114.237888,购物服务;购物相关场所;购物相关场所,B0FFGTASRB
1019,LaBatite,湖北省,武汉市,汉阳区,La Batite,汉阳区二环线与龙阳湖北路交叉口西北100米,30.558762,114.207960,购物服务;购物相关场所;购物相关场所,B0FFFX7WV6
1020,LaBatite,湖北省,武汉市,东西湖区,LABatite,东西湖区永旺梦乐城A120,30.649443,114.237888,购物服务;购物相关场所;购物相关场所,B0FFGTASRB
1021,LaBatite,湖北省,武汉市,汉阳区,La Batite,汉阳区二环线与龙阳湖北路交叉口西北100米,30.558762,114.207960,购物服务;购物相关场所;购物相关场所,B0FFFX7WV6
1022,LaBatite,湖北省,武汉市,东西湖区,LABatite,东西湖区永旺梦乐城A120,30.649443,114.237888,购物服务;购物相关场所;购物相关场所,B0FFGTASRB
1023,LaBatite,湖北省,武汉市,汉阳区,La Batite,汉阳区二环线与龙阳湖北路交叉口西北100米,30.558762,114.207960,购物服务;购物相关场所;购物相关场所,B0FFFX7WV6
1024,LaBatite,湖北省,武汉市,东西湖区,LABatite,东西湖区永旺梦乐城A120,30.649443,114.237888,购物服务;购物相关场所;购物相关场所,B0FFGTASRB
1025,LaBatite,湖北省,武汉市,汉阳区,La Batite,汉阳区二环线与龙阳湖北路交叉口西北100米,30.558762,114.207960,购物服务;购物相关场所;购物相关场所,B0FFFX7WV6
1026,LaBatite,湖北省,武汉市,东西湖区,LABatite,东西湖区永旺梦乐城A120,30.649443,114.237888,购物服务;购物相关场所;购物相关场所,B0FFGTASRB
1027,LaBatite,湖北省,武汉市,汉阳区,La Batite,汉阳区二环线与龙阳湖北路交叉口西北100米,30.558762,114.207960,购物服务;购物相关场所;购物相关场所,B0FFFX7WV6
1028,LaBatite,湖北省,武汉市,东西湖区,LABatite,东西湖区永旺梦乐城A120,30.649443,114.237888,购物服务;购物相关场所;购物相关场所,B0FFGTASRB
1029,LaBatite,湖北省,武汉市,汉阳区,La Batite,汉阳区二环线与龙阳湖北路交叉口西北100米,30.558762,114.207960,购物服务;购物相关场所;购物相关场所,B0FFFX7WV6
1030,LaBatite,湖北省,武汉市,东西湖区,LABatite,东西湖区永旺梦乐城A120,30.649443,114.237888,购物服务;购物相关场所;购物相关场所,B0FFGTASRB
1031,LaBatite,湖北省,武汉市,汉阳区,La Batite,汉阳区二环线与龙阳湖北路交叉口西北100米,30.558762,114.207960,购物服务;购物相关场所;购物相关场所,B0FFFX7WV6
1032,LaBatite,湖北省,武汉市,东西湖区,LABatite,东西湖区永旺梦乐城A120,30.649443,114.237888,购物服务;购物相关场所;购物相关场所,B0FFGTASRB
1033,LaBatite,湖北省,武汉市,汉阳区,La Batite,汉阳区二环线与龙阳湖北路交叉口西北100米,30.558762,114.207960,购物服务;购物相关场所;购物相关场所,B0FFFX7WV6
1034,LaBatite,湖北省,武汉市,东西湖区,LABatite,东西湖区永旺梦乐城A120,30.649443,114.237888,购物服务;购物相关场所;购物相关场所,B0FFGTASRB
1035,LaBatite,湖北省,武汉市,汉阳区,La Batite,汉阳区二环线与龙阳湖北路交叉口西北100米,30.558762,114.207960,购物服务;购物相关场所;购物相关场所,B0FFFX7WV6
1036,LaBatite,湖北省,武汉市,东西湖区,LABatite,东西湖区永旺梦乐城A120,30.649443,114.237888,购物服务;购物相关场所;购物相关场所,B0FFGTASRB
1037,LaBatite,湖北省,武汉市,汉阳区,La Batite,汉阳区二环线与龙阳湖北路交叉口西北100米,30.558762,114.207960,购物服务;购物相关场所;购物相关场所,B0FFFX7WV6
1038,LaBatite,湖北省,武汉市,东西湖区,LABatite,东西湖区永旺梦乐城A120,30.649443,114.237888,购物服务;购物相关场所;购物相关场所,B0FFGTASRB
1039,LaBatite,湖北省,武汉市,汉阳区,La Batite,汉阳区二环线与龙阳湖北路交叉口西北100米,30.558762,114.207960,购物服务;购物相关场所;购物相关场所,B0FFFX7WV6
1040,LaBatite,湖北省,武汉市,东西湖区,LABatite,东西湖区永旺梦乐城A120,30.649443,114.237888,购物服务;购物相关场所;购物相关场所,B0FFGTASRB
1041,LaBatite,湖北省,武汉市,汉阳区,La Batite,汉阳区二环线与龙阳湖北路交叉口西北100米,30.558762,114.207960,购物服务;购物相关场所;购物相关场所,B0FFFX7WV6
1042,LaBatite,湖北省,武汉市,东西湖区,LABatite,东西湖区永旺梦乐城A120,30.649443,114.237888,购物服务;购物相关场所;购物相关场所,B0FFGTASRB
1043,LaBatite,湖北省,武汉市,汉阳区,La Batite,汉阳区二环线与龙阳湖北路交叉口西北100米,30.558762,114.207960,购物服务;购物相关场所;购物相关场所,B0FFFX7WV6
1044,LaBatite,湖北省,武汉市,东西湖区,LABatite,东西湖区永旺梦乐城A120,30.649443,114.237888,购物服务;购物相关场所;购物相关场所,B0FFGTASRB
1045,LaBatite,湖北省,武汉市,汉阳区,La Batite,汉阳区二环线与龙阳湖北路交叉口西北100米,30.558762,114.207960,购物服务;购物相关场所;购物相关场所,B0FFFX7WV6
1046,LaBatite,湖北省,武汉市,东西湖区,LABatite,东西湖区永旺梦乐城A120,30.649443,114.237888,购物服务;购物相关场所;购物相关场所,B0FFGTASRB
1047,LaBatite,湖北省,武汉市,汉阳区,La Batite,汉阳区二环线与龙阳湖北路交叉口西北100米,30.558762,114.207960,购物服务;购物相关场所;购物相关场所,B0FFFX7WV6
1048,LaBatite,湖北省,武汉市,东西湖区,LABatite,东西湖区永旺梦乐城A120,30.649443,114.237888,购物服务;购物相关场所;购物相关场所,B0FFGTASRB
1049,LaBatite,湖北省,武汉市,汉阳区,La Batite,汉阳区二环线与龙阳湖北路交叉口西北100米,30.558762,114.207960,购物服务;购物相关场所;购物相关场所,B0FFFX7WV6
1050,LaBatite,湖北省,武汉市,东西湖区,LABatite,东西湖区永旺梦乐城A120,30.649443,114.237888,购物服务;购物相关场所;购物相关场所,B0FFGTASRB
1051,LaBatite,湖北省,武汉市,汉阳区,La Batite,汉阳区二环线与龙阳湖北路交叉口西北100米,30.558762,114.207960,购物服务;购物相关场所;购物相关场所,B0FFFX7WV6
1052,LaBatite,湖北省,武汉市,东西湖区,LABatite,东西湖区永旺梦乐城A120,30.649443,114.237888,购物服务;购物相关场所;购物相关场所,B0FFGTASRB
1053,LaBatite,湖北省,武汉市,汉阳区,La Batite,汉阳区二环线与龙阳湖北路交叉口西北100米,30.558762,114.207960,购物服务;购物相关场所;购物相关场所,B0FFFX7WV6
1054,LaBatite,湖北省,武汉市,东西湖区,LABatite,东西湖区永旺梦乐城A120,30.649443,114.237888,购物服务;购物相关场所;购物相关场所,B0FFGTASRB
1055,LaBatite,湖北省,武汉市,汉阳区,La Batite,汉阳区二环线与龙阳湖北路交叉口西北100米,30.558762,114.207960,购物服务;购物相关场所;购物相关场所,B0FFFX7WV6
1056,LaBatite,湖北省,武汉市,东西湖区,LABatite,东西湖区永旺梦乐城A120,30.649443,114.237888,购物服务;购物相关场所;购物相关场所,B0FFGTASRB
1057,LaBatite,湖北省,武汉市,汉阳区,La Batite,汉阳区二环线与龙阳湖北路交叉口西北100米,30.558762,114.207960,购物服务;购物相关场所;购物相关场所,B0FFFX7WV6
1058,LaBatite,湖北省,武汉市,东西湖区,LABatite,东西湖区永旺梦乐城A120,30.649443,114.237888,购物服务;购物相关场所;购物相关场所,B0FFGTASRB
1059,LaBatite,湖北省,武汉市,汉阳区,La Batite,汉阳区二环线与龙阳湖北路交叉口西北100米,30.558762,114.207960,购物服务;购物相关场所;购物相关场所,B0FFFX7WV6
1060,LaBatite,湖北省,武汉市,东西湖区,LABatite,东西湖区永旺梦乐城A120,30.649443,114.237888,购物服务;购物相关场所;购物相关场所,B0FFGTASRB
1061,LaBatite,湖北省,武汉市,汉阳区,La Batite,汉阳区二环线与龙阳湖北路交叉口西北100米,30.558762,114.207960,购物服务;购物相关场所;购物相关场所,B0FFFX7WV6
1062,LaBatite,湖北省,武汉市,东西湖区,LABatite,东西湖区永旺梦乐城A120,30.649443,114.237888,购物服务;购物相关场所;购物相关场所,B0FFGTASRB
1063,LaBatite,湖北省,武汉市,汉阳区,La Batite,汉阳区二环线与龙阳湖北路交叉口西北100米,30.558762,114.207960,购物服务;购物相关场所;购物相关场所,B0FFFX7WV6
1064,LaBatite,湖北省,武汉市,东西湖区,LABatite,东西湖区永旺梦乐城A120,30.649443,114.237888,购物服务;购物相关场所;购物相关场所,B0FFGTASRB
1065,LaBatite,湖北省,武汉市,汉阳区,La Batite,汉阳区二环线与龙阳湖北路交叉口西北100米,30.558762,114.207960,购物服务;购物相关场所;购物相关场所,B0FFFX7WV6
1066,LaBatite,湖北省,武汉市,东西湖区,LABatite,东西湖区永旺梦乐城A120,30.649443,114.237888,购物服务;购物相关场所;购物相关场所,B0FFGTASRB
1067,LaBatite,湖北省,武汉市,汉阳区,La Batite,汉阳区二环线与龙阳湖北路交叉口西北100米,30.558762,114.207960,购物服务;购物相关场所;购物相关场所,B0FFFX7WV6
1068,LaBatite,湖北省,武汉市,东西湖区,LABatite,东西湖区永旺梦乐城A120,30.649443,114.237888,购物服务;购物相关场所;购物相关场所,B0FFGTASRB
1069,LaBatite,湖北省,武汉市,汉阳区,La Batite,汉阳区二环线与龙阳湖北路交叉口西北100米,30.558762,114.207960,购物服务;购物相关场所;购物相关场所,B0FFFX7WV6
1070,LaBatite,湖北省,武汉市,东西湖区,LABatite,东西湖区永旺梦乐城A120,30.649443,114.237888,购物服务;购物相关场所;购物相关场所,B0FFGTASRB
1071,LaBatite,湖北省,武汉市,汉阳区,La Batite,汉阳区二环线与龙阳湖北路交叉口西北100米,30.558762,114.207960,购物服务;购物相关场所;购物相关场所,B0FFFX7WV6
1072,LaBatite,湖北省,武汉市,东西湖区,LABatite,东西湖区永旺梦乐城A120,30.649443,114.237888,购物服务;购物相关场所;购物相关场所,B0FFGTASRB
1073,LaBatite,湖北省,武汉市,汉阳区,La Batite,汉阳区二环线与龙阳湖北路交叉口西北100米,30.558762,114.207960,购物服务;购物相关场所;购物相关场所,B0FFFX7WV6
1074,LaBatite,湖北省,武汉市,东西湖区,LABatite,东西湖区永旺梦乐城A120,30.649443,114.237888,购物服务;购物相关场所;购物相关场所,B0FFGTASRB
1075,LaBatite,湖北省,武汉市,汉阳区,La Batite,汉阳区二环线与龙阳湖北路交叉口西北100米,30.558762,114.207960,购物服务;购物相关场所;购物相关场所,B0FFFX7WV6
1076,LaBatite,湖北省,武汉市,东西湖区,LABatite,东西湖区永旺梦乐城A120,30.649443,114.237888,购物服务;购物相关场所;购物相关场所,B0FFGTASRB
1077,LaBatite,湖北省,武汉市,汉阳区,La Batite,汉阳区二环线与龙阳湖北路交叉口西北100米,30.558762,114.207960,购物服务;购物相关场所;购物相关场所,B0FFFX7WV6
1078,LaBatite,湖北省,武汉市,东西湖区,LABatite,东西湖区永旺梦乐城A120,30.649443,114.237888,购物服务;购物相关场所;购物相关场所,B0FFGTASRB
1079,LaBatite,湖北省,武汉市,汉阳区,La Batite,汉阳区二环线与龙阳湖北路交叉口西北100米,30.558762,114.207960,购物服务;购物相关场所;购物相关场所,B0FFFX7WV6
1080,LaBatite,湖北省,武汉市,东西湖区,LABatite,东西湖区永旺梦乐城A120,30.649443,114.237888,购物服务;购物相关场所;购物相关场所,B0FFGTASRB
1081,LaBatite,湖北省,武汉市,汉阳区,La Batite,汉阳区二环线与龙阳湖北路交叉口西北100米,30.558762,114.207960,购物服务;购物相关场所;购物相关场所,B0FFFX7WV6
1082,LaBatite,湖北省,武汉市,东西湖区,LABatite,东西湖区永旺梦乐城A120,30.649443,114.237888,购物服务;购物相关场所;购物相关场所,B0FFGTASRB
1083,LaBatite,湖北省,武汉市,汉阳区,La Batite,汉阳区二环线与龙阳湖北路交叉口西北100米,30.558762,114.207960,购物服务;购物相关场所;购物相关场所,B0FFFX7WV6
1084,LaBatite,湖北省,武汉市,东西湖区,LABatite,东西湖区永旺梦乐城A120,30.649443,114.237888,购物服务;购物相关场所;购物相关场所,B0FFGTASRB
1085,LaBatite,湖北省,武汉市,汉阳区,La Batite,汉阳区二环线与龙阳湖北路交叉口西北100米,30.558762,114.207960,购物服务;购物相关场所;购物相关场所,B0FFFX7WV6
1086,LaBatite,湖北省,武汉市,东西湖区,LABatite,东西湖区永旺梦乐城A120,30.649443,114.237888,购物服务;购物相关场所;购物相关场所,B0FFGTASRB
1087,LaBatite,湖北省,武汉市,汉阳区,La Batite,汉阳区二环线与龙阳湖北路交叉口西北100米,30.558762,114.207960,购物服务;购物相关场所;购物相关场所,B0FFFX7WV6
1088,LaBatite,湖北省,武汉市,东西湖区,LABatite,东西湖区永旺梦乐城A120,30.649443,114.237888,购物服务;购物相关场所;购物相关场所,B0FFGTASRB
1089,LaBatite,湖北省,武汉市,汉阳区,La Batite,汉阳区二环线与龙阳湖北路交叉口西北100米,30.558762,114.207960,购物服务;购物相关场所;购物相关场所,B0FFFX7WV6
1090,LaBatite,湖北省,武汉市,东西湖区,LABatite,东西湖区永旺梦乐城A120,30.649443,114.237888,购物服务;购物相关场所;购物相关场所,B0FFGTASRB
1091,LaBatite,湖北省,武汉市,汉阳区,La Batite,汉阳区二环线与龙阳湖北路交叉口西北100米,30.558762,114.207960,购物服务;购物相关场所;购物相关场所,B0FFFX7WV6
1092,LaBatite,湖北省,武汉市,东西湖区,LABatite,东西湖区永旺梦乐城A120,30.649443,114.237888,购物服务;购物相关场所;购物相关场所,B0FFGTASRB
1093,LaBatite,湖北省,武汉市,汉阳区,La Batite,汉阳区二环线与龙阳湖北路交叉口西北100米,30.558762,114.207960,购物服务;购物相关场所;购物相关场所,B0FFFX7WV6
1094,LaBatite,湖北省,武汉市,东西湖区,LABatite,东西湖区永旺梦乐城A120,30.649443,114.237888,购物服务;购物相关场所;购物相关场所,B0FFGTASRB
1095,LaBatite,湖北省,武汉市,汉阳区,La Batite,汉阳区二环线与龙阳湖北路交叉口西北100米,30.558762,114.207960,购物服务;购物相关场所;购物相关场所,B0FFFX7WV6
1096,LaBatite,湖北省,武汉市,东西湖区,LABatite,东西湖区永旺梦乐城A120,30.649443,114.237888,购物服务;购物相关场所;购物相关场所,B0FFGTASRB
1097,LaBatite,湖北省,武汉市,汉阳区,La Batite,汉阳区二环线与龙阳湖北路交叉口西北100米,30.558762,114.207960,购物服务;购物相关场所;购物相关场所,B0FFFX7WV6
1098,LaBatite,湖北省,武汉市,东西湖区,LABatite,东西湖区永旺梦乐城A120,30.649443,114.237888,购物服务;购物相关场所;购物相关场所,B0FFGTASRB
1099,LaBatite,湖北省,武汉市,汉阳区,La Batite,汉阳区二环线与龙阳湖北路交叉口西北100米,30.558762,114.207960,购物服务;购物相关场所;购物相关场所,B0FFFX7WV6
1100,LaBatite,湖北省,武汉市,东西湖区,LABatite,东西湖区永旺梦乐城A120,30.649443,114.237888,购物服务;购物相关场所;购物相关场所,B0FFGTASRB
1101,LaBatite,湖北省,武汉市,汉阳区,La Batite,汉阳区二环线与龙阳湖北路交叉口西北100米,30.558762,114.207960,购物服务;购物相关场所;购物相关场所,B0FFFX7WV6
1102,LaBatite,湖北省,武汉市,东西湖区,LABatite,东西湖区永旺梦乐城A120,30.649443,114.237888,购物服务;购物相关场所;购物相关场所,B0FFGTASRB
1103,LaBatite,湖北省,武汉市,汉阳区,La Batite,汉阳区二环线与龙阳湖北路交叉口西北100米,30.558762,114.207960,购物服务;购物相关场所;购物相关场所,B0FFFX7WV6
1104,LaBatite,湖北省,武汉市,东西湖区,LABatite,东西湖区永旺梦乐城A120,30.649443,114.237888,购物服务;购物相关场所;购物相关场所,B0FFGTASRB
1105,LaBatite,湖北省,武汉市,汉阳区,La Batite,汉阳区二环线与龙阳湖北路交叉口西北100米,30.558762,114.207960,购物服务;购物相关场所;购物相关场所,B0FFFX7WV6
1106,LaBatite,湖北省,武汉市,东西湖区,LABatite,东西湖区永旺梦乐城A120,30.649443,114.237888,购物服务;购物相关场所;购物相关场所,B0FFGTASRB
1107,LaBatite,湖北省,武汉市,汉阳区,La Batite,汉阳区二环线与龙阳湖北路交叉口西北100米,30.558762,114.207960,购物服务;购物相关场所;购物相关场所,B0FFFX7WV6
1108,LaBatite,湖北省,武汉市,东西湖区,LABatite,东西湖区永旺梦乐城A120,30.649443,114.237888,购物服务;购物相关场所;购物相关场所,B0FFGTASRB
1109,LaBatite,湖北省,武汉市,汉阳区,La Batite,汉阳区二环线与龙阳湖北路交叉口西北100米,30.558762,114.207960,购物服务;购物相关场所;购物相关场所,B0FFFX7WV6
1110,LaBatite,湖北省,武汉市,东西湖区,LABatite,东西湖区永旺梦乐城A120,30.649443,114.237888,购物服务;购物相关场所;购物相关场所,B0FFGTASRB
1111,LaBatite,湖北省,武汉市,汉阳区,La Batite,汉阳区二环线与龙阳湖北路交叉口西北100米,30.558762,114.207960,购物服务;购物相关场所;购物相关场所,B0FFFX7WV6
1112,LaBatite,湖北省,武汉市,东西湖区,LABatite,东西湖区永旺梦乐城A120,30.649443,114.237888,购物服务;购物相关场所;购物相关场所,B0FFGTASRB
1113,LaBatite,湖北省,武汉市,汉阳区,La Batite,汉阳区二环线与龙阳湖北路交叉口西北100米,30.558762,114.207960,购物服务;购物相关场所;购物相关场所,B0FFFX7WV6
1114,LaBatite,湖北省,武汉市,东西湖区,LABatite,东西湖区永旺梦乐城A120,30.649443,114.237888,购物服务;购物相关场所;购物相关场所,B0FFGTASRB
1115,LaBatite,湖北省,武汉市,汉阳区,La Batite,汉阳区二环线与龙阳湖北路交叉口西北100米,30.558762,114.207960,购物服务;购物相关场所;购物相关场所,B0FFFX7WV6
1116,LaBatite,湖北省,武汉市,东西湖区,LABatite,东西湖区永旺梦乐城A120,30.649443,114.237888,购物服务;购物相关场所;购物相关场所,B0FFGTASRB
1117,LaBatite,湖北省,武汉市,汉阳区,La Batite,汉阳区二环线与龙阳湖北路交叉口西北100米,30.558762,114.207960,购物服务;购物相关场所;购物相关场所,B0FFFX7WV6
1118,LaBatite,湖北省,武汉市,东西湖区,LABatite,东西湖区永旺梦乐城A120,30.649443,114.237888,购物服务;购物相关场所;购物相关场所,B0FFGTASRB
1119,LaBatite,湖北省,武汉市,汉阳区,La Batite,汉阳区二环线与龙阳湖北路交叉口西北100米,30.558762,114.207960,购物服务;购物相关场所;购物相关场所,B0FFFX7WV6
1120,LaBatite,湖北省,武汉市,东西湖区,LABatite,东西湖区永旺梦乐城A120,30.649443,114.237888,购物服务;购物相关场所;购物相关场所,B0FFGTASRB
1121,LaBatite,湖北省,武汉市,汉阳区,La Batite,汉阳区二环线与龙阳湖北路交叉口西北100米,30.558762,114.207960,购物服务;购物相关场所;购物相关场所,B0FFFX7WV6
1122,LaBatite,湖北省,武汉市,东西湖区,LABatite,东西湖区永旺梦乐城A120,30.649443,114.237888,购物服务;购物相关场所;购物相关场所,B0FFGTASRB
1123,LaBatite,湖北省,武汉市,汉阳区,La Batite,汉阳区二环线与龙阳湖北路交叉口西北100米,30.558762,114.207960,购物服务;购物相关场所;购物相关场所,B0FFFX7WV6
1124,LaBatite,湖北省,武汉市,东西湖区,LABatite,东西湖区永旺梦乐城A120,30.649443,114.237888,购物服务;购物相关场所;购物相关场所,B0FFGTASRB
1125,LaBatite,湖北省,武汉市,汉阳区,La Batite,汉阳区二环线与龙阳湖北路交叉口西北100米,30.558762,114.207960,购物服务;购物相关场所;购物相关场所,B0FFFX7WV6
1126,LaBatite,湖北省,武汉市,东西湖区,LABatite,东西湖区永旺梦乐城A120,30.649443,114.237888,购物服务;购物相关场所;购物相关场所,B0FFGTASRB
1127,LaBatite,湖北省,武汉市,汉阳区,La Batite,汉阳区二环线与龙阳湖北路交叉口西北100米,30.558762,114.207960,购物服务;购物相关场所;购物相关场所,B0FFFX7WV6
1128,LaBatite,湖北省,武汉市,东西湖区,LABatite,东西湖区永旺梦乐城A120,30.649443,114.237888,购物服务;购物相关场所;购物相关场所,B0FFGTASRB
1129,LaBatite,湖北省,武汉市,汉阳区,La Batite,汉阳区二环线与龙阳湖北路交叉口西北100米,30.558762,114.207960,购物服务;购物相关场所;购物相关场所,B0FFFX7WV6
1130,LaBatite,湖北省,武汉市,东西湖区,LABatite,东西湖区永旺梦乐城A120,30.649443,114.237888,购物服务;购物相关场所;购物相关场所,B0FFGTASRB
1131,LaBatite,湖北省,武汉市,汉阳区,La Batite,汉阳区二环线与龙阳湖北路交叉口西北100米,30.558762,114.207960,购物服务;购物相关场所;购物相关场所,B0FFFX7WV6
1132,LaBatite,湖北省,武汉市,东西湖区,LABatite,东西湖区永旺梦乐城A120,30.649443,114.237888,购物服务;购物相关场所;购物相关场所,B0FFGTASRB
1133,LaBatite,湖北省,武汉市,汉阳区,La Batite,汉阳区二环线与龙阳湖北路交叉口西北100米,30.558762,114.207960,购物服务;购物相关场所;购物相关场所,B0FFFX7WV6
1134,LaBatite,湖北省,武汉市,东西湖区,LABatite,东西湖区永旺梦乐城A120,30.649443,114.237888,购物服务;购物相关场所;购物相关场所,B0FFGTASRB
1135,LaBatite,湖北省,武汉市,汉阳区,La Batite,汉阳区二环线与龙阳湖北路交叉口西北100米,30.558762,114.207960,购物服务;购物相关场所;购物相关场所,B0FFFX7WV6
1136,LaBatite,湖北省,武汉市,东西湖区,LABatite,东西湖区永旺梦乐城A120,30.649443,114.237888,购物服务;购物相关场所;购物相关场所,B0FFGTASRB
1137,LaBatite,湖北省,武汉市,汉阳区,La Batite,汉阳区二环线与龙阳湖北路交叉口西北100米,30.558762,114.207960,购物服务;购物相关场所;购物相关场所,B0FFFX7WV6
1138,LaBatite,湖北省,武汉市,东西湖区,LABatite,东西湖区永旺梦乐城A120,30.649443,114.237888,购物服务;购物相关场所;购物相关场所,B0FFGTASRB
1139,LaBatite,湖北省,武汉市,汉阳区,La Batite,汉阳区二环线与龙阳湖北路交叉口西北100米,30.558762,114.207960,购物服务;购物相关场所;购物相关场所,B0FFFX7WV6
1140,LaBatite,湖北省,武汉市,东西湖区,LABatite,东西湖区永旺梦乐城A120,30.649443,114.237888,购物服务;购物相关场所;购物相关场所,B0FFGTASRB
1141,LaBatite,湖北省,武汉市,汉阳区,La Batite,汉阳区二环线与龙阳湖北路交叉口西北100米,30.558762,114.207960,购物服务;购物相关场所;购物相关场所,B0FFFX7WV6
1142,LaBatite,湖北省,武汉市,东西湖区,LABatite,东西湖区永旺梦乐城A120,30.649443,114.237888,购物服务;购物相关场所;购物相关场所,B0FFGTASRB
1143,LaBatite,湖北省,武汉市,汉阳区,La Batite,汉阳区二环线与龙阳湖北路交叉口西北100米,30.558762,114.207960,购物服务;购物相关场所;购物相关场所,B0FFFX7WV6
1144,LaBatite,湖北省,武汉市,东西湖区,LABatite,东西湖区永旺梦乐城A120,30.649443,114.237888,购物服务;购物相关场所;购物相关场所,B0FFGTASRB
1145,LaBatite,湖北省,武汉市,汉阳区,La Batite,汉阳区二环线与龙阳湖北路交叉口西北100米,30.558762,114.207960,购物服务;购物相关场所;购物相关场所,B0FFFX7WV6
1146,LaBatite,湖北省,武汉市,东西湖区,LABatite,东西湖区永旺梦乐城A120,30.649443,114.237888,购物服务;购物相关场所;购物相关场所,B0FFGTASRB
1147,LaBatite,湖北省,武汉市,汉阳区,La Batite,汉阳区二环线与龙阳湖北路交叉口西北100米,30.558762,114.207960,购物服务;购物相关场所;购物相关场所,B0FFFX7WV6
1148,LaBatite,湖北省,武汉市,东西湖区,LABatite,东西湖区永旺梦乐城A120,30.649443,114.237888,购物服务;购物相关场所;购物相关场所,B0FFGTASRB
1149,LaBatite,湖北省,武汉市,汉阳区,La Batite,汉阳区二环线与龙阳湖北路交叉口西北100米,30.558762,114.207960,购物服务;购物相关场所;购物相关场所,B0FFFX7WV6
1150,LaBatite,湖北省,武汉市,东西湖区,LABatite,东西湖区永旺梦乐城A120,30.649443,114.237888,购物服务;购物相关场所;购物相关场所,B0FFGTASRB
1151,LaBatite,湖北省,武汉市,汉阳区,La Batite,汉阳区二环线与龙阳湖北路交叉口西北100米,30.558762,114.207960,购物服务;购物相关场所;购物相关场所,B0FFFX7WV6
1152,LaBatite,湖北省,武汉市,东西湖区,LABatite,东西湖区永旺梦乐城A120,30.649443,114.237888,购物服务;购物相关场所;购物相关场所,B0FFGTASRB
1153,LaBatite,湖北省,武汉市,汉阳区,La Batite,汉阳区二环线与龙阳湖北路交叉口西北100米,30.558762,114.207960,购物服务;购物相关场所;购物相关场所,B0FFFX7WV6
1154,LaBatite,湖北省,武汉市,东西湖区,LABatite,东西湖区永旺梦乐城A120,30.649443,114.237888,购物服务;购物相关场所;购物相关场所,B0FFGTASRB
1155,LaBatite,湖北省,武汉市,汉阳区,La Batite,汉阳区二环线与龙阳湖北路交叉口西北100米,30.558762,114.207960,购物服务;购物相关场所;购物相关场所,B0FFFX7WV6
1156,LaBatite,湖北省,武汉市,东西湖区,LABatite,东西湖区永旺梦乐城A120,30.649443,114.237888,购物服务;购物相关场所;购物相关场所,B0FFGTASRB
1157,LaBatite,湖北省,武汉市,汉阳区,La Batite,汉阳区二环线与龙阳湖北路交叉口西北100米,30.558762,114.207960,购物服务;购物相关场所;购物相关场所,B0FFFX7WV6
1158,LaBatite,湖北省,武汉市,东西湖区,LABatite,东西湖区永旺梦乐城A120,30.649443,114.237888,购物服务;购物相关场所;购物相关场所,B0FFGTASRB
1159,LaBatite,湖北省,武汉市,汉阳区,La Batite,汉阳区二环线与龙阳湖北路交叉口西北100米,30.558762,114.207960,购物服务;购物相关场所;购物相关场所,B0FFFX7WV6
1160,LaBatite,湖北省,武汉市,东西湖区,LABatite,东西湖区永旺梦乐城A120,30.649443,114.237888,购物服务;购物相关场所;购物相关场所,B0FFGTASRB
1161,LaBatite,湖北省,武汉市,汉阳区,La Batite,汉阳区二环线与龙阳湖北路交叉口西北100米,30.558762,114.207960,购物服务;购物相关场所;购物相关场所,B0FFFX7WV6
1162,LaBatite,湖北省,武汉市,东西湖区,LABatite,东西湖区永旺梦乐城A120,30.649443,114.237888,购物服务;购物相关场所;购物相关场所,B0FFGTASRB
1163,LaBatite,湖北省,武汉市,汉阳区,La Batite,汉阳区二环线与龙阳湖北路交叉口西北100米,30.558762,114.207960,购物服务;购物相关场所;购物相关场所,B0FFFX7WV6
1164,LaBatite,湖北省,武汉市,东西湖区,LABatite,东西湖区永旺梦乐城A120,30.649443,114.237888,购物服务;购物相关场所;购物相关场所,B0FFGTASRB
1165,LaBatite,湖北省,武汉市,汉阳区,La Batite,汉阳区二环线与龙阳湖北路交叉口西北100米,30.558762,114.207960,购物服务;购物相关场所;购物相关场所,B0FFFX7WV6
1166,LaBatite,湖北省,武汉市,东西湖区,LABatite,东西湖区永旺梦乐城A120,30.649443,114.237888,购物服务;购物相关场所;购物相关场所,B0FFGTASRB
1167,LaBatite,湖北省,武汉市,汉阳区,La Batite,汉阳区二环线与龙阳湖北路交叉口西北100米,30.558762,114.207960,购物服务;购物相关场所;购物相关场所,B0FFFX7WV6
1168,LaBatite,湖北省,武汉市,东西湖区,LABatite,东西湖区永旺梦乐城A120,30.649443,114.237888,购物服务;购物相关场所;购物相关场所,B0FFGTASRB
1169,LaBatite,湖北省,武汉市,汉阳区,La Batite,汉阳区二环线与龙阳湖北路交叉口西北100米,30.558762,114.207960,购物服务;购物相关场所;购物相关场所,B0FFFX7WV6
1170,LaBatite,湖北省,武汉市,东西湖区,LABatite,东西湖区永旺梦乐城A120,30.649443,114.237888,购物服务;购物相关场所;购物相关场所,B0FFGTASRB
1171,LaBatite,湖北省,武汉市,汉阳区,La Batite,汉阳区二环线与龙阳湖北路交叉口西北100米,30.558762,114.207960,购物服务;购物相关场所;购物相关场所,B0FFFX7WV6
1172,LaBatite,湖北省,武汉市,东西湖区,LABatite,东西湖区永旺梦乐城A120,30.649443,114.237888,购物服务;购物相关场所;购物相关场所,B0FFGTASRB
1173,LaBatite,湖北省,武汉市,汉阳区,La Batite,汉阳区二环线与龙阳湖北路交叉口西北100米,30.558762,114.207960,购物服务;购物相关场所;购物相关场所,B0FFFX7WV6
1174,LaBatite,湖北省,武汉市,东西湖区,LABatite,东西湖区永旺梦乐城A120,30.649443,114.237888,购物服务;购物相关场所;购物相关场所,B0FFGTASRB
1175,LaBatite,湖北省,武汉市,汉阳区,La Batite,汉阳区二环线与龙阳湖北路交叉口西北100米,30.558762,114.207960,购物服务;购物相关场所;购物相关场所,B0FFFX7WV6
1176,LaBatite,湖北省,武汉市,东西湖区,LABatite,东西湖区永旺梦乐城A120,30.649443,114.237888,购物服务;购物相关场所;购物相关场所,B0FFGTASRB
1177,LaBatite,湖北省,武汉市,汉阳区,La Batite,汉阳区二环线与龙阳湖北路交叉口西北100米,30.558762,114.207960,购物服务;购物相关场所;购物相关场所,B0FFFX7WV6
1178,LaBatite,湖北省,武汉市,东西湖区,LABatite,东西湖区永旺梦乐城A120,30.649443,114.237888,购物服务;购物相关场所;购物相关场所,B0FFGTASRB
1179,LaBatite,湖北省,武汉市,汉阳区,La Batite,汉阳区二环线与龙阳湖北路交叉口西北100米,30.558762,114.207960,购物服务;购物相关场所;购物相关场所,B0FFFX7WV6
1180,LaBatite,湖北省,武汉市,东西湖区,LABatite,东西湖区永旺梦乐城A120,30.649443,114.237888,购物服务;购物相关场所;购物相关场所,B0FFGTASRB
1181,LaBatite,湖北省,武汉市,汉阳区,La Batite,汉阳区二环线与龙阳湖北路交叉口西北100米,30.558762,114.207960,购物服务;购物相关场所;购物相关场所,B0FFFX7WV6
1182,LaBatite,湖北省,武汉市,东西湖区,LABatite,东西湖区永旺梦乐城A120,30.649443,114.237888,购物服务;购物相关场所;购物相关场所,B0FFGTASRB
1183,LaBatite,湖北省,武汉市,汉阳区,La Batite,汉阳区二环线与龙阳湖北路交叉口西北100米,30.558762,114.207960,购物服务;购物相关场所;购物相关场所,B0FFFX7WV6
1184,LaBatite,湖北省,武汉市,东西湖区,LABatite,东西湖区永旺梦乐城A120,30.649443,114.237888,购物服务;购物相关场所;购物相关场所,B0FFGTASRB
1185,LaBatite,湖北省,武汉市,汉阳区,La Batite,汉阳区二环线与龙阳湖北路交叉口西北100米,30.558762,114.207960,购物服务;购物相关场所;购物相关场所,B0FFFX7WV6
1186,LaBatite,湖北省,武汉市,东西湖区,LABatite,东西湖区永旺梦乐城A120,30.649443,114.237888,购物服务;购物相关场所;购物相关场所,B0FFGTASRB
1187,LaBatite,湖北省,武汉市,汉阳区,La Batite,汉阳区二环线与龙阳湖北路交叉口西北100米,30.558762,114.207960,购物服务;购物相关场所;购物相关场所,B0FFFX7WV6
1188,LaBatite,湖北省,武汉市,东西湖区,LABatite,东西湖区永旺梦乐城A120,30.649443,114.237888,购物服务;购物相关场所;购物相关场所,B0FFGTASRB
1189,LaBatite,湖北省,武汉市,汉阳区,La Batite,汉阳区二环线与龙阳湖北路交叉口西北100米,30.558762,114.207960,购物服务;购物相关场所;购物相关场所,B0FFFX7WV6
1190,LaBatite,湖北省,武汉市,东西湖区,LABatite,东西湖区永旺梦乐城A120,30.649443,114.237888,购物服务;购物相关场所;购物相关场所,B0FFGTASRB
1191,LaBatite,湖北省,武汉市,汉阳区,La Batite,汉阳区二环线与龙阳湖北路交叉口西北100米,30.558762,114.207960,购物服务;购物相关场所;购物相关场所,B0FFFX7WV6
1192,LaBatite,湖北省,武汉市,东西湖区,LABatite,东西湖区永旺梦乐城A120,30.649443,114.237888,购物服务;购物相关场所;购物相关场所,B0FFGTASRB
1193,LaBatite,湖北省,武汉市,汉阳区,La Batite,汉阳区二环线与龙阳湖北路交叉口西北100米,30.558762,114.207960,购物服务;购物相关场所;购物相关场所,B0FFFX7WV6
1194,LaBatite,湖北省,武汉市,东西湖区,LABatite,东西湖区永旺梦乐城A120,30.649443,114.237888,购物服务;购物相关场所;购物相关场所,B0FFGTASRB
1195,LaBatite,湖北省,武汉市,汉阳区,La Batite,汉阳区二环线与龙阳湖北路交叉口西北100米,30.558762,114.207960,购物服务;购物相关场所;购物相关场所,B0FFFX7WV6
1196,LaBatite,湖北省,武汉市,东西湖区,LABatite,东西湖区永旺梦乐城A120,30.649443,114.237888,购物服务;购物相关场所;购物相关场所,B0FFGTASRB
1197,LaBatite,湖北省,武汉市,汉阳区,La Batite,汉阳区二环线与龙阳湖北路交叉口西北100米,30.558762,114.207960,购物服务;购物相关场所;购物相关场所,B0FFFX7WV6
1198,LaBatite,湖北省,武汉市,东西湖区,LABatite,东西湖区永旺梦乐城A120,30.649443,114.237888,购物服务;购物相关场所;购物相关场所,B0FFGTASRB
1199,LaBatite,湖北省,武汉市,汉阳区,La Batite,汉阳区二环线与龙阳湖北路交叉口西北100米,30.558762,114.207960,购物服务;购物相关场所;购物相关场所,B0FFFX7WV6
1200,LaBatite,湖北省,武汉市,东西湖区,LABatite,东西湖区永旺梦乐城A120,30.649443,114.237888,购物服务;购物相关场所;购物相关场所,B0FFGTASRB
1201,LaBatite,湖北省,武汉市,汉阳区,La Batite,汉阳区二环线与龙阳湖北路交叉口西北100米,30.558762,114.207960,购物服务;购物相关场所;购物相关场所,B0FFFX7WV6
1202,LaBatite,湖北省,武汉市,东西湖区,LABatite,东西湖区永旺梦乐城A120,30.649443,114.237888,购物服务;购物相关场所;购物相关场所,B0FFGTASRB
1203,LaBatite,湖北省,武汉市,汉阳区,La Batite,汉阳区二环线与龙阳湖北路交叉口西北100米,30.558762,114.207960,购物服务;购物相关场所;购物相关场所,B0FFFX7WV6
1204,LaBatite,湖北省,武汉市,东西湖区,LABatite,东西湖区永旺梦乐城A120,30.649443,114.237888,购物服务;购物相关场所;购物相关场所,B0FFGTASRB
1205,LaBatite,湖北省,武汉市,汉阳区,La Batite,汉阳区二环线与龙阳湖北路交叉口西北100米,30.558762,114.207960,购物服务;购物相关场所;购物相关场所,B0FFFX7WV6
1206,LaBatite,湖北省,武汉市,东西湖区,LABatite,东西湖区永旺梦乐城A120,30.649443,114.237888,购物服务;购物相关场所;购物相关场所,B0FFGTASRB
1207,LaBatite,湖北省,武汉市,汉阳区,La Batite,汉阳区二环线与龙阳湖北路交叉口西北100米,30.558762,114.207960,购物服务;购物相关场所;购物相关场所,B0FFFX7WV6
1208,LaBatite,湖北省,武汉市,东西湖区,LABatite,东西湖区永旺梦乐城A120,30.649443,114.237888,购物服务;购物相关场所;购物相关场所,B0FFGTASRB
1209,LaBatite,湖北省,武汉市,汉阳区,La Batite,汉阳区二环线与龙阳湖北路交叉口西北100米,30.558762,114.207960,购物服务;购物相关场所;购物相关场所,B0FFFX7WV6
1210,LaBatite,湖北省,武汉市,东西湖区,LABatite,东西湖区永旺梦乐城A120,30.649443,114.237888,购物服务;购物相关场所;购物相关场所,B0FFGTASRB
1211,LaBatite,湖北省,武汉市,汉阳区,La Batite,汉阳区二环线与龙阳湖北路交叉口西北100米,30.558762,114.207960,购物服务;购物相关场所;购物相关场所,B0FFFX7WV6
1212,LaBatite,湖北省,武汉市,东西湖区,LABatite,东西湖区永旺梦乐城A120,30.649443,114.237888,购物服务;购物相关场所;购物相关场所,B0FFGTASRB
1213,LaBatite,湖北省,武汉市,汉阳区,La Batite,汉阳区二环线与龙阳湖北路交叉口西北100米,30.558762,114.207960,购物服务;购物相关场所;购物相关场所,B0FFFX7WV6
1214,LaBatite,湖北省,武汉市,东西湖区,LABatite,东西湖区永旺梦乐城A120,30.649443,114.237888,购物服务;购物相关场所;购物相关场所,B0FFGTASRB
1215,LaBatite,湖北省,武汉市,汉阳区,La Batite,汉阳区二环线与龙阳湖北路交叉口西北100米,30.558762,114.207960,购物服务;购物相关场所;购物相关场所,B0FFFX7WV6
1216,LaBatite,湖北省,武汉市,东西湖区,LABatite,东西湖区永旺梦乐城A120,30.649443,114.237888,购物服务;购物相关场所;购物相关场所,B0FFGTASRB
1217,LaBatite,湖北省,武汉市,汉阳区,La Batite,汉阳区二环线与龙阳湖北路交叉口西北100米,30.558762,114.207960,购物服务;购物相关场所;购物相关场所,B0FFFX7WV6
1218,LaBatite,湖北省,武汉市,东西湖区,LABatite,东西湖区永旺梦乐城A120,30.649443,114.237888,购物服务;购物相关场所;购物相关场所,B0FFGTASRB
1219,LaBatite,湖北省,武汉市,汉阳区,La Batite,汉阳区二环线与龙阳湖北路交叉口西北100米,30.558762,114.207960,购物服务;购物相关场所;购物相关场所,B0FFFX7WV6
1220,LaBatite,湖北省,武汉市,东西湖区,LABatite,东西湖区永旺梦乐城A120,30.649443,114.237888,购物服务;购物相关场所;购物相关场所,B0FFGTASRB
1221,LaBatite,湖北省,武汉市,汉阳区,La Batite,汉阳区二环线与龙阳湖北路交叉口西北100米,30.558762,114.207960,购物服务;购物相关场所;购物相关场所,B0FFFX7WV6
1222,LaBatite,湖北省,武汉市,东西湖区,LABatite,东西湖区永旺梦乐城A120,30.649443,114.237888,购物服务;购物相关场所;购物相关场所,B0FFGTASRB
1223,LaBatite,湖北省,武汉市,汉阳区,La Batite,汉阳区二环线与龙阳湖北路交叉口西北100米,30.558762,114.207960,购物服务;购物相关场所;购物相关场所,B0FFFX7WV6
1224,LaBatite,湖北省,武汉市,东西湖区,LABatite,东西湖区永旺梦乐城A120,30.649443,114.237888,购物服务;购物相关场所;购物相关场所,B0FFGTASRB
1225,LaBatite,湖北省,武汉市,汉阳区,La Batite,汉阳区二环线与龙阳湖北路交叉口西北100米,30.558762,114.207960,购物服务;购物相关场所;购物相关场所,B0FFFX7WV6
1226,LaBatite,湖北省,武汉市,东西湖区,LABatite,东西湖区永旺梦乐城A120,30.649443,114.237888,购物服务;购物相关场所;购物相关场所,B0FFGTASRB
1227,LaBatite,湖北省,武汉市,汉阳区,La Batite,汉阳区二环线与龙阳湖北路交叉口西北100米,30.558762,114.207960,购物服务;购物相关场所;购物相关场所,B0FFFX7WV6
1228,LaBatite,湖北省,武汉市,东西湖区,LABatite,东西湖区永旺梦乐城A120,30.649443,114.237888,购物服务;购物相关场所;购物相关场所,B0FFGTASRB
1229,LaBatite,湖北省,武汉市,汉阳区,La Batite,汉阳区二环线与龙阳湖北路交叉口西北100米,30.558762,114.207960,购物服务;购物相关场所;购物相关场所,B0FFFX7WV6
1230,LaBatite,湖北省,武汉市,东西湖区,LABatite,东西湖区永旺梦乐城A120,30.649443,114.237888,购物服务;购物相关场所;购物相关场所,B0FFGTASRB
1231,LaBatite,湖北省,武汉市,汉阳区,La Batite,汉阳区二环线与龙阳湖北路交叉口西北100米,30.558762,114.207960,购物服务;购物相关场所;购物相关场所,B0FFFX7WV6
1232,LaBatite,湖北省,武汉市,东西湖区,LABatite,东西湖区永旺梦乐城A120,30.649443,114.237888,购物服务;购物相关场所;购物相关场所,B0FFGTASRB
1233,LaBatite,湖北省,武汉市,汉阳区,La Batite,汉阳区二环线与龙阳湖北路交叉口西北100米,30.558762,114.207960,购物服务;购物相关场所;购物相关场所,B0FFFX7WV6
1234,LaBatite,湖北省,武汉市,东西湖区,LABatite,东西湖区永旺梦乐城A120,30.649443,114.237888,购物服务;购物相关场所;购物相关场所,B0FFGTASRB
1235,LaBatite,湖北省,武汉市,汉阳区,La Batite,汉阳区二环线与龙阳湖北路交叉口西北100米,30.558762,114.207960,购物服务;购物相关场所;购物相关场所,B0FFFX7WV6
1236,LaBatite,湖北省,武汉市,东西湖区,LABatite,东西湖区永旺梦乐城A120,30.649443,114.237888,购物服务;购物相关场所;购物相关场所,B0FFGTASRB
1237,LaBatite,湖北省,武汉市,汉阳区,La Batite,汉阳区二环线与龙阳湖北路交叉口西北100米,30.558762,114.207960,购物服务;购物相关场所;购物相关场所,B0FFFX7WV6
1238,LaBatite,湖北省,武汉市,东西湖区,LABatite,东西湖区永旺梦乐城A120,30.649443,114.237888,购物服务;购物相关场所;购物相关场所,B0FFGTASRB
1239,LaBatite,湖北省,武汉市,汉阳区,La Batite,汉阳区二环线与龙阳湖北路交叉口西北100米,30.558762,114.207960,购物服务;购物相关场所;购物相关场所,B0FFFX7WV6
1240,LaBatite,湖北省,武汉市,东西湖区,LABatite,东西湖区永旺梦乐城A120,30.649443,114.237888,购物服务;购物相关场所;购物相关场所,B0FFGTASRB
1241,LaBatite,湖北省,武汉市,汉阳区,La Batite,汉阳区二环线与龙阳湖北路交叉口西北100米,30.558762,114.207960,购物服务;购物相关场所;购物相关场所,B0FFFX7WV6
1242,LaBatite,湖北省,武汉市,东西湖区,LABatite,东西湖区永旺梦乐城A120,30.649443,114.237888,购物服务;购物相关场所;购物相关场所,B0FFGTASRB
1243,LaBatite,湖北省,武汉市,汉阳区,La Batite,汉阳区二环线与龙阳湖北路交叉口西北100米,30.558762,114.207960,购物服务;购物相关场所;购物相关场所,B0FFFX7WV6
1244,LaBatite,湖北省,武汉市,东西湖区,LABatite,东西湖区永旺梦乐城A120,30.649443,114.237888,购物服务;购物相关场所;购物相关场所,B0FFGTASRB
1245,LaBatite,湖北省,武汉市,汉阳区,La Batite,汉阳区二环线与龙阳湖北路交叉口西北100米,30.558762,114.207960,购物服务;购物相关场所;购物相关场所,B0FFFX7WV6
1246,LaBatite,湖北省,武汉市,东西湖区,LABatite,东西湖区永旺梦乐城A120,30.649443,114.237888,购物服务;购物相关场所;购物相关场所,B0FFGTASRB
1247,LaBatite,湖北省,武汉市,汉阳区,La Batite,汉阳区二环线与龙阳湖北路交叉口西北100米,30.558762,114.207960,购物服务;购物相关场所;购物相关场所,B0FFFX7WV6
1248,LaBatite,湖北省,武汉市,东西湖区,LABatite,东西湖区永旺梦乐城A120,30.649443,114.237888,购物服务;购物相关场所;购物相关场所,B0FFGTASRB
1249,LaBatite,湖北省,武汉市,汉阳区,La Batite,汉阳区二环线与龙阳湖北路交叉口西北100米,30.558762,114.207960,购物服务;购物相关场所;购物相关场所,B0FFFX7WV6
1250,LaBatite,湖北省,武汉市,东西湖区,LABatite,东西湖区永旺梦乐城A120,30.649443,114.237888,购物服务;购物相关场所;购物相关场所,B0FFGTASRB
1251,LaBatite,湖北省,武汉市,汉阳区,La Batite,汉阳区二环线与龙阳湖北路交叉口西北100米,30.558762,114.207960,购物服务;购物相关场所;购物相关场所,B0FFFX7WV6
1252,LaBatite,湖北省,武汉市,东西湖区,LABatite,东西湖区永旺梦乐城A120,30.649443,114.237888,购物服务;购物相关场所;购物相关场所,B0FFGTASRB
1253,LaBatite,湖北省,武汉市,汉阳区,La Batite,汉阳区二环线与龙阳湖北路交叉口西北100米,30.558762,114.207960,购物服务;购物相关场所;购物相关场所,B0FFFX7WV6
1254,LaBatite,湖北省,武汉市,东西湖区,LABatite,东西湖区永旺梦乐城A120,30.649443,114.237888,购物服务;购物相关场所;购物相关场所,B0FFGTASRB
1255,LaBatite,湖北省,武汉市,汉阳区,La Batite,汉阳区二环线与龙阳湖北路交叉口西北100米,30.558762,114.207960,购物服务;购物相关场所;购物相关场所,B0FFFX7WV6
1256,LaBatite,湖北省,武汉市,东西湖区,LABatite,东西湖区永旺梦乐城A120,30.649443,114.237888,购物服务;购物相关场所;购物相关场所,B0FFGTASRB
1257,LaBatite,湖北省,武汉市,汉阳区,La Batite,汉阳区二环线与龙阳湖北路交叉口西北100米,30.558762,114.207960,购物服务;购物相关场所;购物相关场所,B0FFFX7WV6
1258,LaBatite,湖北省,武汉市,东西湖区,LABatite,东西湖区永旺梦乐城A120,30.649443,114.237888,购物服务;购物相关场所;购物相关场所,B0FFGTASRB
1259,LaBatite,湖北省,武汉市,汉阳区,La Batite,汉阳区二环线与龙阳湖北路交叉口西北100米,30.558762,114.207960,购物服务;购物相关场所;购物相关场所,B0FFFX7WV6
1260,LaBatite,湖北省,武汉市,东西湖区,LABatite,东西湖区永旺梦乐城A120,30.649443,114.237888,购物服务;购物相关场所;购物相关场所,B0FFGTASRB
1261,LaBatite,湖北省,武汉市,汉阳区,La Batite,汉阳区二环线与龙阳湖北路交叉口西北100米,30.558762,114.207960,购物服务;购物相关场所;购物相关场所,B0FFFX7WV6
1262,LaBatite,湖北省,武汉市,东西湖区,LABatite,东西湖区永旺梦乐城A120,30.649443,114.237888,购物服务;购物相关场所;购物相关场所,B0FFGTASRB
1263,LaBatite,湖北省,武汉市,汉阳区,La Batite,汉阳区二环线与龙阳湖北路交叉口西北100米,30.558762,114.207960,购物服务;购物相关场所;购物相关场所,B0FFFX7WV6
1264,LaBatite,湖北省,武汉市,东西湖区,LABatite,东西湖区永旺梦乐城A120,30.649443,114.237888,购物服务;购物相关场所;购物相关场所,B0FFGTASRB
1265,LaBatite,湖北省,武汉市,汉阳区,La Batite,汉阳区二环线与龙阳湖北路交叉口西北100米,30.558762,114.207960,购物服务;购物相关场所;购物相关场所,B0FFFX7WV6
1266,LaBatite,湖北省,武汉市,东西湖区,LABatite,东西湖区永旺梦乐城A120,30.649443,114.237888,购物服务;购物相关场所;购物相关场所,B0FFGTASRB
1267,LaBatite,湖北省,武汉市,汉阳区,La Batite,汉阳区二环线与龙阳湖北路交叉口西北100米,30.558762,114.207960,购物服务;购物相关场所;购物相关场所,B0FFFX7WV6
1268,LaBatite,湖北省,武汉市,东西湖区,LABatite,东西湖区永旺梦乐城A120,30.649443,114.237888,购物服务;购物相关场所;购物相关场所,B0FFGTASRB
1269,LaBatite,湖北省,武汉市,汉阳区,La Batite,汉阳区二环线与龙阳湖北路交叉口西北100米,30.558762,114.207960,购物服务;购物相关场所;购物相关场所,B0FFFX7WV6
1270,LaBatite,湖北省,武汉市,东西湖区,LABatite,东西湖区永旺梦乐城A120,30.649443,114.237888,购物服务;购物相关场所;购物相关场所,B0FFGTASRB
1271,LaBatite,湖北省,武汉市,汉阳区,La Batite,汉阳区二环线与龙阳湖北路交叉口西北100米,30.558762,114.207960,购物服务;购物相关场所;购物相关场所,B0FFFX7WV6
1272,LaBatite,湖北省,武汉市,东西湖区,LABatite,东西湖区永旺梦乐城A120,30.649443,114.237888,购物服务;购物相关场所;购物相关场所,B0FFGTASRB
1273,LaBatite,湖北省,武汉市,汉阳区,La Batite,汉阳区二环线与龙阳湖北路交叉口西北100米,30.558762,114.207960,购物服务;购物相关场所;购物相关场所,B0FFFX7WV6
1274,LaBatite,湖北省,武汉市,东西湖区,LABatite,东西湖区永旺梦乐城A120,30.649443,114.237888,购物服务;购物相关场所;购物相关场所,B0FFGTASRB
1275,LaBatite,湖北省,武汉市,汉阳区,La Batite,汉阳区二环线与龙阳湖北路交叉口西北100米,30.558762,114.207960,购物服务;购物相关场所;购物相关场所,B0FFFX7WV6
1276,LaBatite,湖北省,武汉市,东西湖区,LABatite,东西湖区永旺梦乐城A120,30.649443,114.237888,购物服务;购物相关场所;购物相关场所,B0FFGTASRB
1277,LaBatite,湖北省,武汉市,汉阳区,La Batite,汉阳区二环线与龙阳湖北路交叉口西北100米,30.558762,114.207960,购物服务;购物相关场所;购物相关场所,B0FFFX7WV6
1278,LaBatite,湖北省,武汉市,东西湖区,LABatite,东西湖区永旺梦乐城A120,30.649443,114.237888,购物服务;购物相关场所;购物相关场所,B0FFGTASRB
1279,LaBatite,湖北省,武汉市,汉阳区,La Batite,汉阳区二环线与龙阳湖北路交叉口西北100米,30.558762,114.207960,购物服务;购物相关场所;购物相关场所,B0FFFX7WV6
1280,LaBatite,湖北省,武汉市,东西湖区,LABatite,东西湖区永旺梦乐城A120,30.649443,114.237888,购物服务;购物相关场所;购物相关场所,B0FFGTASRB
1281,LaBatite,湖北省,武汉市,汉阳区,La Batite,汉阳区二环线与龙阳湖北路交叉口西北100米,30.558762,114.207960,购物服务;购物相关场所;购物相关场所,B0FFFX7WV6
1282,LaBatite,湖北省,武汉市,东西湖区,LABatite,东西湖区永旺梦乐城A120,30.649443,114.237888,购物服务;购物相关场所;购物相关场所,B0FFGTASRB
1283,LaBatite,湖北省,武汉市,汉阳区,La Batite,汉阳区二环线与龙阳湖北路交叉口西北100米,30.558762,114.207960,购物服务;购物相关场所;购物相关场所,B0FFFX7WV6
1284,LaBatite,湖北省,武汉市,东西湖区,LABatite,东西湖区永旺梦乐城A120,30.649443,114.237888,购物服务;购物相关场所;购物相关场所,B0FFGTASRB
1285,LaBatite,湖北省,武汉市,汉阳区,La Batite,汉阳区二环线与龙阳湖北路交叉口西北100米,30.558762,114.207960,购物服务;购物相关场所;购物相关场所,B0FFFX7WV6
1286,LaBatite,湖北省,武汉市,东西湖区,LABatite,东西湖区永旺梦乐城A120,30.649443,114.237888,购物服务;购物相关场所;购物相关场所,B0FFGTASRB
1287,LaBatite,湖北省,武汉市,汉阳区,La Batite,汉阳区二环线与龙阳湖北路交叉口西北100米,30.558762,114.207960,购物服务;购物相关场所;购物相关场所,B0FFFX7WV6
1288,LaBatite,湖北省,武汉市,东西湖区,LABatite,东西湖区永旺梦乐城A120,30.649443,114.237888,购物服务;购物相关场所;购物相关场所,B0FFGTASRB
1289,LaBatite,湖北省,武汉市,汉阳区,La Batite,汉阳区二环线与龙阳湖北路交叉口西北100米,30.558762,114.207960,购物服务;购物相关场所;购物相关场所,B0FFFX7WV6
1290,LaBatite,湖北省,武汉市,东西湖区,LABatite,东西湖区永旺梦乐城A120,30.649443,114.237888,购物服务;购物相关场所;购物相关场所,B0FFGTASRB
1291,LaBatite,湖北省,武汉市,汉阳区,La Batite,汉阳区二环线与龙阳湖北路交叉口西北100米,30.558762,114.207960,购物服务;购物相关场所;购物相关场所,B0FFFX7WV6
1292,LaBatite,湖北省,武汉市,东西湖区,LABatite,东西湖区永旺梦乐城A120,30.649443,114.237888,购物服务;购物相关场所;购物相关场所,B0FFGTASRB
1293,LaBatite,湖北省,武汉市,汉阳区,La Batite,汉阳区二环线与龙阳湖北路交叉口西北100米,30.558762,114.207960,购物服务;购物相关场所;购物相关场所,B0FFFX7WV6
1294,LaBatite,湖北省,武汉市,东西湖区,LABatite,东西湖区永旺梦乐城A120,30.649443,114.237888,购物服务;购物相关场所;购物相关场所,B0FFGTASRB
1295,LaBatite,湖北省,武汉市,汉阳区,La Batite,汉阳区二环线与龙阳湖北路交叉口西北100米,30.558762,114.207960,购物服务;购物相关场所;购物相关场所,B0FFFX7WV6
1296,LaBatite,湖北省,武汉市,东西湖区,LABatite,东西湖区永旺梦乐城A120,30.649443,114.237888,购物服务;购物相关场所;购物相关场所,B0FFGTASRB
1297,LaBatite,湖北省,武汉市,汉阳区,La Batite,汉阳区二环线与龙阳湖北路交叉口西北100米,30.558762,114.207960,购物服务;购物相关场所;购物相关场所,B0FFFX7WV6
1298,LaBatite,湖北省,武汉市,东西湖区,LABatite,东西湖区永旺梦乐城A120,30.649443,114.237888,购物服务;购物相关场所;购物相关场所,B0FFGTASRB
1299,LaBatite,湖北省,武汉市,汉阳区,La Batite,汉阳区二环线与龙阳湖北路交叉口西北100米,30.558762,114.207960,购物服务;购物相关场所;购物相关场所,B0FFFX7WV6
1300,LaBatite,湖北省,武汉市,东西湖区,LABatite,东西湖区永旺梦乐城A120,30.649443,114.237888,购物服务;购物相关场所;购物相关场所,B0FFGTASRB
1301,LaBatite,湖北省,武汉市,汉阳区,La Batite,汉阳区二环线与龙阳湖北路交叉口西北100米,30.558762,114.207960,购物服务;购物相关场所;购物相关场所,B0FFFX7WV6
1302,LaBatite,湖北省,武汉市,东西湖区,LABatite,东西湖区永旺梦乐城A120,30.649443,114.237888,购物服务;购物相关场所;购物相关场所,B0FFGTASRB
1303,LaBatite,湖北省,武汉市,汉阳区,La Batite,汉阳区二环线与龙阳湖北路交叉口西北100米,30.558762,114.207960,购物服务;购物相关场所;购物相关场所,B0FFFX7WV6
1304,LaBatite,湖北省,武汉市,东西湖区,LABatite,东西湖区永旺梦乐城A120,30.649443,114.237888,购物服务;购物相关场所;购物相关场所,B0FFGTASRB
1305,LaBatite,湖北省,武汉市,汉阳区,La Batite,汉阳区二环线与龙阳湖北路交叉口西北100米,30.558762,114.207960,购物服务;购物相关场所;购物相关场所,B0FFFX7WV6
1306,LaBatite,湖北省,武汉市,东西湖区,LABatite,东西湖区永旺梦乐城A120,30.649443,114.237888,购物服务;购物相关场所;购物相关场所,B0FFGTASRB
1307,LaBatite,湖北省,武汉市,汉阳区,La Batite,汉阳区二环线与龙阳湖北路交叉口西北100米,30.558762,114.207960,购物服务;购物相关场所;购物相关场所,B0FFFX7WV6
1308,LaBatite,湖北省,武汉市,东西湖区,LABatite,东西湖区永旺梦乐城A120,30.649443,114.237888,购物服务;购物相关场所;购物相关场所,B0FFGTASRB
1309,LaBatite,湖北省,武汉市,汉阳区,La Batite,汉阳区二环线与龙阳湖北路交叉口西北100米,30.558762,114.207960,购物服务;购物相关场所;购物相关场所,B0FFFX7WV6
1310,LaBatite,湖北省,武汉市,东西湖区,LABatite,东西湖区永旺梦乐城A120,30.649443,114.237888,购物服务;购物相关场所;购物相关场所,B0FFGTASRB
1311,LaBatite,湖北省,武汉市,汉阳区,La Batite,汉阳区二环线与龙阳湖北路交叉口西北100米,30.558762,114.207960,购物服务;购物相关场所;购物相关场所,B0FFFX7WV6
1312,LaBatite,湖北省,武汉市,东西湖区,LABatite,东西湖区永旺梦乐城A120,30.649443,114.237888,购物服务;购物相关场所;购物相关场所,B0FFGTASRB
1313,LaBatite,湖北省,武汉市,汉阳区,La Batite,汉阳区二环线与龙阳湖北路交叉口西北100米,30.558762,114.207960,购物服务;购物相关场所;购物相关场所,B0FFFX7WV6
1314,LaBatite,湖北省,武汉市,东西湖区,LABatite,东西湖区永旺梦乐城A120,30.649443,114.237888,购物服务;购物相关场所;购物相关场所,B0FFGTASRB
1315,LaBatite,湖北省,武汉市,汉阳区,La Batite,汉阳区二环线与龙阳湖北路交叉口西北100米,30.558762,114.207960,购物服务;购物相关场所;购物相关场所,B0FFFX7WV6
1316,LaBatite,湖北省,武汉市,东西湖区,LABatite,东西湖区永旺梦乐城A120,30.649443,114.237888,购物服务;购物相关场所;购物相关场所,B0FFGTASRB
1317,LaBatite,湖北省,武汉市,汉阳区,La Batite,汉阳区二环线与龙阳湖北路交叉口西北100米,30.558762,114.207960,购物服务;购物相关场所;购物相关场所,B0FFFX7WV6
1318,LaBatite,湖北省,武汉市,东西湖区,LABatite,东西湖区永旺梦乐城A120,30.649443,114.237888,购物服务;购物相关场所;购物相关场所,B0FFGTASRB
1319,LaBatite,湖北省,武汉市,汉阳区,La Batite,汉阳区二环线与龙阳湖北路交叉口西北100米,30.558762,114.207960,购物服务;购物相关场所;购物相关场所,B0FFFX7WV6
1320,LaBatite,湖北省,武汉市,东西湖区,LABatite,东西湖区永旺梦乐城A120,30.649443,114.237888,购物服务;购物相关场所;购物相关场所,B0FFGTASRB
1321,LaBatite,湖北省,武汉市,汉阳区,La Batite,汉阳区二环线与龙阳湖北路交叉口西北100米,30.558762,114.207960,购物服务;购物相关场所;购物相关场所,B0FFFX7WV6
1322,LaBatite,湖北省,武汉市,东西湖区,LABatite,东西湖区永旺梦乐城A120,30.649443,114.237888,购物服务;购物相关场所;购物相关场所,B0FFGTASRB
1323,LaBatite,湖北省,武汉市,汉阳区,La Batite,汉阳区二环线与龙阳湖北路交叉口西北100米,30.558762,114.207960,购物服务;购物相关场所;购物相关场所,B0FFFX7WV6
1324,LaBatite,湖北省,武汉市,东西湖区,LABatite,东西湖区永旺梦乐城A120,30.649443,114.237888,购物服务;购物相关场所;购物相关场所,B0FFGTASRB
1325,LaBatite,湖北省,武汉市,汉阳区,La Batite,汉阳区二环线与龙阳湖北路交叉口西北100米,30.558762,114.207960,购物服务;购物相关场所;购物相关场所,B0FFFX7WV6
1326,LaBatite,湖北省,武汉市,东西湖区,LABatite,东西湖区永旺梦乐城A120,30.649443,114.237888,购物服务;购物相关场所;购物相关场所,B0FFGTASRB
1327,LaBatite,湖北省,武汉市,汉阳区,La Batite,汉阳区二环线与龙阳湖北路交叉口西北100米,30.558762,114.207960,购物服务;购物相关场所;购物相关场所,B0FFFX7WV6
1328,LaBatite,湖北省,武汉市,东西湖区,LABatite,东西湖区永旺梦乐城A120,30.649443,114.237888,购物服务;购物相关场所;购物相关场所,B0FFGTASRB
1329,LaBatite,湖北省,武汉市,汉阳区,La Batite,汉阳区二环线与龙阳湖北路交叉口西北100米,30.558762,114.207960,购物服务;购物相关场所;购物相关场所,B0FFFX7WV6
1330,LaBatite,湖北省,武汉市,东西湖区,LABatite,东西湖区永旺梦乐城A120,30.649443,114.237888,购物服务;购物相关场所;购物相关场所,B0FFGTASRB
1331,LaBatite,湖北省,武汉市,汉阳区,La Batite,汉阳区二环线与龙阳湖北路交叉口西北100米,30.558762,114.207960,购物服务;购物相关场所;购物相关场所,B0FFFX7WV6
1332,LaBatite,湖北省,武汉市,东西湖区,LABatite,东西湖区永旺梦乐城A120,30.649443,114.237888,购物服务;购物相关场所;购物相关场所,B0FFGTASRB
1333,LaBatite,湖北省,武汉市,汉阳区,La Batite,汉阳区二环线与龙阳湖北路交叉口西北100米,30.558762,114.207960,购物服务;购物相关场所;购物相关场所,B0FFFX7WV6
1334,LaBatite,湖北省,武汉市,东西湖区,LABatite,东西湖区永旺梦乐城A120,30.649443,114.237888,购物服务;购物相关场所;购物相关场所,B0FFGTASRB
1335,LaBatite,湖北省,武汉市,汉阳区,La Batite,汉阳区二环线与龙阳湖北路交叉口西北100米,30.558762,114.207960,购物服务;购物相关场所;购物相关场所,B0FFFX7WV6
1336,LaBatite,湖北省,武汉市,东西湖区,LABatite,东西湖区永旺梦乐城A120,30.649443,114.237888,购物服务;购物相关场所;购物相关场所,B0FFGTASRB
1337,LaBatite,湖北省,武汉市,汉阳区,La Batite,汉阳区二环线与龙阳湖北路交叉口西北100米,30.558762,114.207960,购物服务;购物相关场所;购物相关场所,B0FFFX7WV6
1338,LaBatite,湖北省,武汉市,东西湖区,LABatite,东西湖区永旺梦乐城A120,30.649443,114.237888,购物服务;购物相关场所;购物相关场所,B0FFGTASRB
1339,LaBatite,湖北省,武汉市,汉阳区,La Batite,汉阳区二环线与龙阳湖北路交叉口西北100米,30.558762,114.207960,购物服务;购物相关场所;购物相关场所,B0FFFX7WV6
1340,LaBatite,湖北省,武汉市,东西湖区,LABatite,东西湖区永旺梦乐城A120,30.649443,114.237888,购物服务;购物相关场所;购物相关场所,B0FFGTASRB
1341,LaBatite,湖北省,武汉市,汉阳区,La Batite,汉阳区二环线与龙阳湖北路交叉口西北100米,30.558762,114.207960,购物服务;购物相关场所;购物相关场所,B0FFFX7WV6
1342,LaBatite,湖北省,武汉市,东西湖区,LABatite,东西湖区永旺梦乐城A120,30.649443,114.237888,购物服务;购物相关场所;购物相关场所,B0FFGTASRB
1343,LaBatite,湖北省,武汉市,汉阳区,La Batite,汉阳区二环线与龙阳湖北路交叉口西北100米,30.558762,114.207960,购物服务;购物相关场所;购物相关场所,B0FFFX7WV6
1344,LaBatite,湖北省,武汉市,东西湖区,LABatite,东西湖区永旺梦乐城A120,30.649443,114.237888,购物服务;购物相关场所;购物相关场所,B0FFGTASRB
1345,LaBatite,湖北省,武汉市,汉阳区,La Batite,汉阳区二环线与龙阳湖北路交叉口西北100米,30.558762,114.207960,购物服务;购物相关场所;购物相关场所,B0FFFX7WV6
1346,LaBatite,湖北省,武汉市,东西湖区,LABatite,东西湖区永旺梦乐城A120,30.649443,114.237888,购物服务;购物相关场所;购物相关场所,B0FFGTASRB
1347,LaBatite,湖北省,武汉市,汉阳区,La Batite,汉阳区二环线与龙阳湖北路交叉口西北100米,30.558762,114.207960,购物服务;购物相关场所;购物相关场所,B0FFFX7WV6
1348,LaBatite,湖北省,武汉市,东西湖区,LABatite,东西湖区永旺梦乐城A120,30.649443,114.237888,购物服务;购物相关场所;购物相关场所,B0FFGTASRB
1349,LaBatite,湖北省,武汉市,汉阳区,La Batite,汉阳区二环线与龙阳湖北路交叉口西北100米,30.558762,114.207960,购物服务;购物相关场所;购物相关场所,B0FFFX7WV6
1350,LaBatite,湖北省,武汉市,东西湖区,LABatite,东西湖区永旺梦乐城A120,30.649443,114.237888,购物服务;购物相关场所;购物相关场所,B0FFGTASRB
1351,LaBatite,湖北省,武汉市,汉阳区,La Batite,汉阳区二环线与龙阳湖北路交叉口西北100米,30.558762,114.207960,购物服务;购物相关场所;购物相关场所,B0FFFX7WV6
1352,LaBatite,湖北省,武汉市,东西湖区,LABatite,东西湖区永旺梦乐城A120,30.649443,114.237888,购物服务;购物相关场所;购物相关场所,B0FFGTASRB
1353,LaBatite,湖北省,武汉市,汉阳区,La Batite,汉阳区二环线与龙阳湖北路交叉口西北100米,30.558762,114.207960,购物服务;购物相关场所;购物相关场所,B0FFFX7WV6
1354,LaBatite,湖北省,武汉市,东西湖区,LABatite,东西湖区永旺梦乐城A120,30.649443,114.237888,购物服务;购物相关场所;购物相关场所,B0FFGTASRB
1355,LaBatite,湖北省,武汉市,汉阳区,La Batite,汉阳区二环线与龙阳湖北路交叉口西北100米,30.558762,114.207960,购物服务;购物相关场所;购物相关场所,B0FFFX7WV6
1356,LaBatite,湖北省,武汉市,东西湖区,LABatite,东西湖区永旺梦乐城A120,30.649443,114.237888,购物服务;购物相关场所;购物相关场所,B0FFGTASRB
1357,LaBatite,湖北省,武汉市,汉阳区,La Batite,汉阳区二环线与龙阳湖北路交叉口西北100米,30.558762,114.207960,购物服务;购物相关场所;购物相关场所,B0FFFX7WV6
1358,LaBatite,湖北省,武汉市,东西湖区,LABatite,东西湖区永旺梦乐城A120,30.649443,114.237888,购物服务;购物相关场所;购物相关场所,B0FFGTASRB
1359,LaBatite,湖北省,武汉市,汉阳区,La Batite,汉阳区二环线与龙阳湖北路交叉口西北100米,30.558762,114.207960,购物服务;购物相关场所;购物相关场所,B0FFFX7WV6
1360,LaBatite,湖北省,武汉市,东西湖区,LABatite,东西湖区永旺梦乐城A120,30.649443,114.237888,购物服务;购物相关场所;购物相关场所,B0FFGTASRB
1361,LaBatite,湖北省,武汉市,汉阳区,La Batite,汉阳区二环线与龙阳湖北路交叉口西北100米,30.558762,114.207960,购物服务;购物相关场所;购物相关场所,B0FFFX7WV6
1362,LaBatite,湖北省,武汉市,东西湖区,LABatite,东西湖区永旺梦乐城A120,30.649443,114.237888,购物服务;购物相关场所;购物相关场所,B0FFGTASRB
1363,LaBatite,湖北省,武汉市,汉阳区,La Batite,汉阳区二环线与龙阳湖北路交叉口西北100米,30.558762,114.207960,购物服务;购物相关场所;购物相关场所,B0FFFX7WV6
1364,LaBatite,湖北省,武汉市,东西湖区,LABatite,东西湖区永旺梦乐城A120,30.649443,114.237888,购物服务;购物相关场所;购物相关场所,B0FFGTASRB
1365,LaBatite,湖北省,武汉市,汉阳区,La Batite,汉阳区二环线与龙阳湖北路交叉口西北100米,30.558762,114.207960,购物服务;购物相关场所;购物相关场所,B0FFFX7WV6
1366,LaBatite,湖北省,武汉市,东西湖区,LABatite,东西湖区永旺梦乐城A120,30.649443,114.237888,购物服务;购物相关场所;购物相关场所,B0FFGTASRB
1367,LaBatite,湖北省,武汉市,汉阳区,La Batite,汉阳区二环线与龙阳湖北路交叉口西北100米,30.558762,114.207960,购物服务;购物相关场所;购物相关场所,B0FFFX7WV6
1368,LaBatite,湖北省,武汉市,东西湖区,LABatite,东西湖区永旺梦乐城A120,30.649443,114.237888,购物服务;购物相关场所;购物相关场所,B0FFGTASRB
1369,LaBatite,湖北省,武汉市,汉阳区,La Batite,汉阳区二环线与龙阳湖北路交叉口西北100米,30.558762,114.207960,购物服务;购物相关场所;购物相关场所,B0FFFX7WV6
1370,LaBatite,湖北省,武汉市,东西湖区,LABatite,东西湖区永旺梦乐城A120,30.649443,114.237888,购物服务;购物相关场所;购物相关场所,B0FFGTASRB
1371,LaBatite,湖北省,武汉市,汉阳区,La Batite,汉阳区二环线与龙阳湖北路交叉口西北100米,30.558762,114.207960,购物服务;购物相关场所;购物相关场所,B0FFFX7WV6
1372,LaBatite,湖北省,武汉市,东西湖区,LABatite,东西湖区永旺梦乐城A120,30.649443,114.237888,购物服务;购物相关场所;购物相关场所,B0FFGTASRB
1373,LaBatite,湖北省,武汉市,汉阳区,La Batite,汉阳区二环线与龙阳湖北路交叉口西北100米,30.558762,114.207960,购物服务;购物相关场所;购物相关场所,B0FFFX7WV6
1374,LaBatite,湖北省,武汉市,东西湖区,LABatite,东西湖区永旺梦乐城A120,30.649443,114.237888,购物服务;购物相关场所;购物相关场所,B0FFGTASRB
1375,LaBatite,湖北省,武汉市,汉阳区,La Batite,汉阳区二环线与龙阳湖北路交叉口西北100米,30.558762,114.207960,购物服务;购物相关场所;购物相关场所,B0FFFX7WV6
1376,LaBatite,湖北省,武汉市,东西湖区,LABatite,东西湖区永旺梦乐城A120,30.649443,114.237888,购物服务;购物相关场所;购物相关场所,B0FFGTASRB
1377,LaBatite,湖北省,武汉市,汉阳区,La Batite,汉阳区二环线与龙阳湖北路交叉口西北100米,30.558762,114.207960,购物服务;购物相关场所;购物相关场所,B0FFFX7WV6
1378,LaBatite,湖北省,武汉市,东西湖区,LABatite,东西湖区永旺梦乐城A120,30.649443,114.237888,购物服务;购物相关场所;购物相关场所,B0FFGTASRB
1379,LaBatite,湖北省,武汉市,汉阳区,La Batite,汉阳区二环线与龙阳湖北路交叉口西北100米,30.558762,114.207960,购物服务;购物相关场所;购物相关场所,B0FFFX7WV6
1380,LaBatite,湖北省,武汉市,东西湖区,LABatite,东西湖区永旺梦乐城A120,30.649443,114.237888,购物服务;购物相关场所;购物相关场所,B0FFGTASRB
1381,LaBatite,湖北省,武汉市,汉阳区,La Batite,汉阳区二环线与龙阳湖北路交叉口西北100米,30.558762,114.207960,购物服务;购物相关场所;购物相关场所,B0FFFX7WV6
1382,LaBatite,湖北省,武汉市,东西湖区,LABatite,东西湖区永旺梦乐城A120,30.649443,114.237888,购物服务;购物相关场所;购物相关场所,B0FFGTASRB
1383,LaBatite,湖北省,武汉市,汉阳区,La Batite,汉阳区二环线与龙阳湖北路交叉口西北100米,30.558762,114.207960,购物服务;购物相关场所;购物相关场所,B0FFFX7WV6
1384,LaBatite,湖北省,武汉市,东西湖区,LABatite,东西湖区永旺梦乐城A120,30.649443,114.237888,购物服务;购物相关场所;购物相关场所,B0FFGTASRB
1385,LaBatite,湖北省,武汉市,汉阳区,La Batite,汉阳区二环线与龙阳湖北路交叉口西北100米,30.558762,114.207960,购物服务;购物相关场所;购物相关场所,B0FFFX7WV6
1386,LaBatite,湖北省,武汉市,东西湖区,LABatite,东西湖区永旺梦乐城A120,30.649443,114.237888,购物服务;购物相关场所;购物相关场所,B0FFGTASRB
1387,LaBatite,湖北省,武汉市,汉阳区,La Batite,汉阳区二环线与龙阳湖北路交叉口西北100米,30.558762,114.207960,购物服务;购物相关场所;购物相关场所,B0FFFX7WV6
1388,LaBatite,湖北省,武汉市,东西湖区,LABatite,东西湖区永旺梦乐城A120,30.649443,114.237888,购物服务;购物相关场所;购物相关场所,B0FFGTASRB
1389,LaBatite,湖北省,武汉市,汉阳区,La Batite,汉阳区二环线与龙阳湖北路交叉口西北100米,30.558762,114.207960,购物服务;购物相关场所;购物相关场所,B0FFFX7WV6
1390,LaBatite,湖北省,武汉市,东西湖区,LABatite,东西湖区永旺梦乐城A120,30.649443,114.237888,购物服务;购物相关场所;购物相关场所,B0FFGTASRB
1391,LaBatite,湖北省,武汉市,汉阳区,La Batite,汉阳区二环线与龙阳湖北路交叉口西北100米,30.558762,114.207960,购物服务;购物相关场所;购物相关场所,B0FFFX7WV6
1392,LaBatite,湖北省,武汉市,东西湖区,LABatite,东西湖区永旺梦乐城A120,30.649443,114.237888,购物服务;购物相关场所;购物相关场所,B0FFGTASRB
1393,LaBatite,湖北省,武汉市,汉阳区,La Batite,汉阳区二环线与龙阳湖北路交叉口西北100米,30.558762,114.207960,购物服务;购物相关场所;购物相关场所,B0FFFX7WV6
1394,LaBatite,湖北省,武汉市,东西湖区,LABatite,东西湖区永旺梦乐城A120,30.649443,114.237888,购物服务;购物相关场所;购物相关场所,B0FFGTASRB
1395,LaBatite,湖北省,武汉市,汉阳区,La Batite,汉阳区二环线与龙阳湖北路交叉口西北100米,30.558762,114.207960,购物服务;购物相关场所;购物相关场所,B0FFFX7WV6
1396,LaBatite,湖北省,武汉市,东西湖区,LABatite,东西湖区永旺梦乐城A120,30.649443,114.237888,购物服务;购物相关场所;购物相关场所,B0FFGTASRB
1397,LaBatite,湖北省,武汉市,汉阳区,La Batite,汉阳区二环线与龙阳湖北路交叉口西北100米,30.558762,114.207960,购物服务;购物相关场所;购物相关场所,B0FFFX7WV6
1398,LaBatite,湖北省,武汉市,东西湖区,LABatite,东西湖区永旺梦乐城A120,30.649443,114.237888,购物服务;购物相关场所;购物相关场所,B0FFGTASRB
1399,LaBatite,湖北省,武汉市,汉阳区,La Batite,汉阳区二环线与龙阳湖北路交叉口西北100米,30.558762,114.207960,购物服务;购物相关场所;购物相关场所,B0FFFX7WV6
1400,LaBatite,湖北省,武汉市,东西湖区,LABatite,东西湖区永旺梦乐城A120,30.649443,114.237888,购物服务;购物相关场所;购物相关场所,B0FFGTASRB
1401,LaBatite,湖北省,武汉市,汉阳区,La Batite,汉阳区二环线与龙阳湖北路交叉口西北100米,30.558762,114.207960,购物服务;购物相关场所;购物相关场所,B0FFFX7WV6
1402,LaBatite,湖北省,武汉市,东西湖区,LABatite,东西湖区永旺梦乐城A120,30.649443,114.237888,购物服务;购物相关场所;购物相关场所,B0FFGTASRB
1403,LaBatite,湖北省,武汉市,汉阳区,La Batite,汉阳区二环线与龙阳湖北路交叉口西北100米,30.558762,114.207960,购物服务;购物相关场所;购物相关场所,B0FFFX7WV6
1404,LaBatite,湖北省,武汉市,东西湖区,LABatite,东西湖区永旺梦乐城A120,30.649443,114.237888,购物服务;购物相关场所;购物相关场所,B0FFGTASRB
1405,LaBatite,湖北省,武汉市,汉阳区,La Batite,汉阳区二环线与龙阳湖北路交叉口西北100米,30.558762,114.207960,购物服务;购物相关场所;购物相关场所,B0FFFX7WV6
1406,LaBatite,湖北省,武汉市,东西湖区,LABatite,东西湖区永旺梦乐城A120,30.649443,114.237888,购物服务;购物相关场所;购物相关场所,B0FFGTASRB
1407,LaBatite,湖北省,武汉市,汉阳区,La Batite,汉阳区二环线与龙阳湖北路交叉口西北100米,30.558762,114.207960,购物服务;购物相关场所;购物相关场所,B0FFFX7WV6
1408,LaBatite,湖北省,武汉市,东西湖区,LABatite,东西湖区永旺梦乐城A120,30.649443,114.237888,购物服务;购物相关场所;购物相关场所,B0FFGTASRB
1409,LaBatite,湖北省,武汉市,汉阳区,La Batite,汉阳区二环线与龙阳湖北路交叉口西北100米,30.558762,114.207960,购物服务;购物相关场所;购物相关场所,B0FFFX7WV6
1410,LaBatite,湖北省,武汉市,东西湖区,LABatite,东西湖区永旺梦乐城A120,30.649443,114.237888,购物服务;购物相关场所;购物相关场所,B0FFGTASRB
1411,LaBatite,湖北省,武汉市,汉阳区,La Batite,汉阳区二环线与龙阳湖北路交叉口西北100米,30.558762,114.207960,购物服务;购物相关场所;购物相关场所,B0FFFX7WV6
1412,LaBatite,湖北省,武汉市,东西湖区,LABatite,东西湖区永旺梦乐城A120,30.649443,114.237888,购物服务;购物相关场所;购物相关场所,B0FFGTASRB
1413,LaBatite,湖北省,武汉市,汉阳区,La Batite,汉阳区二环线与龙阳湖北路交叉口西北100米,30.558762,114.207960,购物服务;购物相关场所;购物相关场所,B0FFFX7WV6
1414,LaBatite,湖北省,武汉市,东西湖区,LABatite,东西湖区永旺梦乐城A120,30.649443,114.237888,购物服务;购物相关场所;购物相关场所,B0FFGTASRB
1415,LaBatite,湖北省,武汉市,汉阳区,La Batite,汉阳区二环线与龙阳湖北路交叉口西北100米,30.558762,114.207960,购物服务;购物相关场所;购物相关场所,B0FFFX7WV6
1416,LaBatite,湖北省,武汉市,东西湖区,LABatite,东西湖区永旺梦乐城A120,30.649443,114.237888,购物服务;购物相关场所;购物相关场所,B0FFGTASRB
1417,LaBatite,湖北省,武汉市,汉阳区,La Batite,汉阳区二环线与龙阳湖北路交叉口西北100米,30.558762,114.207960,购物服务;购物相关场所;购物相关场所,B0FFFX7WV6
1418,LaBatite,湖北省,武汉市,东西湖区,LABatite,东西湖区永旺梦乐城A120,30.649443,114.237888,购物服务;购物相关场所;购物相关场所,B0FFGTASRB
1419,LaBatite,湖北省,武汉市,汉阳区,La Batite,汉阳区二环线与龙阳湖北路交叉口西北100米,30.558762,114.207960,购物服务;购物相关场所;购物相关场所,B0FFFX7WV6
1420,LaBatite,湖北省,武汉市,东西湖区,LABatite,东西湖区永旺梦乐城A120,30.649443,114.237888,购物服务;购物相关场所;购物相关场所,B0FFGTASRB
1421,LaBatite,湖北省,武汉市,汉阳区,La Batite,汉阳区二环线与龙阳湖北路交叉口西北100米,30.558762,114.207960,购物服务;购物相关场所;购物相关场所,B0FFFX7WV6
1422,LaBatite,湖北省,武汉市,东西湖区,LABatite,东西湖区永旺梦乐城A120,30.649443,114.237888,购物服务;购物相关场所;购物相关场所,B0FFGTASRB
1423,LaBatite,湖北省,武汉市,汉阳区,La Batite,汉阳区二环线与龙阳湖北路交叉口西北100米,30.558762,114.207960,购物服务;购物相关场所;购物相关场所,B0FFFX7WV6
1424,LaBatite,湖北省,武汉市,东西湖区,LABatite,东西湖区永旺梦乐城A120,30.649443,114.237888,购物服务;购物相关场所;购物相关场所,B0FFGTASRB
1425,LaBatite,湖北省,武汉市,汉阳区,La Batite,汉阳区二环线与龙阳湖北路交叉口西北100米,30.558762,114.207960,购物服务;购物相关场所;购物相关场所,B0FFFX7WV6
1426,LaBatite,湖北省,武汉市,东西湖区,LABatite,东西湖区永旺梦乐城A120,30.649443,114.237888,购物服务;购物相关场所;购物相关场所,B0FFGTASRB
1427,LaBatite,湖北省,武汉市,汉阳区,La Batite,汉阳区二环线与龙阳湖北路交叉口西北100米,30.558762,114.207960,购物服务;购物相关场所;购物相关场所,B0FFFX7WV6
1428,LaBatite,湖北省,武汉市,东西湖区,LABatite,东西湖区永旺梦乐城A120,30.649443,114.237888,购物服务;购物相关场所;购物相关场所,B0FFGTASRB
1429,LaBatite,湖北省,武汉市,汉阳区,La Batite,汉阳区二环线与龙阳湖北路交叉口西北100米,30.558762,114.207960,购物服务;购物相关场所;购物相关场所,B0FFFX7WV6
1430,LaBatite,湖北省,武汉市,东西湖区,LABatite,东西湖区永旺梦乐城A120,30.649443,114.237888,购物服务;购物相关场所;购物相关场所,B0FFGTASRB
1431,LaBatite,湖北省,武汉市,汉阳区,La Batite,汉阳区二环线与龙阳湖北路交叉口西北100米,30.558762,114.207960,购物服务;购物相关场所;购物相关场所,B0FFFX7WV6
1432,LaBatite,湖北省,武汉市,东西湖区,LABatite,东西湖区永旺梦乐城A120,30.649443,114.237888,购物服务;购物相关场所;购物相关场所,B0FFGTASRB
1433,LaBatite,湖北省,武汉市,汉阳区,La Batite,汉阳区二环线与龙阳湖北路交叉口西北100米,30.558762,114.207960,购物服务;购物相关场所;购物相关场所,B0FFFX7WV6
1434,LaBatite,湖北省,武汉市,东西湖区,LABatite,东西湖区永旺梦乐城A120,30.649443,114.237888,购物服务;购物相关场所;购物相关场所,B0FFGTASRB
1435,LaBatite,湖北省,武汉市,汉阳区,La Batite,汉阳区二环线与龙阳湖北路交叉口西北100米,30.558762,114.207960,购物服务;购物相关场所;购物相关场所,B0FFFX7WV6
1436,LaBatite,湖北省,武汉市,东西湖区,LABatite,东西湖区永旺梦乐城A120,30.649443,114.237888,购物服务;购物相关场所;购物相关场所,B0FFGTASRB
1437,LaBatite,湖北省,武汉市,汉阳区,La Batite,汉阳区二环线与龙阳湖北路交叉口西北100米,30.558762,114.207960,购物服务;购物相关场所;购物相关场所,B0FFFX7WV6
1438,LaBatite,湖北省,武汉市,东西湖区,LABatite,东西湖区永旺梦乐城A120,30.649443,114.237888,购物服务;购物相关场所;购物相关场所,B0FFGTASRB
1439,LaBatite,湖北省,武汉市,汉阳区,La Batite,汉阳区二环线与龙阳湖北路交叉口西北100米,30.558762,114.207960,购物服务;购物相关场所;购物相关场所,B0FFFX7WV6
1440,LaBatite,湖北省,武汉市,东西湖区,LABatite,东西湖区永旺梦乐城A120,30.649443,114.237888,购物服务;购物相关场所;购物相关场所,B0FFGTASRB
1441,LaBatite,湖北省,武汉市,汉阳区,La Batite,汉阳区二环线与龙阳湖北路交叉口西北100米,30.558762,114.207960,购物服务;购物相关场所;购物相关场所,B0FFFX7WV6
1442,LaBatite,湖北省,武汉市,东西湖区,LABatite,东西湖区永旺梦乐城A120,30.649443,114.237888,购物服务;购物相关场所;购物相关场所,B0FFGTASRB
1443,LaBatite,湖北省,武汉市,汉阳区,La Batite,汉阳区二环线与龙阳湖北路交叉口西北100米,30.558762,114.207960,购物服务;购物相关场所;购物相关场所,B0FFFX7WV6
1444,LaBatite,湖北省,武汉市,东西湖区,LABatite,东西湖区永旺梦乐城A120,30.649443,114.237888,购物服务;购物相关场所;购物相关场所,B0FFGTASRB
1445,LaBatite,湖北省,武汉市,汉阳区,La Batite,汉阳区二环线与龙阳湖北路交叉口西北100米,30.558762,114.207960,购物服务;购物相关场所;购物相关场所,B0FFFX7WV6
1446,LaBatite,湖北省,武汉市,东西湖区,LABatite,东西湖区永旺梦乐城A120,30.649443,114.237888,购物服务;购物相关场所;购物相关场所,B0FFGTASRB
1447,LaBatite,湖北省,武汉市,汉阳区,La Batite,汉阳区二环线与龙阳湖北路交叉口西北100米,30.558762,114.207960,购物服务;购物相关场所;购物相关场所,B0FFFX7WV6
1448,LaBatite,湖北省,武汉市,东西湖区,LABatite,东西湖区永旺梦乐城A120,30.649443,114.237888,购物服务;购物相关场所;购物相关场所,B0FFGTASRB
1449,LaBatite,湖北省,武汉市,汉阳区,La Batite,汉阳区二环线与龙阳湖北路交叉口西北100米,30.558762,114.207960,购物服务;购物相关场所;购物相关场所,B0FFFX7WV6
1450,LaBatite,湖北省,武汉市,东西湖区,LABatite,东西湖区永旺梦乐城A120,30.649443,114.237888,购物服务;购物相关场所;购物相关场所,B0FFGTASRB
1451,LaBatite,湖北省,武汉市,汉阳区,La Batite,汉阳区二环线与龙阳湖北路交叉口西北100米,30.558762,114.207960,购物服务;购物相关场所;购物相关场所,B0FFFX7WV6
1452,LaBatite,湖北省,武汉市,东西湖区,LABatite,东西湖区永旺梦乐城A120,30.649443,114.237888,购物服务;购物相关场所;购物相关场所,B0FFGTASRB
1453,LaBatite,湖北省,武汉市,汉阳区,La Batite,汉阳区二环线与龙阳湖北路交叉口西北100米,30.558762,114.207960,购物服务;购物相关场所;购物相关场所,B0FFFX7WV6
1454,LaBatite,湖北省,武汉市,东西湖区,LABatite,东西湖区永旺梦乐城A120,30.649443,114.237888,购物服务;购物相关场所;购物相关场所,B0FFGTASRB
1455,LaBatite,湖北省,武汉市,汉阳区,La Batite,汉阳区二环线与龙阳湖北路交叉口西北100米,30.558762,114.207960,购物服务;购物相关场所;购物相关场所,B0FFFX7WV6
1456,LaBatite,湖北省,武汉市,东西湖区,LABatite,东西湖区永旺梦乐城A120,30.649443,114.237888,购物服务;购物相关场所;购物相关场所,B0FFGTASRB
1457,LaBatite,湖北省,武汉市,汉阳区,La Batite,汉阳区二环线与龙阳湖北路交叉口西北100米,30.558762,114.207960,购物服务;购物相关场所;购物相关场所,B0FFFX7WV6
1458,LaBatite,湖北省,武汉市,东西湖区,LABatite,东西湖区永旺梦乐城A120,30.649443,114.237888,购物服务;购物相关场所;购物相关场所,B0FFGTASRB
1459,LaBatite,湖北省,武汉市,汉阳区,La Batite,汉阳区二环线与龙阳湖北路交叉口西北100米,30.558762,114.207960,购物服务;购物相关场所;购物相关场所,B0FFFX7WV6
1460,LaBatite,湖北省,武汉市,东西湖区,LABatite,东西湖区永旺梦乐城A120,30.649443,114.237888,购物服务;购物相关场所;购物相关场所,B0FFGTASRB
1461,LaBatite,湖北省,武汉市,汉阳区,La Batite,汉阳区二环线与龙阳湖北路交叉口西北100米,30.558762,114.207960,购物服务;购物相关场所;购物相关场所,B0FFFX7WV6
1462,LaBatite,湖北省,武汉市,东西湖区,LABatite,东西湖区永旺梦乐城A120,30.649443,114.237888,购物服务;购物相关场所;购物相关场所,B0FFGTASRB
1463,LaBatite,湖北省,武汉市,汉阳区,La Batite,汉阳区二环线与龙阳湖北路交叉口西北100米,30.558762,114.207960,购物服务;购物相关场所;购物相关场所,B0FFFX7WV6
1464,LaBatite,湖北省,武汉市,东西湖区,LABatite,东西湖区永旺梦乐城A120,30.649443,114.237888,购物服务;购物相关场所;购物相关场所,B0FFGTASRB
1465,LaBatite,湖北省,武汉市,汉阳区,La Batite,汉阳区二环线与龙阳湖北路交叉口西北100米,30.558762,114.207960,购物服务;购物相关场所;购物相关场所,B0FFFX7WV6
1466,LaBatite,湖北省,武汉市,东西湖区,LABatite,东西湖区永旺梦乐城A120,30.649443,114.237888,购物服务;购物相关场所;购物相关场所,B0FFGTASRB
1467,LaBatite,湖北省,武汉市,汉阳区,La Batite,汉阳区二环线与龙阳湖北路交叉口西北100米,30.558762,114.207960,购物服务;购物相关场所;购物相关场所,B0FFFX7WV6
1468,LaBatite,湖北省,武汉市,东西湖区,LABatite,东西湖区永旺梦乐城A120,30.649443,114.237888,购物服务;购物相关场所;购物相关场所,B0FFGTASRB
1469,LaBatite,湖北省,武汉市,汉阳区,La Batite,汉阳区二环线与龙阳湖北路交叉口西北100米,30.558762,114.207960,购物服务;购物相关场所;购物相关场所,B0FFFX7WV6
1470,LaBatite,湖北省,武汉市,东西湖区,LABatite,东西湖区永旺梦乐城A120,30.649443,114.237888,购物服务;购物相关场所;购物相关场所,B0FFGTASRB
1471,LaBatite,湖北省,武汉市,汉阳区,La Batite,汉阳区二环线与龙阳湖北路交叉口西北100米,30.558762,114.207960,购物服务;购物相关场所;购物相关场所,B0FFFX7WV6
1472,LaBatite,湖北省,武汉市,东西湖区,LABatite,东西湖区永旺梦乐城A120,30.649443,114.237888,购物服务;购物相关场所;购物相关场所,B0FFGTASRB
1473,LaBatite,湖北省,武汉市,汉阳区,La Batite,汉阳区二环线与龙阳湖北路交叉口西北100米,30.558762,114.207960,购物服务;购物相关场所;购物相关场所,B0FFFX7WV6
1474,LaBatite,湖北省,武汉市,东西湖区,LABatite,东西湖区永旺梦乐城A120,30.649443,114.237888,购物服务;购物相关场所;购物相关场所,B0FFGTASRB
1475,LaBatite,湖北省,武汉市,汉阳区,La Batite,汉阳区二环线与龙阳湖北路交叉口西北100米,30.558762,114.207960,购物服务;购物相关场所;购物相关场所,B0FFFX7WV6
1476,LaBatite,湖北省,武汉市,东西湖区,LABatite,东西湖区永旺梦乐城A120,30.649443,114.237888,购物服务;购物相关场所;购物相关场所,B0FFGTASRB
1477,LaBatite,湖北省,武汉市,汉阳区,La Batite,汉阳区二环线与龙阳湖北路交叉口西北100米,30.558762,114.207960,购物服务;购物相关场所;购物相关场所,B0FFFX7WV6
1478,LaBatite,湖北省,武汉市,东西湖区,LABatite,东西湖区永旺梦乐城A120,30.649443,114.237888,购物服务;购物相关场所;购物相关场所,B0FFGTASRB
1479,LaBatite,湖北省,武汉市,汉阳区,La Batite,汉阳区二环线与龙阳湖北路交叉口西北100米,30.558762,114.207960,购物服务;购物相关场所;购物相关场所,B0FFFX7WV6
1480,LaBatite,湖北省,武汉市,东西湖区,LABatite,东西湖区永旺梦乐城A120,30.649443,114.237888,购物服务;购物相关场所;购物相关场所,B0FFGTASRB
1481,LaBatite,湖北省,武汉市,汉阳区,La Batite,汉阳区二环线与龙阳湖北路交叉口西北100米,30.558762,114.207960,购物服务;购物相关场所;购物相关场所,B0FFFX7WV6
1482,LaBatite,湖北省,武汉市,东西湖区,LABatite,东西湖区永旺梦乐城A120,30.649443,114.237888,购物服务;购物相关场所;购物相关场所,B0FFGTASRB
1483,LaBatite,湖北省,武汉市,汉阳区,La Batite,汉阳区二环线与龙阳湖北路交叉口西北100米,30.558762,114.207960,购物服务;购物相关场所;购物相关场所,B0FFFX7WV6
1484,LaBatite,湖北省,武汉市,东西湖区,LABatite,东西湖区永旺梦乐城A120,30.649443,114.237888,购物服务;购物相关场所;购物相关场所,B0FFGTASRB
1485,LaBatite,湖北省,武汉市,汉阳区,La Batite,汉阳区二环线与龙阳湖北路交叉口西北100米,30.558762,114.207960,购物服务;购物相关场所;购物相关场所,B0FFFX7WV6
1486,LaBatite,湖北省,武汉市,东西湖区,LABatite,东西湖区永旺梦乐城A120,30.649443,114.237888,购物服务;购物相关场所;购物相关场所,B0FFGTASRB
1487,LaBatite,湖北省,武汉市,汉阳区,La Batite,汉阳区二环线与龙阳湖北路交叉口西北100米,30.558762,114.207960,购物服务;购物相关场所;购物相关场所,B0FFFX7WV6
1488,LaBatite,湖北省,武汉市,东西湖区,LABatite,东西湖区永旺梦乐城A120,30.649443,114.237888,购物服务;购物相关场所;购物相关场所,B0FFGTASRB
1489,LaBatite,湖北省,武汉市,汉阳区,La Batite,汉阳区二环线与龙阳湖北路交叉口西北100米,30.558762,114.207960,购物服务;购物相关场所;购物相关场所,B0FFFX7WV6
1490,LaBatite,湖北省,武汉市,东西湖区,LABatite,东西湖区永旺梦乐城A120,30.649443,114.237888,购物服务;购物相关场所;购物相关场所,B0FFGTASRB
1491,LaBatite,湖北省,武汉市,汉阳区,La Batite,汉阳区二环线与龙阳湖北路交叉口西北100米,30.558762,114.207960,购物服务;购物相关场所;购物相关场所,B0FFFX7WV6
1492,LaBatite,湖北省,武汉市,东西湖区,LABatite,东西湖区永旺梦乐城A120,30.649443,114.237888,购物服务;购物相关场所;购物相关场所,B0FFGTASRB
1493,LaBatite,湖北省,武汉市,汉阳区,La Batite,汉阳区二环线与龙阳湖北路交叉口西北100米,30.558762,114.207960,购物服务;购物相关场所;购物相关场所,B0FFFX7WV6
1494,LaBatite,湖北省,武汉市,东西湖区,LABatite,东西湖区永旺梦乐城A120,30.649443,114.237888,购物服务;购物相关场所;购物相关场所,B0FFGTASRB
1495,LaBatite,湖北省,武汉市,汉阳区,La Batite,汉阳区二环线与龙阳湖北路交叉口西北100米,30.558762,114.207960,购物服务;购物相关场所;购物相关场所,B0FFFX7WV6
1496,LaBatite,湖北省,武汉市,东西湖区,LABatite,东西湖区永旺梦乐城A120,30.649443,114.237888,购物服务;购物相关场所;购物相关场所,B0FFGTASRB
1497,LaBatite,湖北省,武汉市,汉阳区,La Batite,汉阳区二环线与龙阳湖北路交叉口西北100米,30.558762,114.207960,购物服务;购物相关场所;购物相关场所,B0FFFX7WV6
