,brand,province,city,area,name,address,lat,lng,Type,id
390,MissLi,内蒙古自治区,通辽市,科尔沁区,MISSLI,科尔沁区清真街道平安路北段万达广场二楼,43.630451,122.280871,购物服务;服装鞋帽皮具店;品牌服装店,B0FFH93HRD
112,MissLi,北京市,北京市,丰台区,Miss Li,丰台区成寿寺路鑫源国际一号楼708室A,39.857996,116.44427,购物服务;专卖店;专营店,B0FFGF6THL
366,MissLi,吉林省,四平市,公主岭市,Miss Li名品,公主岭市河南街道擦鞋一条街南侧,43.504093,124.814857,购物服务;服装鞋帽皮具店;服装鞋帽皮具店,B0FFGVZCFM
290,MissLi,吉林省,松原市,前郭尔罗斯蒙古族自治县,MISSLI,前郭尔罗斯蒙古族自治县乌兰大街576号附近,45.115765,124.824036,购物服务;购物相关场所;购物相关场所,B0FFHS6M7M
291,MissLi,吉林省,松原市,宁江区,MISSLI专柜,宁江区伯都讷大街东镇城市广场二楼,45.171387,124.842682,购物服务;购物相关场所;购物相关场所,B0FFIZNW6E
605,MissLi,四川省,乐山市,市中区,Miss Li,市中区[],29.599054,103.736463,购物服务;专卖店;专营店,B0FFI8SGN7
604,MissLi,四川省,乐山市,沐川县,MISSLI,沐川县建设街2号,28.95841,103.903918,购物服务;购物相关场所;购物相关场所,B0FFHO4Y5G
408,MissLi,四川省,内江市,市中区,MISS LI,市中区天津街23-25号,29.585142,105.066471,购物服务;服装鞋帽皮具店;服装鞋帽皮具店,B0FFFFP6ZN
272,MissLi,四川省,南充市,顺庆区,MISSLI(文化路店),顺庆区文化路64号,30.792571,106.0867,购物服务;服装鞋帽皮具店;品牌服装店,B0FFFT1AIE
512,MissLi,四川省,宜宾市,南溪区,MissLi(北大街店),南溪区街心花园,28.838064,104.978767,购物服务;服装鞋帽皮具店;服装鞋帽皮具店,B0FFFTRJ4V
513,MissLi,四川省,宜宾市,翠屏区,Miss Li木子家,翠屏区五粮液大道旧州路3附19号附近,28.788307,104.612802,购物服务;服装鞋帽皮具店;服装鞋帽皮具店,B0FFGCGX1J
564,MissLi,四川省,广元市,利州区,MISSLI,利州区宝轮镇恒星商城,32.382042,105.642967,购物服务;购物相关场所;购物相关场所,B0FFH81R26
565,MissLi,四川省,广元市,利州区,MISSLI(东街),利州区老城东街鑫钰珠宝旁,32.436186,105.822341,购物服务;服装鞋帽皮具店;品牌服装店,B0FFFJXIHH
384,MissLi,四川省,广安市,武胜县,MISSLI,武胜县沿口镇盛达广场,30.344659,106.290586,购物服务;服装鞋帽皮具店;服装鞋帽皮具店,B0FFFRJGQ2
385,MissLi,四川省,广安市,邻水县,MISSLI,邻水县建新路与滨南二巷交叉口东北50米,30.333995,106.933787,购物服务;服装鞋帽皮具店;服装鞋帽皮具店,B0FFFYTI8O
210,MissLi,四川省,德阳市,中江县,MISSLI(小东街店),中江县凯江镇小东街60-62号,31.035524,104.677496,购物服务;服装鞋帽皮具店;品牌服装店,B0FFG6LBRN
211,MissLi,四川省,德阳市,广汉市,MISSLI(武昌路南一段),广汉市武昌路南1段-40号,30.977218,104.284424,购物服务;服装鞋帽皮具店;服装鞋帽皮具店,B0FFG6P9N9
212,MissLi,四川省,德阳市,旌阳区,Miss Li(南街),旌阳区下南街德阳商城B座女人街B区,31.130139,104.390362,购物服务;服装鞋帽皮具店;服装鞋帽皮具店,B0FFG23UL7
336,MissLi,四川省,成都市,双流区,MISSLI,双流区东升街道白衣上街177号城南优品道广场2楼,30.595226,103.912674,购物服务;服装鞋帽皮具店;服装鞋帽皮具店,B0FFGH8IGB
341,MissLi,四川省,成都市,双流区,MISSLI(北京华联空港购物中心),双流区锦华路二段166号北京华联空港购物中心F1层,30.57181,103.987313,购物服务;服装鞋帽皮具店;品牌服装店,B0FFG2A32D
344,MissLi,四川省,成都市,双流区,Miss Li(南昌路),双流区南昌路128-130,30.568464,103.922039,购物服务;服装鞋帽皮具店;服装鞋帽皮具店,B0FFFABTG9
346,MissLi,四川省,成都市,大邑县,Miss Li(东街),大邑县东街42号,30.585957,103.522533,购物服务;服装鞋帽皮具店;服装鞋帽皮具店,B0FFG1SD3P
342,MissLi,四川省,成都市,彭州市,MISSLI(置信·逸都城),彭州市金彭东路122号置信·逸都城F1层116,30.987479,103.957301,购物服务;服装鞋帽皮具店;品牌服装店,B0FFHFBZGY
340,MissLi,四川省,成都市,成华区,MISSLI(中国铁建186MALL),成华区中国铁建186MALL,30.680055,104.143604,购物服务;服装鞋帽皮具店;品牌服装店,B0FFIB50GW
338,MissLi,四川省,成都市,新津县,MISSLI,新津县文化巷与武阳西路交叉口东南50米,30.411821,103.810507,购物服务;购物相关场所;购物相关场所,B0FFIALVPK
348,MissLi,四川省,成都市,武侯区,MISSLI女装专柜,武侯区顺江段77号吾悦广场二楼,30.627362,103.988623,购物服务;购物相关场所;购物相关场所,B0FFIZV372
343,MissLi,四川省,成都市,郫都区,Miss Li服装店(北大街店),郫都区北大街(王府商业街口),30.810295,103.889201,购物服务;服装鞋帽皮具店;服装鞋帽皮具店,B0FFFQZGIH
337,MissLi,四川省,成都市,都江堰市,MISSLI,都江堰市灌口镇天和盛世天正街33号,30.997843,103.62423,购物服务;购物相关场所;购物相关场所,B0FFGM1CFP
339,MissLi,四川省,成都市,锦江区,MISSLI(尚都服饰广场),锦江区春熙路西段128号尚都服饰广场F1层,30.65628,104.07474,购物服务;服装鞋帽皮具店;品牌服装店,B0FFFDNL9N
347,MissLi,四川省,成都市,锦江区,Miss Li(壹购潮流广场),锦江区东大街上东大街段133号壹购潮流广场B2层,30.654753,104.074289,购物服务;服装鞋帽皮具店;服装鞋帽皮具店,B0FFI20ZME
600,MissLi,四川省,泸州市,江阳区,MISSLI(珠子街),江阳区大北街22号北城派出所对面,28.893131,105.450508,购物服务;服装鞋帽皮具店;品牌服装店,B0FFG34XU4
570,MissLi,四川省,眉山市,仁寿县,Miss Li(阳光商业街),仁寿县文林镇阳光路步行街,29.993997,104.144927,购物服务;服装鞋帽皮具店;服装鞋帽皮具店,B0FFGHZC5U
571,MissLi,四川省,眉山市,仁寿县,Miss Li(陵州路一段),仁寿县建设路二段与陵州路一段交叉口西北150米,29.993246,104.145652,购物服务;服装鞋帽皮具店;服装鞋帽皮具店,B0FFFX5266
618,MissLi,四川省,绵阳市,三台县,MISSLI服装店,三台县下东街与东升巷交叉口西50米,31.087922,105.093186,购物服务;服装鞋帽皮具店;服装鞋帽皮具店,B0FFHRJXC9
620,MissLi,四川省,绵阳市,江油市,Miss Li(解放路中段),江油市清香园街与解放路中段交叉口东北50米,31.775312,104.743009,购物服务;服装鞋帽皮具店;服装鞋帽皮具店,B0FFFP9HOS
619,MissLi,四川省,绵阳市,涪城区,MISS LI,涪城区警钟街13号东风百货F1,31.459208,104.752869,购物服务;专卖店;专营店,B0FFGZ3ER1
630,MissLi,四川省,资阳市,雁江区,MISSLI,雁江区和平中路40号,30.117468,104.65,购物服务;购物相关场所;购物相关场所,B0FFHRLOIY
278,MissLi,四川省,达州市,通川区,MISSLI,通川区大北街与小北巷交叉口西南100米,31.212845,107.499795,购物服务;购物相关场所;购物相关场所,B0FFFVV8SV
476,MissLi,四川省,遂宁市,船山区,MISS LI,船山区北辰街与玉堂街交叉口西南50米,30.506962,105.577173,生活服务;美容美发店;美容美发店|购物服务;服装鞋帽皮具店;服装鞋帽皮具店,B0FFGRIGKE
198,MissLi,天津市,天津市,和平区,MISSLI女装专柜,和平区滨江道198号中原百货F2,39.125183,117.199871,购物服务;专卖店;专营店,B0FFI8AVRF
232,MissLi,安徽省,亳州市,蒙城县,MISS LI,蒙城县宝塔路与嵇康中路交叉口西南150米,33.260295,116.560942,购物服务;专卖店;专营店,B0FFHO3W8N
594,MissLi,安徽省,安庆市,怀宁县,MISS LI,怀宁县高河镇皖河路211号,30.728737,116.82763,购物服务;服装鞋帽皮具店;服装鞋帽皮具店,B0FFIAPPF3
468,MissLi,安徽省,池州市,东至县,MISSLI,东至县建设路27-19号,30.098571,117.025743,购物服务;专卖店;专营店,B0FFHQ2SF7
469,MissLi,安徽省,池州市,贵池区,MISS LI,贵池区新西街,30.65136,117.484944,购物服务;购物相关场所;购物相关场所,B0FFHYH0B7
228,MissLi,安徽省,淮南市,田家庵区,MISSLI,田家庵区朝阳中路新世界休闲生活广场东,32.641349,117.01471,购物服务;专卖店;专营店,B0FFH5YS3J
510,MissLi,安徽省,阜阳市,颍泉区,Missli女装,颍泉区中兴路与人民中路交叉口西50米,32.905582,115.820329,购物服务;购物相关场所;购物相关场所,B0FFFT0O4Z
591,MissLi,安徽省,马鞍山市,当涂县,Miss Li精品女装,当涂县姑孰镇翠竹中路翠竹小区附近,31.55389,118.48888,购物服务;购物相关场所;购物相关场所,B0FFH5H88I
590,MissLi,安徽省,马鞍山市,花山区,MISSLI,花山区湖东路街道金鹰国际购物中心一楼,31.685383,118.50883,购物服务;服装鞋帽皮具店;品牌服装店,B0FFHBYWIA
78,MissLi,山东省,枣庄市,滕州市,MissLi平价时尚女装,滕州市杏坛路18号附近,35.086392,117.16199,购物服务;服装鞋帽皮具店;服装鞋帽皮具店,B0FFFWGVLV
466,MissLi,山东省,济南市,历城区,MISSLI(银座购物广场店),历城区花园路101号银座购物广场1层天天淘宝街,36.684323,117.062728,购物服务;购物相关场所;购物相关场所,B0FFIXKQKI
118,MissLi,山东省,淄博市,张店区,MISSLI,张店区华光路86号大润发(淄博店)1层,36.82164,118.041893,购物服务;专卖店;专营店,B0FFFRNRBZ
616,MissLi,山东省,滨州市,滨城区,MISSLI(中百大厦购物中心),滨城区渤海七路568号中百大厦购物中心F2层,37.377777,118.021174,购物服务;服装鞋帽皮具店;品牌服装店,B0FFGZ45HB
264,MissLi,山东省,潍坊市,高密市,Miss Li服装店,高密市人民大街与晏子路交叉口西南50米,36.381455,119.793055,购物服务;服装鞋帽皮具店;服装鞋帽皮具店,B0FFI29W2Y
0,MissLi,山东省,烟台市,芝罘区,Miss li木子上品,芝罘区前进街1-396号附近,37.547078,121.374062,购物服务;服装鞋帽皮具店;服装鞋帽皮具店,B0FFHX3QV1
36,MissLi,山东省,聊城市,茌平县,MISSLI,茌平县中心街京都·国际广场1层,36.584451,116.25756,购物服务;专卖店;专营店,B0FFFP3WIP
372,MissLi,山东省,青岛市,市南区,MISSLI女装,市南区香港中路71号秀尔服装城大田街F2,36.065917,120.404086,购物服务;购物相关场所;购物相关场所,B0FFID71I1
416,MissLi,山西省,临汾市,尧都区,MISSLI,尧都区鼓楼东大街138号大都会名店4层,36.085415,111.52259,购物服务;服装鞋帽皮具店;服装鞋帽皮具店,B0FFH99QF7
417,MissLi,山西省,临汾市,洪洞县,Miss Li,洪洞县古羊路与牛站西街交叉口东南50米,36.25505,111.670838,购物服务;服装鞋帽皮具店;服装鞋帽皮具店,B0FFH1HPAU
133,MissLi,山西省,大同市,南郊区,MISSLI(嘉和众美商城),南郊区嘉和众美商城,40.007845,113.214414,购物服务;服装鞋帽皮具店;服装鞋帽皮具店,B0FFIKJJOQ
132,MissLi,山西省,大同市,矿区,MISSLI,矿区矿务局新万人天地三楼,40.040618,113.182462,购物服务;购物相关场所;购物相关场所,B0FFIGBCWW
556,MissLi,山西省,太原市,古交市,MISSLI,古交市金牛菜市场口步行街,37.909267,112.172119,购物服务;购物相关场所;购物相关场所,B0FFIJSTTS
557,MissLi,山西省,太原市,清徐县,MISS LI,清徐县清源镇湖东二街83号,37.603652,112.357422,购物服务;服装鞋帽皮具店;服装鞋帽皮具店,B0FFHVRDY8
398,MissLi,山西省,晋中市,介休市,MISS LI女装专卖店,介休市南河沿九州购物园斜对面,37.024814,111.916153,购物服务;购物相关场所;购物相关场所,B0FFIGQM5E
464,MissLi,山西省,运城市,盐湖区,MISSLI女装,盐湖区南风新天地2楼,35.026188,111.001144,购物服务;购物相关场所;购物相关场所,B0FFJ0F3JH
220,MissLi,山西省,长治市,长治县,MISSLI,长治县新市西街143号附近,36.050383,113.053697,购物服务;服装鞋帽皮具店;服装鞋帽皮具店,B0FFIPMJWL
102,MissLi,山西省,阳泉市,城区,MISS LI,城区桃南东街与长顺街交叉口东北50米,37.862743,113.586071,购物服务;服装鞋帽皮具店;服装鞋帽皮具店,B0FFJ2CVZE
216,MissLi,广东省,东莞市,东莞市,Miss Li,东莞市大岭山镇兴华街9号,22.907449,113.840457,购物服务;服装鞋帽皮具店;服装鞋帽皮具店,B0FFHHM44V
482,MissLi,广东省,江门市,蓬江区,miss li,蓬江区丰乐路与育德街交叉口西北50米,22.608179,113.09079,购物服务;服装鞋帽皮具店;服装鞋帽皮具店,B0FFH6FMSX
376,MissLi,广东省,深圳市,宝安区,Miss Li,宝安区兴围兴业一路49号一楼,22.637274,113.831531,购物服务;购物相关场所;购物相关场所,B0FFIPR9CP
484,MissLi,广东省,潮州市,湘桥区,MissLi时尚馆,湘桥区新桥东路新兴市场7号门市MissLi时尚馆,23.663882,116.6404,购物服务;专卖店;专营店,B0FFJ3YQL3
200,MissLi,广东省,珠海市,斗门区,Miss li,斗门区井岸镇新民路307号,22.209186,113.292522,购物服务;服装鞋帽皮具店;服装鞋帽皮具店,B0FFIQEAEM
586,MissLi,广西壮族自治区,北海市,海城区,Miss Li,海城区北京路时尚桂成购物中心1层,21.46772,109.123856,购物服务;服装鞋帽皮具店;服装鞋帽皮具店,B0FFGG0OT1
110,MissLi,广西壮族自治区,南宁市,青秀区,Missli(国贸购物中心),青秀区民族共和路口民族大道41号国贸购物中心f2层2b016,22.813976,108.324198,购物服务;服装鞋帽皮具店;品牌服装店,B0FFG375IV
104,MissLi,广西壮族自治区,河池市,宜州区,Miss Li私家定制,宜州区龙岗路1-8号附近,24.494016,108.652837,购物服务;服装鞋帽皮具店;服装鞋帽皮具店,B0FFHEAZ7T
178,MissLi,广西壮族自治区,贵港市,港北区,MISS LI名媛馆,港北区唐人街二楼游乐园旁,23.092063,109.600391,购物服务;购物相关场所;购物相关场所,B0FFIAGKCF
493,MissLi,新疆维吾尔自治区,乌鲁木齐市,天山区,MISSLI专卖店,天山区丝路新天地二楼,43.768101,87.626801,购物服务;购物相关场所;购物相关场所,B0FFITGXZB
491,MissLi,新疆维吾尔自治区,乌鲁木齐市,新市区,MISSLI,新市区高新街街道长春路友好时尚购物中心二楼,43.869363,87.583815,购物服务;服装鞋帽皮具店;品牌服装店,B0FFHDL9K0
492,MissLi,新疆维吾尔自治区,乌鲁木齐市,新市区,MISSLI(南纬二路店),新市区南三路105号汇金商贸城,43.867746,87.560282,购物服务;服装鞋帽皮具店;品牌服装店,B0FFFAQ1Y2
490,MissLi,新疆维吾尔自治区,乌鲁木齐市,沙依巴克区,MISSLI,沙依巴克区黄河路402号七一酱园综合购物中心4层,43.780031,87.601268,购物服务;服装鞋帽皮具店;品牌服装店,B0FFG1ONY7
420,MissLi,新疆维吾尔自治区,伊犁哈萨克自治州,伊宁市,MISSLI女装,伊宁市解放西路与解放西路七巷交叉口东北50米,43.925841,81.311857,购物服务;购物相关场所;购物相关场所,B0FFICBAJL
421,MissLi,新疆维吾尔自治区,伊犁哈萨克自治州,伊宁市,MISSLI百斯佳商业,伊宁市斯大林东路与解放南路交叉口东南100米,43.915996,81.324946,购物服务;服装鞋帽皮具店;品牌服装店,B0FFFZ6YAX
424,MissLi,新疆维吾尔自治区,博尔塔拉蒙古自治州,博乐市,MISSLI,博乐市北京路帝王商城一楼(家和园体育馆正对面),44.901161,82.071814,购物服务;服装鞋帽皮具店;服装鞋帽皮具店,B0FFH6RKZW
294,MissLi,新疆维吾尔自治区,吐鲁番市,高昌区,MISSLI,高昌区旅游文化广场北侧,42.944871,89.181454,购物服务;服装鞋帽皮具店;服装鞋帽皮具店,B0FFG8CINM
588,MissLi,新疆维吾尔自治区,喀什地区,喀什市,missli女装,喀什市人民西路环疆新世界百货4楼,39.465204,75.9797,购物服务;专卖店;专营店,B0FFGKZ8GC
138,MissLi,新疆维吾尔自治区,塔城地区,沙湾县,MISSLI,沙湾县人民路商业街南楼,44.325299,85.625985,购物服务;购物相关场所;购物相关场所,B0FFI88OQG
202,MissLi,新疆维吾尔自治区,巴音郭楞蒙古自治州,库尔勒市,missli,库尔勒市团结北路金汇来商厦1层,41.757668,86.143799,购物服务;专卖店;专营店,B0FFHYBSO6
235,MissLi,新疆维吾尔自治区,昌吉回族自治州,昌吉市,MISSLI(乌伊东路店),昌吉市延安北路办事处乌伊西路飞马转盘统一商城楼下百富烤霸旁,44.009372,87.305745,购物服务;服装鞋帽皮具店;服装鞋帽皮具店,B0FFFPTL3F
234,MissLi,新疆维吾尔自治区,昌吉回族自治州,阜康市,missli,阜康市阜康商贸城南(天池街东),44.154107,87.982038,购物服务;专卖店;专营店,B0FFI6WBJ1
449,MissLi,江苏省,南京市,玄武区,Miss Li,玄武区锁金三村20栋107室,32.0739,118.814982,购物服务;服装鞋帽皮具店;服装鞋帽皮具店,B0FFHCUP6E
506,MissLi,江苏省,南通市,如东县,MISS LI,如东县三元南街26号,32.312458,121.187747,购物服务;购物相关场所;购物相关场所,B0FFHODFJG
504,MissLi,江苏省,南通市,崇川区,MISSLI专柜,崇川区工农路57号金鹰圆融三楼,32.004895,120.884149,购物服务;专卖店;专营店,B0FFHLHLDA
505,MissLi,江苏省,南通市,海门市,MISS LI,海门市解放中路1052号,31.893503,121.166972,购物服务;购物相关场所;购物相关场所,B0FFHZZF0A
170,MissLi,江苏省,常州市,武进区,Miss Li,武进区新民路24号附近,31.731766,119.89628,购物服务;专卖店;专营店,B0FFG9GX3V
8,MissLi,江苏省,徐州市,丰县,missli,丰县支农路招商场3号楼西门北侧(火狐狸门北侧),34.693896,116.608816,购物服务;购物相关场所;购物相关场所,B0FFHHL56Q
181,MissLi,江苏省,扬州市,仪征市,Miss Li女装,仪征市陈集中心商业街与302县道交叉口南100米,32.481699,119.190506,购物服务;服装鞋帽皮具店;服装鞋帽皮具店,B0FFH08ZJ4
61,MissLi,江苏省,无锡市,江阴市,Miss Li,江阴市绿苑居85号,31.807581,120.509495,购物服务;服装鞋帽皮具店;服装鞋帽皮具店,B0FFHRACXJ
4,MissLi,江苏省,泰州市,泰兴市,missli女装,泰兴市鼓楼东路35-37号,32.168555,120.021672,购物服务;购物相关场所;购物相关场所,B0FFGNM1OY
500,MissLi,江苏省,淮安市,盱眙县,MISS LI(五洲国际广场),盱眙县东湖南路与都梁大道交汇处五洲国际广场F2层,32.995686,118.528417,购物服务;购物相关场所;购物相关场所,B0FFHS9F1E
274,MissLi,江苏省,苏州市,常熟市,MISSLI,常熟市虞山镇天虹服装城一楼217,31.628256,120.742126,购物服务;购物相关场所;购物相关场所,B0FFIQDC71
39,MissLi,江苏省,连云港市,东海县,Miss Li女包,东海县晶都文化广场,34.524555,118.762681,购物服务;服装鞋帽皮具店;服装鞋帽皮具店,B0FFGZV5SO
38,MissLi,江苏省,连云港市,赣榆区,MISSLI,赣榆区黄海路32-c3-101号附近,34.841541,119.125636,购物服务;购物相关场所;购物相关场所,B0FFGH3TTD
402,MissLi,江西省,上饶市,信州区,MISSLI服装店,信州区玉带路与解放路交叉口北100米沙溪工商所附近,28.574364,118.098882,购物服务;服装鞋帽皮具店;服装鞋帽皮具店,B0FFI7FF68
403,MissLi,江西省,上饶市,铅山县,MISS LI,铅山县复兴中路与气象路交叉口东北50米,28.309514,117.713341,购物服务;服装鞋帽皮具店;服装鞋帽皮具店,B0FFHE85GH
90,MissLi,江西省,九江市,湖口县,MISSLI,湖口县双钟镇云亭路17号,29.740373,116.226941,购物服务;专卖店;专营店,B0FFHM4ABO
168,MissLi,江西省,南昌市,西湖区,MISS LI,西湖区带子街与象山南路交叉口东50米,28.673836,115.891983,购物服务;购物相关场所;购物相关场所,B0FFIQS3IH
542,MissLi,江西省,吉安市,吉州区,MISSLI女装,吉州区毛泽东旧居对面,27.112732,114.988684,购物服务;购物相关场所;购物相关场所,B0FFI2EGF5
553,MissLi,江西省,宜春市,万载县,MISS LI,万载县后街路129号,28.105715,114.450033,购物服务;购物相关场所;购物相关场所,B0FFH69YS7
552,MissLi,江西省,宜春市,高安市,MISSLI专卖店,高安市锦江外滩E栋1号,28.414858,115.379784,购物服务;购物相关场所;购物相关场所,B0FFIWTZTD
72,MissLi,江西省,新余市,渝水区,MISS LI,渝水区团结东路与胜利南路交叉口东北50米,27.797805,114.93812,购物服务;服装鞋帽皮具店;服装鞋帽皮具店,B0FFIVLDHA
100,MissLi,江西省,萍乡市,安源区,MISS LI,安源区跃进南路78号,27.62659,113.848952,购物服务;购物相关场所;购物相关场所,B0FFHEU2DU
624,MissLi,江西省,赣州市,宁都县,MISS LI,宁都县环西南路与胜利中路交叉口西北50米,26.470974,116.01681,购物服务;服装鞋帽皮具店;服装鞋帽皮具店,B0FFG7OHCE
96,MissLi,河北省,保定市,安国市,MISSLI女装店,安国市金融街正泰超市一楼,38.429437,115.331027,购物服务;购物相关场所;购物相关场所,B0FFHU68TM
382,MissLi,河北省,唐山市,路南区,MISSLI(新街),路南区新街商业步行街D191号,39.621448,118.172256,购物服务;服装鞋帽皮具店;品牌服装店,B0FFG4ZMJ3
639,MissLi,河北省,沧州市,任丘市,MISSLI名品折扣,任丘市华油商业街前街康达药店对过,38.689785,116.10335,购物服务;购物相关场所;购物相关场所,B0FFHFKJGA
638,MissLi,河北省,沧州市,盐山县,MISSLI,盐山县振华北大街17号盐山千童购物中心F4,38.060946,117.231758,购物服务;专卖店;专营店,B0FFHHRY6P
108,MissLi,河北省,石家庄市,辛集市,MIssli(北国商城),辛集市兴华北路76号北国商城4F层,37.928381,115.215223,购物服务;购物相关场所;购物相关场所,B0FFHJDLC0
306,MissLi,河北省,邯郸市,丛台区,MISSLI(国风购物中心),丛台区中华街道和平路155号国风购物中心F3层,36.604652,114.486541,购物服务;服装鞋帽皮具店;品牌服装店,B0FFH2D13H
575,MissLi,河南省,三门峡市,卢氏县,MISS LI,卢氏县南大街与西大街交叉口西北100米,34.052934,111.050961,购物服务;服装鞋帽皮具店;服装鞋帽皮具店,B0FFIVMMMZ
574,MissLi,河南省,三门峡市,湖滨区,MISSLI专柜,湖滨区大张百货,34.779635,111.199685,购物服务;购物相关场所;购物相关场所,B0FFIDRK2T
204,MissLi,河南省,信阳市,浉河区,MISSLI,浉河区天润广场二楼,32.126595,114.08049,购物服务;购物相关场所;购物相关场所,B0FFIZG7L1
205,MissLi,河南省,信阳市,潢川县,MISSLI女装专柜,潢川县定城街道西亚丽宝广场,32.134478,115.039642,购物服务;购物相关场所;购物相关场所,B0FFGZ3XXD
144,MissLi,河南省,南阳市,镇平县,MISS LI,镇平县镇涅阳街道校场路玉鼎花园东南200米,33.036624,112.233245,购物服务;服装鞋帽皮具店;服装鞋帽皮具店,B0FFFPVUWN
410,MissLi,河南省,周口市,太康县,MISSLI,太康县建业购物广场东门,34.067853,114.860964,购物服务;服装鞋帽皮具店;服装鞋帽皮具店,B0FFIGIYJG
411,MissLi,河南省,周口市,沈丘县,MISSLI,沈丘县颖河大道68号附近,33.398743,115.081899,购物服务;服装鞋帽皮具店;服装鞋帽皮具店,B0FFIPGIUT
412,MissLi,河南省,周口市,淮阳县,MISSLI专柜,淮阳县城关回族镇润德商场二楼,33.732093,114.871109,购物服务;购物相关场所;购物相关场所,B0FFIBTKZN
538,MissLi,河南省,商丘市,柘城县,MISSLI,柘城县毫州市柘城县康乐街柘城幸福万家商贸有限公司1层,34.083713,115.309714,购物服务;专卖店;专营店,B0FFG11P39
539,MissLi,河南省,商丘市,虞城县,MISS LI,虞城县城关镇大同路安奇超市向东200米,34.392757,115.860415,购物服务;服装鞋帽皮具店;服装鞋帽皮具店,B0FFIWIMBA
276,MissLi,河南省,洛阳市,偃师市,MISSLI专柜,偃师市华夏路中成百货2层,34.71952,112.7867,购物服务;专卖店;专营店,B0FFHKK4RU
522,MissLi,河南省,济源市,济源市,MISS LI,济源市汤帝路103号附近,35.090658,112.585301,购物服务;服装鞋帽皮具店;服装鞋帽皮具店,B0FFHWVAMU
124,MissLi,河南省,许昌市,长葛市,MISSLI,长葛市益民街253号附近,34.220399,113.77045,购物服务;服装鞋帽皮具店;服装鞋帽皮具店,B0FFITXFCB
545,MissLi,河南省,郑州市,二七区,Miss Li(百年德化风情购物公园),二七区德化街100号百年德化风情购物公园B1层B320,34.750106,113.665114,购物服务;服装鞋帽皮具店;品牌服装店,B0FFG02NZ0
547,MissLi,河南省,郑州市,管城回族区,MISS LI,管城回族区航海路63中对面福都百货二楼,34.719981,113.701175,购物服务;服装鞋帽皮具店;品牌服装店,B0FFHSE1UG
544,MissLi,河南省,郑州市,金水区,MISSLI专卖店,金水区中州大道与郑汴路凯德广场二楼,34.749282,113.724832,购物服务;购物相关场所;购物相关场所,B0FFIELFZX
136,MissLi,河南省,鹤壁市,山城区,Miss Li潮衣馆,山城区长风路25号附近,35.89854,114.186187,购物服务;服装鞋帽皮具店;服装鞋帽皮具店,B0FFIRUNVZ
184,MissLi,浙江省,杭州市,下城区,MISSLI(甘长路),下城区甘长路42号4号楼3楼,30.335345,120.179824,购物服务;服装鞋帽皮具店;品牌服装店,B0FFFLISX7
186,MissLi,浙江省,杭州市,下城区,Miss Li(香积寺路),下城区东新街道香积寺路79号,30.306978,120.169739,购物服务;服装鞋帽皮具店;服装鞋帽皮具店,B0FFGW1899
24,MissLi,浙江省,温州市,瑞安市,Miss li,瑞安市莘塍东街240号,27.776315,120.683239,购物服务;服装鞋帽皮具店;服装鞋帽皮具店,B0FFHLA2WC
22,MissLi,浙江省,温州市,苍南县,MISSLI,苍南县百有六街与百有西街交叉口西北50米,27.580923,120.549545,购物服务;服装鞋帽皮具店;品牌服装店,B0FFG7SZKG
88,MissLi,浙江省,湖州市,吴兴区,MISSLI女装,吴兴区八里店镇大升路万达广场899号1050商铺,30.860774,120.142036,购物服务;购物相关场所;购物相关场所,B0FFHMB1F4
296,MissLi,浙江省,绍兴市,上虞区,MISSLI,上虞区崧厦镇东大街17号,30.094264,120.843888,购物服务;购物相关场所;购物相关场所,B0FFH83E1Y
297,MissLi,浙江省,绍兴市,柯桥区,missli(万达广场),柯桥区钱陶公路799号万达广场F2层,30.093476,120.510632,购物服务;购物相关场所;购物相关场所,B0FFG0KWWW
298,MissLi,浙江省,绍兴市,越城区,Miss Li,越城区袍江袍中北路亲亲家园商铺19号,30.072031,120.613196,购物服务;服装鞋帽皮具店;品牌服装店,B0FFG0Q0D2
299,MissLi,浙江省,绍兴市,越城区,Miss Li精品女装,越城区康城路68号,30.074263,120.604339,购物服务;专卖店;专营店,B0FFJ4PA6S
370,MissLi,浙江省,舟山市,定海区,MissLi专卖店(芙蓉洲路店),定海区芙蓉洲路23号,30.016805,122.109799,购物服务;服装鞋帽皮具店;服装鞋帽皮具店,B0FFF9NMIA
437,MissLi,浙江省,金华市,东阳市,MISS LI,东阳市吴宁街道吴宁东路1号新光太平洋购物广场F2,29.259767,120.231279,购物服务;专卖店;专营店,B0FFIATC2B
534,MissLi,海南省,海口市,龙华区,MISSLI,龙华区龙华路龙华一横路99号东方广场2层,20.039011,110.33768,购物服务;专卖店;专营店,B0FFFPDY28
478,MissLi,湖北省,十堰市,茅箭区,MISS LI,茅箭区五堰丰融超市二楼,32.643248,110.788011,购物服务;购物相关场所;购物相关场所,B0FFHLID64
525,MissLi,湖北省,咸宁市,咸安区,MISS LI,咸安区渔水路与鱼水路交叉口北100米,29.875479,114.281841,购物服务;服装鞋帽皮具店;服装鞋帽皮具店,B0FFH3JVKI
524,MissLi,湖北省,咸宁市,通城县,MISSLI专柜,通城县隽水镇状元广场二楼,29.244711,113.814919,购物服务;购物相关场所;购物相关场所,B0FFIP4MKS
518,MissLi,湖北省,孝感市,安陆市,MISSLI专卖店,安陆市德安中路16-1号,31.25745,113.687498,购物服务;购物相关场所;购物相关场所,B0FFHJ3H0K
166,MissLi,湖北省,宜昌市,当阳市,MISSLI,当阳市玉阳路市经济商务和信息化局南200米,30.824232,111.794453,购物服务;服装鞋帽皮具店;服装鞋帽皮具店,B0FFG6AXKH
502,MissLi,湖北省,恩施土家族苗族自治州,恩施市,miss li,恩施市东风大道577号-1号,30.272449,109.48621,购物服务;专卖店;专营店,B0FFGBTLGV
313,MissLi,湖北省,武汉市,东西湖区,MISSLI,东西湖区五丰街103号附近,30.622725,114.140716,购物服务;服装鞋帽皮具店;服装鞋帽皮具店,B0FFHJ8V8X
315,MissLi,湖北省,武汉市,新洲区,MISSLI专卖店,新洲区新洲大街图书馆对面,30.84396,114.801636,购物服务;购物相关场所;购物相关场所,B0FFIDW3DX
317,MissLi,湖北省,武汉市,新洲区,MISS LI,新洲区金融街26号附近,30.661707,114.568097,购物服务;服装鞋帽皮具店;服装鞋帽皮具店,B0FFH99WG3
318,MissLi,湖北省,武汉市,汉南区,MISS LI,汉南区银莲路56号附近,30.307854,114.081327,购物服务;服装鞋帽皮具店;服装鞋帽皮具店,B0FFIPGEFN
316,MissLi,湖北省,武汉市,洪山区,MISS LI(光谷天地),洪山区关山大道519号光谷天地F1层,30.476821,114.410182,购物服务;服装鞋帽皮具店;品牌服装店,B0FFH89BB2
312,MissLi,湖北省,武汉市,硚口区,MISSLI,硚口区利济南路汉正广场B区,30.566222,114.274404,购物服务;购物相关场所;购物相关场所,B0FFIDW39F
314,MissLi,湖北省,武汉市,黄陂区,MISSLI服装店,黄陂区佳海步行二街96号,30.729232,114.238659,购物服务;服装鞋帽皮具店;服装鞋帽皮具店,B0FFFTTFNR
94,MissLi,湖北省,潜江市,潜江市,MISS LI,潜江市园林办事处章华中路45号,30.419661,112.897847,购物服务;服装鞋帽皮具店;服装鞋帽皮具店,B0FFHSDAOB
222,MissLi,湖北省,荆州市,松滋市,MISS LI,松滋市民主路127-9号附近,30.174865,111.780656,购物服务;服装鞋帽皮具店;服装鞋帽皮具店,B0FFI64JOX
614,MissLi,湖北省,荆门市,钟祥市,missli专卖店,钟祥市阳春街地下商业街1128,31.166062,112.588129,购物服务;购物相关场所;购物相关场所,B0FFH9TNTW
406,MissLi,湖北省,襄阳市,樊城区,MISS Li,樊城区风华路7号附近,32.04446,112.138388,购物服务;服装鞋帽皮具店;服装鞋帽皮具店,B0FFHKHSIU
148,MissLi,湖北省,随州市,曾都区,Miss Li,曾都区烈山大道93-6号附近,31.706559,113.373887,购物服务;服装鞋帽皮具店;服装鞋帽皮具店,B0FFIWM7WL
480,MissLi,湖北省,黄冈市,浠水县,MISS LI女装店,浠水县清泉镇十月路盛百客1楼,30.464174,115.261826,购物服务;购物相关场所;购物相关场所,B0FFIPEYDO
516,MissLi,湖北省,黄石市,黄石港区,MISSLI,黄石港区江北管理区淘铺银座F27,30.213633,115.091759,购物服务;购物相关场所;购物相关场所,B0FFILKGEH
304,MissLi,湖南省,岳阳市,岳阳楼区,MISS LI,岳阳楼区步行街北辅道20号,29.374666,113.106174,购物服务;服装鞋帽皮具店;服装鞋帽皮具店,B0FFHNMT99
114,MissLi,湖南省,常德市,津市市,missli女装店,津市市建设路与新码头交叉口北50米,29.625814,111.880176,购物服务;购物相关场所;购物相关场所,B0FFGZVQM4
224,MissLi,湖南省,株洲市,芦淞区,MISSLI(人民南路),芦淞区金轮国际服装市场,27.834058,113.155107,购物服务;服装鞋帽皮具店;品牌服装店,B0FFG2K3QC
192,MissLi,湖南省,衡阳市,衡东县,MISSLI,衡东县衡岳北路81号,27.082426,112.949972,购物服务;服装鞋帽皮具店;服装鞋帽皮具店,B0FFFWBC45
280,MissLi,湖南省,长沙市,开福区,MISSLI(华创国际广场店),开福区芙蓉中路一段109号华创国际广场购物中心南区三楼,28.22407,112.98789,购物服务;购物相关场所;购物相关场所,B0FFHNZC74
281,MissLi,湖南省,长沙市,开福区,MISSLI专卖店,开福区芙蓉中路一段119号华创国际广场南区3楼,28.223999,112.988412,购物服务;购物相关场所;购物相关场所,B0FFHVHEPL
282,MissLi,湖南省,长沙市,长沙县,MISS LI,长沙县星沙三区服装街15栋慧尔玛鞋店旁,28.235704,113.078304,购物服务;服装鞋帽皮具店;服装鞋帽皮具店,B0FFI59VEX
283,MissLi,湖南省,长沙市,长沙县,miss li,长沙县棠坡路20号附近,28.247851,113.094621,购物服务;服装鞋帽皮具店;服装鞋帽皮具店,B0FFIS7O8A
626,MissLi,甘肃省,天水市,麦积区,MISSLI专柜,麦积区金都商城三楼,34.562584,105.900284,购物服务;购物相关场所;购物相关场所,B0FFJ5ANEB
584,MissLi,甘肃省,平凉市,华亭县,MISS LI,华亭县东升商贸步行街与广场东路交叉口东北50米,35.214367,106.648815,购物服务;服装鞋帽皮具店;服装鞋帽皮具店,B0FFG9K0YG
392,MissLi,甘肃省,张掖市,甘州区,MISSLI服装店,甘州区青西街35号,38.934213,100.456913,购物服务;购物相关场所;购物相关场所,B0FFHM1JHH
378,MissLi,甘肃省,武威市,凉州区,MISSLI专柜,凉州区仟盛百货2楼,37.928532,102.636765,购物服务;购物相关场所;购物相关场所,B0FFIZG4U3
488,MissLi,甘肃省,酒泉市,敦煌市,Miss Li,敦煌市百味街35,40.140155,94.667883,购物服务;服装鞋帽皮具店;服装鞋帽皮具店,B0FFHR9VZH
582,MissLi,福建省,厦门市,集美区,MISSLI(万达广场),集美区银江路137号万达广场F1层,24.573508,118.092068,购物服务;服装鞋帽皮具店;品牌服装店,B0FFFDJRI6
175,MissLi,福建省,宁德市,福鼎市,MISS LI,福鼎市古城东路与古城南路交叉口东南50米,27.322843,120.219108,购物服务;服装鞋帽皮具店;品牌服装店,B0FFFP0GAA
174,MissLi,福建省,宁德市,蕉城区,MISSLI(万达广场),蕉城区天湖东路1号万达广场F1层,26.650928,119.538594,购物服务;服装鞋帽皮具店;品牌服装店,B0FFFOG0ZI
364,MissLi,福建省,泉州市,晋江市,Miss Li(泉州晋江SM国际广场),晋江市福兴路684号泉州晋江SM国际广场2F层,24.778317,118.565279,购物服务;购物相关场所;购物相关场所,B0FFH482DZ
308,MissLi,福建省,福州市,福清市,MISS Li(福清万达广场),福清市清昌大道105号福清万达广场F2层,25.715232,119.350025,购物服务;购物相关场所;购物相关场所,B0FFG279A3
260,MissLi,福建省,龙岩市,新罗区,MISSLI,新罗区龙岩大道东侧、双龙路北侧、曹溪路西侧龙岩万达广场1层,25.055667,117.027653,购物服务;专卖店;专营店,B0FFGG6XM6
628,MissLi,西藏自治区,林芝市,巴宜区,MISSLI,巴宜区八一大街北段74附19附近,29.662558,94.356852,购物服务;服装鞋帽皮具店;服装鞋帽皮具店,B0FFG4B8Z6
262,MissLi,西藏自治区,阿里地区,日土县,MISSLI,日土县[],33.383674,79.734902,购物服务;服装鞋帽皮具店;服装鞋帽皮具店,B0FFG9MI4Q
68,MissLi,贵州省,毕节市,大方县,MISSLI,大方县环府路与解放路交叉口南50米,27.139605,105.612611,购物服务;服装鞋帽皮具店;服装鞋帽皮具店,B0FFITUI4O
69,MissLi,贵州省,毕节市,威宁彝族回族苗族自治县,MISSLI服装店,威宁彝族回族苗族自治县向阳路99号附近,26.866926,104.281442,购物服务;专卖店;专营店,B0FFJ2VAWJ
394,MissLi,辽宁省,丹东市,东港市,MISSLI,东港市华悦百货三楼,39.87888,124.149307,购物服务;购物相关场所;购物相关场所,B0FFJ0P9TM
395,MissLi,辽宁省,丹东市,元宝区,MISSLI专柜,元宝区大商新玛特4楼,40.133567,124.396548,购物服务;购物相关场所;购物相关场所,B0FFI9CC8U
568,MissLi,辽宁省,大连市,庄河市,MISSLI专柜,庄河市黄海大街千盛百货二楼,39.699675,122.976952,购物服务;购物相关场所;购物相关场所,B0FFIGH3A9
56,MissLi,辽宁省,抚顺市,新抚区,MISSLI,新抚区浙商新玛特二号馆三楼,41.8616,123.893858,购物服务;购物相关场所;购物相关场所,B0FFI2I90W
57,MissLi,辽宁省,抚顺市,望花区,MISSLI专柜,望花区雷锋路东段商贸大厦二楼,41.849388,123.806732,购物服务;购物相关场所;购物相关场所,B0FFIWOOCK
164,MissLi,辽宁省,朝阳市,北票市,MISSLI,北票市人民路11号,41.807105,120.770563,购物服务;购物相关场所;购物相关场所,B0FFGSCMZC
17,MissLi,辽宁省,沈阳市,沈河区,MISSLI(HK01流行馆店),沈河区中街路205号HK01流行馆F3层,41.801129,123.46132,购物服务;服装鞋帽皮具店;品牌服装店|购物服务;服装鞋帽皮具店;品牌鞋店,B0FFFV36C2
18,MissLi,辽宁省,沈阳市,皇姑区,MISSLI专柜,皇姑区长江街99号千盛百货二楼,41.826566,123.414356,购物服务;专卖店;专营店,B0FFIQDBU3
16,MissLi,辽宁省,沈阳市,铁西区,MISSLI,铁西区建设西路18-17号兴隆大都汇F2,41.803868,123.346609,购物服务;专卖店;专营店,B0FFIPMH4P
532,MissLi,辽宁省,盘锦市,兴隆台区,MISSLI,兴隆台区中兴路与兴三街交叉口东南50米,41.126244,122.06943,购物服务;服装鞋帽皮具店;服装鞋帽皮具店,B0FFGAGFPE
400,MissLi,辽宁省,营口市,盖州市,MISSLI,盖州市兴隆大家庭三楼,40.406282,122.352934,购物服务;购物相关场所;购物相关场所,B0FFH3JIFQ
75,MissLi,辽宁省,葫芦岛市,连山区,miss li(宏运·新天地购物广场),连山区新华大街3号宏运·新天地购物广场F3层,40.755153,120.855748,购物服务;购物相关场所;购物相关场所,B0FFGK48X7
74,MissLi,辽宁省,葫芦岛市,龙港区,MISSLI,龙港区龙湾大街大润发1层(凯旋城店),40.732807,120.869798,购物服务;购物相关场所;购物相关场所,B0FFG2ANPP
596,MissLi,辽宁省,辽阳市,白塔区,Miss Li,白塔区民主路59-1号11-20附近,41.264739,123.173901,购物服务;服装鞋帽皮具店;品牌服装店,B0FFHU7RC2
610,MissLi,辽宁省,铁岭市,开原市,MISSLI女装,开原市大商新玛特二楼,42.547256,124.039124,购物服务;购物相关场所;购物相关场所,B0FFIKHYMB
608,MissLi,辽宁省,铁岭市,昌图县,MISSLI,昌图县滨河北路66号附近,42.782628,124.112813,购物服务;服装鞋帽皮具店;服装鞋帽皮具店,B0FFJ3HWXS
609,MissLi,辽宁省,铁岭市,银州区,MISSLI专柜,银州区南马路29号大商新玛特二楼,42.298216,123.850633,购物服务;专卖店;专营店,B0FFI2X63K
194,MissLi,辽宁省,锦州市,黑山县,MISSLI,黑山县启发路与307省道交叉口西南50米,41.691226,122.118658,购物服务;服装鞋帽皮具店;服装鞋帽皮具店,B0FFIKISJ5
152,MissLi,重庆市,重庆市,奉节县,MISSLI,奉节县永安镇人和街37号,31.022243,109.469091,购物服务;服装鞋帽皮具店;服装鞋帽皮具店,B0FFGJ0G3R
154,MissLi,重庆市,重庆市,巴南区,Miss Li(新市街),巴南区新市街60号协信购物广场1层,29.382348,106.525146,购物服务;服装鞋帽皮具店;服装鞋帽皮具店,B0FFFTSNMR
153,MissLi,重庆市,重庆市,开州区,MISSLI,开州区开州大道中段春天花园43号miss(金冠书屋旁),31.169684,108.407126,购物服务;服装鞋帽皮具店;服装鞋帽皮具店,B0FFG5CCX0
156,MissLi,重庆市,重庆市,潼南区,Miss Li(辰龙书院学府西南),潼南区大同街278,30.177635,105.818275,购物服务;服装鞋帽皮具店;服装鞋帽皮具店,B0FFGW0UFK
155,MissLi,重庆市,重庆市,长寿区,Miss Li,长寿区桃源东路东邦时代3号附37号,29.857982,107.08599,购物服务;服装鞋帽皮具店;服装鞋帽皮具店,B0FFH25D7A
128,MissLi,陕西省,咸阳市,三原县,MISSLI,三原县油坊道街100号,34.614994,108.93526,购物服务;购物相关场所;购物相关场所,B0FFFTDBS2
129,MissLi,陕西省,咸阳市,兴平市,Miss Li(县门街西路),兴平市县门街西路与塔巷交叉口东50米,34.299322,108.487385,购物服务;服装鞋帽皮具店;服装鞋帽皮具店,B0FFFVAIKZ
83,MissLi,陕西省,商洛市,丹凤县,MISSLI专卖,丹凤县龙驹寨街道时代一楼购物中心,33.695023,110.330368,购物服务;购物相关场所;购物相关场所,B0FFIT79C3
81,MissLi,陕西省,商洛市,商州区,MISSLI,商州区北新街万事达广场三楼,33.870331,109.935387,购物服务;购物相关场所;购物相关场所,B0FFILF8GC
82,MissLi,陕西省,商洛市,山阳县,MISSLI(东城路),山阳县东城路79号,33.530781,109.882317,购物服务;服装鞋帽皮具店;品牌服装店,B0FFGXE2KN
80,MissLi,陕西省,商洛市,洛南县,MISSLI服装店,洛南县华阳路与西新街交叉口西南100米,34.08775,110.145093,购物服务;服装鞋帽皮具店;服装鞋帽皮具店,B0FFIIVYH7
30,MissLi,陕西省,宝鸡市,岐山县,MISS LI,岐山县蔡家坡镇人民路家和超市对面,34.322318,107.59785,购物服务;专卖店;专营店,B0FFHOW8FC
28,MissLi,陕西省,宝鸡市,渭滨区,MISSLI(银座国际购物中心),渭滨区经二路50号银座国际购物中心F4层,34.372136,107.145425,购物服务;服装鞋帽皮具店;品牌服装店,B0FFH1UJ49
29,MissLi,陕西省,宝鸡市,渭滨区,MISSLI专卖店,渭滨区天下汇高新店3层,34.345769,107.229201,购物服务;专卖店;专营店,B0FFGZ4MYZ
332,MissLi,陕西省,延安市,宝塔区,miss li(延安百货大楼东大上品),宝塔区百米大道中段延安百货大楼东大上品F2层,36.607239,109.509134,购物服务;购物相关场所;购物相关场所,B0FFH3J8K9
330,MissLi,陕西省,延安市,志丹县,MISSLI,志丹县红都街与金融巷交叉口西100米,36.823828,108.768515,购物服务;专卖店;专营店,B0FFGKZ1B4
441,MissLi,陕西省,榆林市,榆阳区,MISSLI(新建北路),榆阳区鼓楼街道二街转角楼十字仁山百货二楼,38.296459,109.75,购物服务;服装鞋帽皮具店;品牌服装店,B0FFGSJYIR
443,MissLi,陕西省,榆林市,神木市,MISS LI,神木市东兴街157号,38.830977,110.499948,购物服务;服装鞋帽皮具店;服装鞋帽皮具店,B0FFHU3DOC
440,MissLi,陕西省,榆林市,米脂县,MISSLI,米脂县银州北路99号附近,37.764561,110.172851,购物服务;服装鞋帽皮具店;服装鞋帽皮具店,B0FFIURESI
442,MissLi,陕西省,榆林市,靖边县,MISSLI服装店,靖边县人民路大转盘,37.59491,108.797219,购物服务;服装鞋帽皮具店;服装鞋帽皮具店,B0FFIBL7AP
430,MissLi,陕西省,汉中市,勉县,MISSLI,勉县和平中路239号附近,33.154039,106.677256,购物服务;服装鞋帽皮具店;服装鞋帽皮具店,B0FFITYF80
429,MissLi,陕西省,汉中市,城固县,MISSLI,城固县文化路和人民路十字向西路北,33.152313,107.328422,购物服务;购物相关场所;购物相关场所,B0FFH84OEV
428,MissLi,陕西省,汉中市,汉台区,MISSLI,汉台区北大街老凤祥旁边,33.074542,107.028957,购物服务;购物相关场所;购物相关场所,B0FFI3845U
431,MissLi,陕西省,汉中市,洋县,MISSLI,洋县东文明街与西文明街交叉口东50米,33.223117,107.553744,购物服务;购物相关场所;购物相关场所,B0FFHM0SCZ
12,MissLi,陕西省,渭南市,大荔县,MISSLI,大荔县北大街妇幼保健院全民体育南邻,34.798212,109.943161,购物服务;服装鞋帽皮具店;服装鞋帽皮具店,B0FFIVMRS8
13,MissLi,陕西省,渭南市,富平县,MISS LI,富平县城关镇人民路秦正酒店楼下,34.747621,109.180361,购物服务;服装鞋帽皮具店;服装鞋帽皮具店,B0FFHSRLB1
46,MissLi,陕西省,西安市,临潼区,MISS LI,临潼区人民南路43号附近,34.373428,109.213279,购物服务;购物相关场所;购物相关场所,B0FFIHM7DK
42,MissLi,陕西省,西安市,新城区,MISSLI,新城区西北商贸6楼,34.268797,108.978609,购物服务;专卖店;专营店,B0FFFDUHUM
47,MissLi,陕西省,西安市,长安区,MISS LI(长安区教师小区西北),长安区皂河路康乐小区北50米(长安汽车站西南),34.148199,108.944648,购物服务;服装鞋帽皮具店;服装鞋帽皮具店,B0FFHBRXH7
45,MissLi,陕西省,西安市,雁塔区,MISS LI(小寨东路),雁塔区西安财经学院小寨东路131号家属院,34.223063,108.952421,购物服务;服装鞋帽皮具店;服装鞋帽皮具店,B0FFHDCKOX
43,MissLi,陕西省,西安市,高陵区,MISSLI服装店,高陵区鹿歌路6号附近,34.533994,109.096152,购物服务;购物相关场所;购物相关场所,B0FFI498X1
326,MissLi,陕西省,铜川市,王益区,MISSLI,王益区红旗街与苗圃路交叉口东50米,35.069896,109.077811,购物服务;服装鞋帽皮具店;品牌服装店,B0FFHUKM0M
327,MissLi,陕西省,铜川市,王益区,MISSLI,王益区基建公司对面,35.07144,109.08023,购物服务;购物相关场所;购物相关场所,B0FFGXNUIQ
426,MissLi,黑龙江省,佳木斯市,桦南县,MISSLI,桦南县前进路与市场街交叉口东北50米,46.23761,130.571882,购物服务;服装鞋帽皮具店;服装鞋帽皮具店,B0FFG148KQ
474,MissLi,黑龙江省,双鸭山市,宝清县,MISSLI女装,宝清县宝清镇汇丰三楼,46.32941,132.206665,购物服务;购物相关场所;购物相关场所,B0FFHPMGVS
162,MissLi,黑龙江省,哈尔滨市,南岗区,MISSLI,南岗区十字街沃尔玛一楼,45.757005,126.670399,购物服务;购物相关场所;购物相关场所,B0FFGW29T8
268,MissLi,黑龙江省,大庆市,龙凤区,MISSLI,龙凤区东风新村新玛特陆百伴旁,46.586303,125.117357,购物服务;服装鞋帽皮具店;服装鞋帽皮具店,B0FFG58HM4
486,MissLi,黑龙江省,鸡西市,鸡冠区,MissLi,鸡冠区跃进街矿务局大浴池楼下,45.291553,130.9695,购物服务;专卖店;专营店,B0FFGIIRJG
230,MissLi,黑龙江省,黑河市,嫩江县,missli,嫩江县九西线嫩江时代广场3层,49.176247,125.222869,购物服务;专卖店;专营店,B0FFH2KQCB
244,MissLi,黑龙江省,齐齐哈尔市,讷河市,MISSLI,讷河市通江路264号附近,48.482182,124.884757,购物服务;服装鞋帽皮具店;服装鞋帽皮具店,B0FFG30OZG
